{"type":"FeatureCollection","features":[{"type":"Feature","properties":{"N03_001":"北海道","N03_002":"石狩振興局","N03_003":"札幌市","N03_004":"中央区","N03_007":"01101"},"geometry":{"type":"Polygon","coordinates":[[[-37.45353408031762,77.03425283662479],[-37.47614029410152,77.03765034445225],[-37.54376194144492,77.02565010226455],[-37.5513417378106,77.00847783077056],[-37.58071905776411,77.0099538237127],[-37.58442860102997,77.00990144215658],[-37.60011861419183,77.01123313656758],[-37.560199138561984,77.00815181234103],[-37.545309570906646,77.00718932352216],[-37.525797550683585,77.00959427952732],[-37.48031467810661,77.01127324032326],[-37.44377033000917,77.03192415805812],[-37.43787724693076,77.03325226661272],[-37.45353408031762,77.03425283662479]]]}},{"type":"Feature","properties":{"N03_001":"北海道","N03_002":"石狩振興局","N03_003":"札幌市","N03_004":"北区","N03_007":"01102"},"geometry":{"type":"Polygon","coordinates":[[[-37.45353408031762,77.03425283662479],[-37.48297222826723,77.04377195306625],[-37.37971428178039,77.05397494984825],[-37.35041667162293,77.05476778890223],[-37.350552665849115,77.05571853074021],[-37.37840850122671,77.0596544113782],[-37.383971660879496,77.06077263661457],[-37.39416379962821,77.06181988250884],[-37.43018870381721,77.0643609467823],[-37.49464729782694,77.05569589636016],[-37.51721723712466,77.04964753773956],[-37.506404755189706,77.04463026043632],[-37.47614029410152,77.03765034445225],[-37.45353408031762,77.03425283662479]]]}},{"type":"Feature","properties":{"N03_001":"北海道","N03_002":"石狩振興局","N03_003":"札幌市","N03_004":"東区","N03_007":"01103"},"geometry":{"type":"Polygon","coordinates":[[[-37.43787724693076,77.03325226661272],[-37.33152725670424,77.04558267926433],[-37.323632904843045,77.04528351612817],[-37.33025424567194,77.04654314430404],[-37.33230641459124,77.05185297435432],[-37.3441345521331,77.0550385680039],[-37.350552665849115,77.05571853074021],[-37.35041667162293,77.05476778890223],[-37.37971428178039,77.05397494984825],[-37.48297222826723,77.04377195306625],[-37.45353408031762,77.03425283662479],[-37.43787724693076,77.03325226661272]]]}},{"type":"Feature","properties":{"N03_001":"北海道","N03_002":"石狩振興局","N03_003":"札幌市","N03_004":"白石区","N03_007":"01104"},"geometry":{"type":"Polygon","coordinates":[[[-37.44377033000917,77.03192415805812],[-37.35855453686645,77.01748739516775],[-37.34902879482323,77.01673772737264],[-37.33626592586184,77.01799764497434],[-37.3265490104971,77.04136609102554],[-37.31385783143007,77.04513571047323],[-37.323632904843045,77.04528351612817],[-37.33152725670424,77.04558267926433],[-37.43787724693076,77.03325226661272],[-37.44377033000917,77.03192415805812]]]}},{"type":"Feature","properties":{"N03_001":"北海道","N03_002":"石狩振興局","N03_003":"札幌市","N03_004":"豊平区","N03_007":"01105"},"geometry":{"type":"Polygon","coordinates":[[[-37.48031467810661,77.01127324032326],[-37.44581518808891,77.01393105720153],[-37.49515672569663,77.00551665080357],[-37.46798333479607,77.0035043298363],[-37.472477797659906,77.004344266191],[-37.411708608910246,77.00868637524671],[-37.35855453686645,77.01748739516775],[-37.44377033000917,77.03192415805812],[-37.48031467810661,77.01127324032326]]]}},{"type":"Feature","properties":{"N03_001":"北海道","N03_002":"石狩振興局","N03_003":"札幌市","N03_004":"南区","N03_007":"01106"},"geometry":{"type":"Polygon","coordinates":[[[-37.60011861419183,77.01123313656758],[-37.61703754065949,77.01395396112864],[-37.64358756732779,77.02280459871213],[-37.64008448702286,77.02739591466785],[-37.643069541625316,77.02843119058774],[-37.64866558229005,77.03258950367028],[-37.6662335063807,77.0327687111157],[-37.67723875843561,77.02454705684602],[-37.68213396593695,77.02375123454384],[-37.686718459779925,77.02121704088819],[-37.70140629447996,77.02104548354149],[-37.68986236713702,77.0173744459147],[-37.67530253714872,77.01523318863195],[-37.65060388611413,77.01330388766984],[-37.65455815499872,77.01272802221851],[-37.648186108740276,77.01184308955557],[-37.62035036409786,77.01075531962002],[-37.61769513906829,77.00940267921523],[-37.59628990276623,77.0077201441802],[-37.57879566901609,77.00548690113135],[-37.55719146552513,77.00467100374799],[-37.54270633797725,77.00573740904449],[-37.540626740377796,77.00718110459637],[-37.51652174328411,77.00586992637186],[-37.499698743053564,77.00436277332572],[-37.47393293998795,77.00267282981524],[-37.450703481654834,77.00111311923685],[-37.46798333479607,77.0035043298363],[-37.49515672569663,77.00551665080357],[-37.44581518808891,77.01393105720153],[-37.48031467810661,77.01127324032326],[-37.525797550683585,77.00959427952732],[-37.545309570906646,77.00718932352216],[-37.560199138561984,77.00815181234103],[-37.60011861419183,77.01123313656758]]]}},{"type":"Feature","properties":{"N03_001":"北海道","N03_002":"石狩振興局","N03_003":"札幌市","N03_004":"西区","N03_007":"01107"},"geometry":{"type":"Polygon","coordinates":[[[-37.47614029410152,77.03765034445225],[-37.506404755189706,77.04463026043632],[-37.51177819640566,77.03951890448786],[-37.607793148778256,77.02683983214014],[-37.637399323317005,77.02511335505159],[-37.64008448702286,77.02739591466785],[-37.64358756732779,77.02280459871213],[-37.61703754065949,77.01395396112864],[-37.60011861419183,77.01123313656758],[-37.58442860102997,77.00990144215658],[-37.58071905776411,77.0099538237127],[-37.5513417378106,77.00847783077056],[-37.54376194144492,77.02565010226455],[-37.47614029410152,77.03765034445225]]]}},{"type":"Feature","properties":{"N03_001":"北海道","N03_002":"石狩振興局","N03_003":"札幌市","N03_004":"厚別区","N03_007":"01108"},"geometry":{"type":"Polygon","coordinates":[[[-37.34902879482323,77.01673772737264],[-37.30008365798022,77.01610440600733],[-37.254496243277465,77.01852638359188],[-37.24198285661832,77.03011923507327],[-37.306781729005664,77.04181210905718],[-37.31385783143007,77.04513571047323],[-37.3265490104971,77.04136609102554],[-37.33626592586184,77.01799764497434],[-37.34902879482323,77.01673772737264]]]}},{"type":"Feature","properties":{"N03_001":"北海道","N03_002":"石狩振興局","N03_003":"札幌市","N03_004":"手稲区","N03_007":"01109"},"geometry":{"type":"Polygon","coordinates":[[[-37.51721723712466,77.04964753773956],[-37.536187743144566,77.0534577493567],[-37.55495282180099,77.0528624167857],[-37.59641454343209,77.04886605204364],[-37.59466396280698,77.0458147567751],[-37.643069541625316,77.02843119058774],[-37.64008448702286,77.02739591466785],[-37.637399323317005,77.02511335505159],[-37.607793148778256,77.02683983214014],[-37.51177819640566,77.03951890448786],[-37.506404755189706,77.04463026043632],[-37.51721723712466,77.04964753773956]]]}},{"type":"Feature","properties":{"N03_001":"北海道","N03_002":"石狩振興局","N03_003":"札幌市","N03_004":"清田区","N03_007":"01110"},"geometry":{"type":"Polygon","coordinates":[[[-37.35855453686645,77.01748739516775],[-37.411708608910246,77.00868637524671],[-37.472477797659906,77.004344266191],[-37.46798333479607,77.0035043298363],[-37.450703481654834,77.00111311923685],[-37.43327318533883,76.99776627377685],[-37.43803786205471,77.00000695219427],[-37.33373993328433,77.00319842086606],[-37.30008365798022,77.01610440600733],[-37.34902879482323,77.01673772737264],[-37.35855453686645,77.01748739516775]]]}},{"type":"Feature","properties":{"N03_001":"北海道","N03_002":"渡島総合振興局","N03_003":null,"N03_004":"函館市","N03_007":"01202"},"geometry":{"type":"Polygon","coordinates":[[[-37.8044740814926,76.95076141236757],[-37.79696958451219,76.94931462285741],[-37.81644914208823,76.94862066264572],[-37.810793689344095,76.94750221093794],[-37.788761064046845,76.94920864458803],[-37.757096285974164,76.95008552479374],[-37.726018925661606,76.94992013244433],[-37.691165407408114,76.94935720999256],[-37.67098847321709,76.94795562589672],[-37.65170758535381,76.94791368722005],[-37.61599779516084,76.94852434248135],[-37.598762958074886,76.94999255112691],[-37.56894277387767,76.94971130711396],[-37.55003816809162,76.95071130933582],[-37.57568153889114,76.95171855632583],[-37.58317972978828,76.95270379326215],[-37.617767089517784,76.95324657274853],[-37.64731215650136,76.95319993215341],[-37.67522811715179,76.95381575254417],[-37.688582033876706,76.95454181506992],[-37.70146082032269,76.95696724768192],[-37.72605120733039,76.95905568826359],[-37.73735450006663,76.95826262751056],[-37.73471878763381,76.95618348440745],[-37.75398086135516,76.95508173451093],[-37.76238006235177,76.95527980255304],[-37.769119267405024,76.95320357930653],[-37.7897984526263,76.95260807356966],[-37.81007021647177,76.95240630674017],[-37.79812340610276,76.95115358748522],[-37.8044740814926,76.95076141236757]]]}},{"type":"Feature","properties":{"N03_001":"北海道","N03_002":"後志総合振興局","N03_003":null,"N03_004":"小樽市","N03_007":"01203"},"geometry":{"type":"Polygon","coordinates":[[[-37.643069541625316,77.02843119058774],[-37.59466396280698,77.0458147567751],[-37.59641454343209,77.04886605204364],[-37.55495282180099,77.0528624167857],[-37.536187743144566,77.0534577493567],[-37.504511977315104,77.05763383903867],[-37.523880474520375,77.05550176451378],[-37.567290657458614,77.05218084851514],[-37.611488210016496,77.04661566266105],[-37.63943805033665,77.04627266114036],[-37.678202998759645,77.0446238673852],[-37.66940447146088,77.05009988096457],[-37.69332767146852,77.04891210518518],[-37.733630535312365,77.04546566258809],[-37.739347815228385,77.04416797067975],[-37.775499165931016,77.04111522114982],[-37.76910840993472,77.03769701314405],[-37.76157912880451,77.03820325202696],[-37.744972474039955,77.0364034594257],[-37.746260146133125,77.03342022769633],[-37.70486117580738,77.03327934075517],[-37.7047694927303,77.02838908991131],[-37.69575539547999,77.0258171792725],[-37.68213396593695,77.02375123454384],[-37.67723875843561,77.02454705684602],[-37.6662335063807,77.0327687111157],[-37.64866558229005,77.03258950367028],[-37.643069541625316,77.02843119058774]]]}},{"type":"Feature","properties":{"N03_001":"北海道","N03_002":"胆振総合振興局","N03_003":null,"N03_004":"室蘭市","N03_007":"01205"},"geometry":{"type":"Polygon","coordinates":[[[-37.5932797094073,76.97712923786968],[-37.59702519737038,76.97746898295664],[-37.65316383100473,76.98948152156323],[-37.67628062151282,76.99030860480504],[-37.68009811600943,76.98993778516919],[-37.71639341166368,76.98681857408438],[-37.73781965312703,76.98396017719122],[-37.71245051927907,76.97580333566138],[-37.70496687256667,76.9730241411183],[-37.64632747949933,76.97113492279817],[-37.632132148451944,76.97172513703852],[-37.5932797094073,76.97712923786968]]]}},{"type":"Feature","properties":{"N03_001":"北海道","N03_002":"上川総合振興局","N03_003":null,"N03_004":"旭川市","N03_007":"01204"},"geometry":{"type":"Polygon","coordinates":[[[-36.93360677984675,77.08374470411212],[-36.9195996754749,77.08238630271958],[-36.897581377564286,77.08194123228317],[-36.895682192129314,77.08097076457395],[-36.878430211723355,77.08017811823598],[-36.895575458912866,77.0801593339271],[-36.893541211346076,77.07999277771931],[-36.90160013571668,77.07986582630184],[-36.90163368187485,77.0783501045725],[-36.88475938723863,77.07614323706571],[-36.871694972155574,77.07667301707201],[-36.855528683988844,77.07661065309092],[-36.85005220737432,77.07452624630389],[-36.85354570178854,77.07003959184992],[-36.85028229206397,77.06032188200017],[-36.8442620328409,77.05949027224722],[-36.83880146664942,77.06539558320902],[-36.82770753826004,77.07153464685172],[-36.813913166266246,77.07363449975865],[-36.81102426102787,77.07655432345575],[-36.801517494761285,77.07633994737839],[-36.78048340199611,77.0717299304492],[-36.73966542746287,77.07116083866876],[-36.743179266945376,77.07261963508398],[-36.771492086777855,77.0732419713538],[-36.79956786098734,77.07685855613381],[-36.808710990188885,77.07709917163498],[-36.8161696658012,77.07768232508458],[-36.811415678650356,77.07790046104817],[-36.78558722291418,77.0773123822968],[-36.78415324930026,77.0784477900834],[-36.766681552039,77.07847790453593],[-36.75700662254081,77.07784790857949],[-36.73565075235907,77.07683118989173],[-36.71725886701422,77.07642242421184],[-36.70476485668964,77.07501977933298],[-36.679586270437035,77.07346976269169],[-36.64700463770406,77.072792731895],[-36.65267364381417,77.07572512357555],[-36.66606113018869,77.07697579614992],[-36.69077123394377,77.07698397561641],[-36.69945140603246,77.07777632326405],[-36.74984173461343,77.0789208825312],[-36.76921139744879,77.079741404955],[-36.79259513075752,77.0813406012318],[-36.78593527661052,77.09208315265037],[-36.7868107090225,77.09263215134523],[-36.79075482808229,77.09230923747025],[-36.80454201482594,77.08886378617085],[-36.815226877896805,77.08247324633989],[-36.82475112735653,77.08153918810426],[-36.81672818152516,77.0812866302928],[-36.83164285635139,77.08092616601171],[-36.850421871617435,77.08015030814839],[-36.85608982223991,77.08007370629298],[-36.86564024551423,77.08329258889154],[-36.85601067745299,77.08712218686172],[-36.87470025602665,77.08741350285696],[-36.90327300346199,77.08611800192656],[-36.93360677984675,77.08374470411212]]]}},{"type":"Feature","properties":{"N03_001":"北海道","N03_002":"十勝総合振興局","N03_003":null,"N03_004":"帯広市","N03_007":"01207"},"geometry":{"type":"Polygon","coordinates":[[[-36.43451294159037,77.02376697977944],[-36.44310568753612,77.02380501943668],[-36.45528845096718,77.02174880984063],[-36.45575358236196,77.01884469402997],[-36.43864804158266,77.01922805872164],[-36.456699805872525,77.01600812942208],[-36.4757380366005,77.01491806750082],[-36.51322486716152,77.01392560106775],[-36.5346287851288,77.01260266690977],[-36.55007692898924,77.01324639056739],[-36.616179187680835,77.01342092965876],[-36.62424807211852,77.01399336312042],[-36.65193242967845,77.01396360106526],[-36.67102323699622,77.01249352809337],[-36.66668917605159,77.0118498696679],[-36.64460323116385,77.01106578912434],[-36.63202036192238,77.01123037789742],[-36.628959583350714,77.00922174736291],[-36.61165797560348,77.01008110956256],[-36.59143497459092,77.01020235123055],[-36.572522764170365,77.01124630557489],[-36.57828087625425,77.00794508530457],[-36.55876644893143,77.00672317759557],[-36.54795741646651,77.00798657262807],[-36.52750323613263,77.00799541952672],[-36.495249910261805,77.01032718727446],[-36.473761768614914,77.01210919070236],[-36.47744601066591,77.01219636514526],[-36.45781890131758,77.01292852789226],[-36.44187271074391,77.01305872826597],[-36.42316895613927,77.0127081658935],[-36.424561170022876,77.01185699370379],[-36.39462471716545,77.01118201697666],[-36.39079152764883,77.01222656648558],[-36.379158960635316,77.01386203298378],[-36.40100858458015,77.01407010982832],[-36.392200852393785,77.01504353768193],[-36.40182371881388,77.01575963200193],[-36.41678587390413,77.0157150968942],[-36.40509061657308,77.01716375039305],[-36.396808603605386,77.02022737186086],[-36.4027654922881,77.02046895976],[-36.382647490489454,77.02343292229862],[-36.40794364284545,77.02316296320936],[-36.43451294159037,77.02376697977944]]]}},{"type":"Feature","properties":{"N03_001":"北海道","N03_002":"オホーツク総合振興局","N03_003":null,"N03_004":"北見市","N03_007":"01208"},"geometry":{"type":"Polygon","coordinates":[[[-35.944499951316764,77.08410652697248],[-35.957133855624015,77.08428500510837],[-35.97642040087873,77.08353676515334],[-36.06151937205614,77.08078416501736],[-36.12154999070833,77.08058273852566],[-36.129755747391364,77.07442554748339],[-36.06902554775126,77.07836978373517],[-36.057041812924744,77.07724427138491],[-36.09093255705272,77.07278725762187],[-36.110923277241255,77.07345838761326],[-36.11435073587623,77.07363053625718],[-36.12638749604283,77.07335682975385],[-36.13092338840129,77.07356057289171],[-36.13570821287714,77.07480515092563],[-36.14182536175904,77.07480267263418],[-36.138427978433235,77.07604023215258],[-36.15231606783744,77.07763653427706],[-36.17047967902239,77.0757694193067],[-36.17656256321746,77.07608117969964],[-36.18440653021216,77.075580170784],[-36.185687445543635,77.07707834437885],[-36.190807499891235,77.07731124618604],[-36.18963633846814,77.07800335468025],[-36.20058081995875,77.0784225212148],[-36.20397126505734,77.07913436145704],[-36.219874314796485,77.07939727693481],[-36.225081879881444,77.07992501868891],[-36.2427013315721,77.08030301065673],[-36.25274147323246,77.0806713804348],[-36.281872077075676,77.07960948585566],[-36.29743001330332,77.07876833451253],[-36.333301296869166,77.07679926002075],[-36.336086698951675,77.07583201347275],[-36.35611614155059,77.07463137179525],[-36.390327586514125,77.07415536556367],[-36.41260592796126,77.07245958340555],[-36.39504895731165,77.07085334162817],[-36.418979248082486,77.06879124220045],[-36.41635971909079,77.06812954802363],[-36.3987157282235,77.06846379849566],[-36.38743500747951,77.07034661828365],[-36.35945365352684,77.07202634745438],[-36.32730556645756,77.07381728612111],[-36.28723272567685,77.07551830572713],[-36.236922621495886,77.08243584721858],[-36.22624854690599,77.08319105359654],[-36.208940912236294,77.08339763953542],[-36.20032045899065,77.08298709771829],[-36.19834466447013,77.08199735439992],[-36.183672228773226,77.08092711178844],[-36.17355811210203,77.08110066902837],[-36.16473836995132,77.0803632432795],[-36.130249356379316,77.08050201052959],[-36.129390536318894,77.0827364183617],[-36.13293725165513,77.08382123321643],[-36.126528199864715,77.08477917305099],[-36.11665630121611,77.08351056294846],[-36.10606830269594,77.08353188743315],[-36.10284022480358,77.08258527723034],[-36.086613635382896,77.08111500680997],[-36.06519997036175,77.07771094560137],[-36.032345683724074,77.07715149415573],[-36.01490816406336,77.07718683609582],[-36.04131083390893,77.07669658156175],[-36.04785237458931,77.07595454952178],[-36.017566144445404,77.07720166177418],[-36.0003365052806,77.07969904453242],[-35.96617092869828,77.0831397503656],[-35.944499951316764,77.08410652697248]]]}},{"type":"Feature","properties":{"N03_001":"北海道","N03_002":"空知総合振興局","N03_003":null,"N03_004":"夕張市","N03_007":"01209"},"geometry":{"type":"Polygon","coordinates":[[[-36.87338437128989,77.04280117858893],[-36.89187394776286,77.04079995410628],[-36.91833137369761,77.03886365363539],[-36.92829489125713,77.04018071663293],[-36.937305111265815,77.0363817133085],[-36.95664925958695,77.03306216026346],[-36.977016425471604,77.03171337433805],[-36.99207738485154,77.03065885440353],[-36.992691551069974,77.02995354341427],[-37.040299148588886,77.02970642826143],[-37.052282394299574,77.02976032590931],[-37.056061284435586,77.02761779699983],[-37.05231681633457,77.0254251029378],[-37.0356203861637,77.02599344645253],[-37.04267748251315,77.02057460286048],[-37.03028249244326,77.02045839291007],[-37.02607114249917,77.01732650758228],[-37.00898574896052,77.01792187583297],[-36.99015594223281,77.01909735623401],[-36.975450930968975,77.02194571432602],[-36.97233295137614,77.02418934278256],[-36.95714847903463,77.02525674715892],[-36.95687982873997,77.02605414520032],[-36.931734099709146,77.02649021702693],[-36.91708193764724,77.02728043330391],[-36.89810637886584,77.0274931609355],[-36.89014759927952,77.02877139266361],[-36.869547948717454,77.0295727211579],[-36.87931339347131,77.03017407287993],[-36.90139693554153,77.03032946649562],[-36.907843836131356,77.03102132334408],[-36.90748697467872,77.03202381197525],[-36.89482473387273,77.03395446809256],[-36.89652922629681,77.03502103172873],[-36.87384375672309,77.04027453606224],[-36.87338437128989,77.04280117858893]]]}},{"type":"Feature","properties":{"N03_001":"北海道","N03_002":"空知総合振興局","N03_003":null,"N03_004":"岩見沢市","N03_007":"01210"},"geometry":{"type":"Polygon","coordinates":[[[-36.99207738485154,77.03065885440353],[-36.99868553216068,77.03197202542115],[-37.067536823595425,77.03638571300309],[-37.07782335148136,77.03585358315918],[-37.11957819976797,77.03888240142852],[-37.1386105010798,77.04131443554498],[-37.14160532934615,77.0426084546342],[-37.159343665648635,77.04513797056539],[-37.19254875684567,77.05007768388828],[-37.233125169687,77.05421738353871],[-37.24451843974334,77.05386085396862],[-37.245731214032226,77.05284845231729],[-37.243577990414565,77.05176981630578],[-37.21507986345293,77.04765619251967],[-37.23272176638429,77.04680601195192],[-37.22100712523453,77.04521261270581],[-37.178770828481476,77.03650420654681],[-37.15931166524773,77.03136201435065],[-37.136006019734175,77.030336910346],[-37.085093529870605,77.03275666650065],[-37.040299148588886,77.02970642826143],[-36.992691551069974,77.02995354341427],[-36.99207738485154,77.03065885440353]]]}},{"type":"Feature","properties":{"N03_001":"北海道","N03_002":"オホーツク総合振興局","N03_003":null,"N03_004":"網走市","N03_007":"01211"},"geometry":{"type":"Polygon","coordinates":[[[-36.01490816406336,77.07718683609582],[-35.99424037848021,77.07774934193591],[-35.96013451195631,77.07844637803402],[-35.92748599938449,77.07948723058784],[-35.9105235989155,77.07951444318701],[-35.89659713697928,77.07910684914101],[-35.872136434617865,77.0771767510962],[-35.845306599681244,77.07717859840521],[-35.848363922171174,77.07806497647921],[-35.79891389114341,77.07679324097288],[-35.79534891570748,77.07560060401529],[-35.80473093865886,77.0746600124532],[-35.78967911471613,77.07277008610912],[-35.79443765439973,77.07443188636411],[-35.789482655204075,77.07592852672127],[-35.76832221933121,77.07750908449279],[-35.76994681862934,77.07932240993007],[-35.791118223538355,77.0795421628427],[-35.809844797577064,77.08027489738346],[-35.84818286852341,77.08092007415368],[-35.8533337206669,77.08203436904483],[-35.87218336836548,77.08247363093368],[-35.86767414416306,77.08425252700316],[-35.8695000081205,77.08549247167929],[-35.896863987811706,77.084465377526],[-35.944499951316764,77.08410652697248],[-35.96617092869828,77.0831397503656],[-36.0003365052806,77.07969904453242],[-36.017566144445404,77.07720166177418],[-36.04785237458931,77.07595454952178],[-36.04131083390893,77.07669658156175],[-36.01490816406336,77.07718683609582]]]}},{"type":"Feature","properties":{"N03_001":"北海道","N03_002":"留萌振興局","N03_003":null,"N03_004":"留萌市","N03_007":"01212"},"geometry":{"type":"Polygon","coordinates":[[[-37.098673687473415,77.08689257132919],[-37.11634381213583,77.08807408907968],[-37.157202539239165,77.08856118908649],[-37.177064358608845,77.08676114202],[-37.198581667243026,77.08657538328326],[-37.226138048900815,77.08824813073157],[-37.24238201278925,77.08814066901371],[-37.25759980356119,77.0891128515158],[-37.2774212739461,77.08484505931148],[-37.28901567608277,77.08354211786782],[-37.25951131750768,77.08188716750301],[-37.26012370707212,77.08051467490515],[-37.23902785038339,77.07867308384961],[-37.23664922124636,77.07743465305117],[-37.18763374050216,77.07773716881493],[-37.16020236807399,77.07910389552161],[-37.16229612955861,77.08010950435525],[-37.11518366668531,77.08230202467689],[-37.10813370860341,77.08391579053699],[-37.087322635249535,77.08493120767976],[-37.09988479240434,77.08614171882853],[-37.098673687473415,77.08689257132919]]]}},{"type":"Feature","properties":{"N03_001":"北海道","N03_002":"胆振総合振興局","N03_003":null,"N03_004":"苫小牧市","N03_007":"01213"},"geometry":{"type":"Polygon","coordinates":[[[-37.18670265448605,77.00500508918375],[-37.21467661544759,77.003214445523],[-37.255744109601864,77.00267272475475],[-37.27672536977457,77.00232836134204],[-37.288159372316606,77.001720563389],[-37.297313184220364,77.00052169236697],[-37.32077576359835,76.99744794075502],[-37.397618498586525,76.99241356528306],[-37.386892241200464,76.99324153286518],[-37.41269646856455,76.99388075481389],[-37.4345843750686,76.99452837931007],[-37.44520417592286,76.99491828394717],[-37.441793697336124,76.99368278937382],[-37.407738761549986,76.992509934459],[-37.39038250303003,76.99164700247627],[-37.3165730121958,76.99516749532418],[-37.265895697327764,76.9977639146615],[-37.21670020052941,76.9980978015976],[-37.19160655673208,76.99791189409392],[-37.16917705322709,76.99717229310649],[-37.1589012081032,76.99852767599104],[-37.156234035089746,77.00069686003937],[-37.14752421026275,77.00247175443741],[-37.16620311727322,77.0018943908503],[-37.19250526613674,77.00252683792009],[-37.18670265448605,77.00500508918375]]]}},{"type":"Feature","properties":{"N03_001":"北海道","N03_002":"宗谷総合振興局","N03_003":null,"N03_004":"稚内市","N03_007":"01214"},"geometry":{"type":"Polygon","coordinates":[[[-37.071696368246066,77.16682717174191],[-37.08542279198782,77.1691339904481],[-37.10960847928315,77.17035417113182],[-37.11180360784549,77.172393208599],[-37.124152136621305,77.17314648094249],[-37.14681901404064,77.17164915747632],[-37.15451588876648,77.17021718411883],[-37.156965356524395,77.16706670180284],[-37.173667484658104,77.16606706472831],[-37.19145477985175,77.16596632048812],[-37.22784770756608,77.1657371178621],[-37.24195464455048,77.16629300048979],[-37.265427252266036,77.16922321772641],[-37.26944655525299,77.16783220179694],[-37.26254266037179,77.16634767182387],[-37.24944851456716,77.1654547042555],[-37.25519369310647,77.16481507107615],[-37.27400810508851,77.1641746384665],[-37.28107861920711,77.16267001054855],[-37.30517698989674,77.1606286636739],[-37.31040745703569,77.15830061445676],[-37.306174361940606,77.15704083436006],[-37.29432640905366,77.15871340371214],[-37.27260712402599,77.15970358916931],[-37.255328538412336,77.16167200969156],[-37.21678638669177,77.16314045686092],[-37.2153872336308,77.16362251611123],[-37.20403484010793,77.16360286818622],[-37.19480035271899,77.16310763451102],[-37.20059482498821,77.16295443107265],[-37.18883382844243,77.1617309902624],[-37.15934502733352,77.15911143201264],[-37.1420448211486,77.15998352562052],[-37.12645716155297,77.1620718543559],[-37.09847461121986,77.16118365026128],[-37.108765704570246,77.16354072808717],[-37.11967815138953,77.16380303322836],[-37.11679839694807,77.16419458223034],[-37.123156369921396,77.16449152289005],[-37.11631611484845,77.16476208616986],[-37.07785722219772,77.16566575229909],[-37.071696368246066,77.16682717174191]]]}},{"type":"Feature","properties":{"N03_001":"北海道","N03_002":"空知総合振興局","N03_003":null,"N03_004":"美唄市","N03_007":"01215"},"geometry":{"type":"Polygon","coordinates":[[[-37.14160532934615,77.0426084546342],[-37.10872173669133,77.04072621642457],[-37.09137459998811,77.04243702041424],[-37.0123085103304,77.04509105776309],[-36.98188699187,77.04754512181579],[-36.96243382454325,77.04841109397279],[-36.95225385125755,77.04918347471933],[-36.95537293449719,77.04870309543534],[-36.97902850487683,77.04734250572699],[-37.02805533988012,77.04749342054205],[-37.06006732949774,77.04844331070004],[-37.08294756224228,77.04979855082084],[-37.16890727726742,77.05442379218141],[-37.16830003820901,77.05383968452489],[-37.19661858709729,77.05431785955135],[-37.197923664962566,77.05343050399979],[-37.231803118490234,77.05484962911858],[-37.233125169687,77.05421738353871],[-37.19254875684567,77.05007768388828],[-37.159343665648635,77.04513797056539],[-37.14160532934615,77.0426084546342]]]}},{"type":"Feature","properties":{"N03_001":"北海道","N03_002":"空知総合振興局","N03_003":null,"N03_004":"芦別市","N03_007":"01216"},"geometry":{"type":"Polygon","coordinates":[[[-36.871694972155574,77.07667301707201],[-36.88259496441634,77.07461322856568],[-36.9242894936469,77.077209811948],[-36.93416482091428,77.07745958412764],[-36.906517681329326,77.06298125941072],[-36.898547394169725,77.05593314663666],[-36.91495870474821,77.05288285101516],[-36.93127484147649,77.04913917882605],[-36.939002509415744,77.04879044576205],[-36.95117148955711,77.04845740058325],[-36.95537293449719,77.04870309543534],[-36.95225385125755,77.04918347471933],[-36.96243382454325,77.04841109397279],[-36.95797863849591,77.04833775650506],[-36.97484049737087,77.0463089973876],[-36.958798745966654,77.04554537318691],[-36.94974388178929,77.03890787654662],[-36.92829489125713,77.04018071663293],[-36.91833137369761,77.03886365363539],[-36.89187394776286,77.04079995410628],[-36.87338437128989,77.04280117858893],[-36.871804449006454,77.04379434268748],[-36.86603232702192,77.04828587611064],[-36.873373608066444,77.05048464799056],[-36.86479763449502,77.05220742719204],[-36.85114022207614,77.05256488391801],[-36.84443941545718,77.05302768629775],[-36.837318508476336,77.0535935364281],[-36.838699050339756,77.05468233982138],[-36.834626590311686,77.05541908281975],[-36.84709470466052,77.057662353773],[-36.8442620328409,77.05949027224722],[-36.85028229206397,77.06032188200017],[-36.85354570178854,77.07003959184992],[-36.85005220737432,77.07452624630389],[-36.855528683988844,77.07661065309092],[-36.871694972155574,77.07667301707201]]]}},{"type":"Feature","properties":{"N03_001":"北海道","N03_002":"石狩振興局","N03_003":null,"N03_004":"江別市","N03_007":"01217"},"geometry":{"type":"Polygon","coordinates":[[[-37.323632904843045,77.04528351612817],[-37.31385783143007,77.04513571047323],[-37.306781729005664,77.04181210905718],[-37.24198285661832,77.03011923507327],[-37.254496243277465,77.01852638359188],[-37.24291838611043,77.01988621900809],[-37.21880311625612,77.02292418394661],[-37.20765276180437,77.02759237090551],[-37.212319023356415,77.03140413297513],[-37.178770828481476,77.03650420654681],[-37.22100712523453,77.04521261270581],[-37.254696936938196,77.04834363373071],[-37.26284127893126,77.04965518799615],[-37.3441345521331,77.0550385680039],[-37.33230641459124,77.05185297435432],[-37.33025424567194,77.04654314430404],[-37.323632904843045,77.04528351612817]]]}},{"type":"Feature","properties":{"N03_001":"北海道","N03_002":"空知総合振興局","N03_003":null,"N03_004":"赤平市","N03_007":"01218"},"geometry":{"type":"Polygon","coordinates":[[[-36.93416482091428,77.07745958412764],[-36.95584335090745,77.07851817363535],[-36.95642994176855,77.07821903550199],[-36.98387791941862,77.07851930053563],[-37.026369389816544,77.07427704027064],[-37.049788333267,77.0665751696568],[-37.04758467361343,77.06579071996619],[-37.03427566709002,77.0638691051776],[-36.95780476259692,77.06421027074332],[-36.91889620260839,77.05685792247732],[-36.91495870474821,77.05288285101516],[-36.898547394169725,77.05593314663666],[-36.906517681329326,77.06298125941072],[-36.93416482091428,77.07745958412764]]]}},{"type":"Feature","properties":{"N03_001":"北海道","N03_002":"オホーツク総合振興局","N03_003":null,"N03_004":"紋別市","N03_007":"01219"},"geometry":{"type":"Polygon","coordinates":[[[-36.22554259470445,77.08750784971264],[-36.304543378000155,77.08992779614421],[-36.32456755037372,77.09127243017298],[-36.335256670464766,77.09456311293074],[-36.36706884047063,77.09744908970734],[-36.366640633219134,77.09590758602859],[-36.3784734766794,77.09307684327925],[-36.39524339722466,77.09358402742673],[-36.39450737092905,77.09234888302728],[-36.42004248660056,77.0935768028031],[-36.43818039670872,77.0935494863164],[-36.44984641834811,77.09286650916276],[-36.408175530634736,77.09032889770788],[-36.39326542683505,77.09003617502513],[-36.39178049211291,77.0897039926115],[-36.39948132541651,77.08972744634309],[-36.404894854818295,77.08954608982383],[-36.4160391290733,77.08956271249635],[-36.40656172968679,77.08863119005808],[-36.422735516150176,77.08696383115023],[-36.4192316866907,77.08545123036863],[-36.42448206605024,77.08475389169558],[-36.3992892351004,77.08391335920632],[-36.3922499964137,77.08476629768745],[-36.37327759758501,77.0845522495684],[-36.3507658504366,77.08550310892302],[-36.33364821428171,77.08419905216199],[-36.321769948540485,77.0847072463442],[-36.29841592602177,77.08570495713928],[-36.28612665011335,77.08441286634046],[-36.29370367081069,77.08601737980656],[-36.28711354379828,77.08624708784777],[-36.2723474757327,77.08594615672725],[-36.25249028326322,77.08657486469002],[-36.22554259470445,77.08750784971264]]]}},{"type":"Feature","properties":{"N03_001":"北海道","N03_002":"上川総合振興局","N03_003":null,"N03_004":"士別市","N03_007":"01220"},"geometry":{"type":"Polygon","coordinates":[[[-36.847003997666505,77.09112382496045],[-36.859332034998,77.09207108067916],[-36.91609488949652,77.09723130913859],[-36.934710757042716,77.09645487380446],[-36.90872379210316,77.09465953508962],[-36.91456048022113,77.09215867261734],[-36.89045908529109,77.09094010094914],[-36.90752366405227,77.09079925295791],[-36.91068553416653,77.08985748644892],[-36.868299207924615,77.09003841418173],[-36.838261657731536,77.09116316072577],[-36.839452782460576,77.09074035347732],[-36.833426507115334,77.0905237359033],[-36.83638735625743,77.09001007696021],[-36.83281885888953,77.08919690696271],[-36.827026349674135,77.08876664622433],[-36.813269008174274,77.08899670193414],[-36.81007114501935,77.08945957587646],[-36.79427421223419,77.08942500425465],[-36.79557882588088,77.08983220336619],[-36.78510190770873,77.08999410273394],[-36.775571827264976,77.09017861293839],[-36.77181582018874,77.0908598837463],[-36.77345643584018,77.09226116535497],[-36.76794909757273,77.09270601696537],[-36.755089142030236,77.0922158205263],[-36.750815435417515,77.09179274323425],[-36.73811914792653,77.09164765322475],[-36.73095442147339,77.09136347792305],[-36.721793460414595,77.09202951628613],[-36.71081360201318,77.09189983507531],[-36.69766356287977,77.09228833844811],[-36.66500953796441,77.0887741623132],[-36.650398476656996,77.0872542258253],[-36.62126191459574,77.08517842218241],[-36.603347960647085,77.0857486835977],[-36.58353443370327,77.08543791298811],[-36.573383086062684,77.08639518465559],[-36.596568022982744,77.08845125651438],[-36.613315917150445,77.08912228341674],[-36.615601582905704,77.08952441289244],[-36.63271810920945,77.08964692695099],[-36.634133968913325,77.08970380157574],[-36.66835776289613,77.08919016849211],[-36.68340662038265,77.08827323849764],[-36.693273550197915,77.08789350001452],[-36.71620721024239,77.08833662196864],[-36.72382855589417,77.08891364476524],[-36.72888145945992,77.08886316794995],[-36.746239307917335,77.08903506575429],[-36.76970081789912,77.0876937697695],[-36.77480707928783,77.08674878885168],[-36.78387177877144,77.0867955053941],[-36.78667785359196,77.08662581467689],[-36.847003997666505,77.09112382496045]]]}},{"type":"Feature","properties":{"N03_001":"北海道","N03_002":"上川総合振興局","N03_003":null,"N03_004":"名寄市","N03_007":"01221"},"geometry":{"type":"Polygon","coordinates":[[[-36.72888145945992,77.08886316794995],[-36.72592435333713,77.08862079238284],[-36.72724681014631,77.08761321046597],[-36.73672103929085,77.08679683534237],[-36.74023018807317,77.08609770196863],[-36.75803480215964,77.08613534732646],[-36.75130596043264,77.08755633799365],[-36.744922380965605,77.08815415627973],[-36.73902951793275,77.0924162006858],[-36.74835278612341,77.09911895042626],[-36.73695284846222,77.1015778702738],[-36.73654017349553,77.10261916541293],[-36.76959571870445,77.10296141941427],[-36.785441798270945,77.10392200685084],[-36.79671479591754,77.1057958932944],[-36.816736524847414,77.10583487050006],[-36.82674320055558,77.10691132606101],[-36.86870452306875,77.10583901612726],[-36.883051017211,77.10503641629016],[-36.87471851830323,77.1024987489678],[-36.8617007805348,77.09796333379016],[-36.865835664901674,77.09618844959634],[-36.87989643074931,77.09567169306365],[-36.847003997666505,77.09112382496045],[-36.78667785359196,77.08662581467689],[-36.78387177877144,77.0867955053941],[-36.77480707928783,77.08674878885168],[-36.76970081789912,77.0876937697695],[-36.746239307917335,77.08903506575429],[-36.72888145945992,77.08886316794995]]]}},{"type":"Feature","properties":{"N03_001":"北海道","N03_002":"空知総合振興局","N03_003":null,"N03_004":"三笠市","N03_007":"01222"},"geometry":{"type":"Polygon","coordinates":[[[-36.92829489125713,77.04018071663293],[-36.94974388178929,77.03890787654662],[-36.958798745966654,77.04554537318691],[-36.97484049737087,77.0463089973876],[-36.95797863849591,77.04833775650506],[-36.96243382454325,77.04841109397279],[-36.98188699187,77.04754512181579],[-37.0123085103304,77.04509105776309],[-37.09137459998811,77.04243702041424],[-37.10872173669133,77.04072621642457],[-37.14160532934615,77.0426084546342],[-37.1386105010798,77.04131443554498],[-37.11957819976797,77.03888240142852],[-37.07782335148136,77.03585358315918],[-37.067536823595425,77.03638571300309],[-36.99868553216068,77.03197202542115],[-36.99207738485154,77.03065885440353],[-36.977016425471604,77.03171337433805],[-36.95664925958695,77.03306216026346],[-36.937305111265815,77.0363817133085],[-36.92829489125713,77.04018071663293]]]}},{"type":"Feature","properties":{"N03_001":"北海道","N03_002":"石狩振興局","N03_003":null,"N03_004":"千歳市","N03_007":"01224"},"geometry":{"type":"Polygon","coordinates":[[[-37.55719146552513,77.00467100374799],[-37.567729234425805,77.00336993567261],[-37.54898800387931,76.99956926739625],[-37.539277959989036,76.99985895700841],[-37.517392019690725,76.99885833814035],[-37.50989333760963,76.99916783412681],[-37.47099203472374,76.9962206062064],[-37.4345843750686,76.99452837931007],[-37.41269646856455,76.99388075481389],[-37.386892241200464,76.99324153286518],[-37.397618498586525,76.99241356528306],[-37.32077576359835,76.99744794075502],[-37.297313184220364,77.00052169236697],[-37.288159372316606,77.001720563389],[-37.27672536977457,77.00232836134204],[-37.255744109601864,77.00267272475475],[-37.21467661544759,77.003214445523],[-37.18670265448605,77.00500508918375],[-37.15854895235634,77.008292658322],[-37.13959659487606,77.01282754410062],[-37.12827594231722,77.0146910432632],[-37.09012394235534,77.01883077722705],[-37.09770925353763,77.01929145538969],[-37.130006500475986,77.01739115009616],[-37.14420363588288,77.01867906031745],[-37.156860684347414,77.01540709371562],[-37.189367240810064,77.01195818728439],[-37.212426319954886,77.00789664644178],[-37.20041313965802,77.01234893627293],[-37.2589403499686,77.00270721053097],[-37.28422730160269,77.00148525588001],[-37.30859442839622,76.99711185282237],[-37.368747218515445,76.99020086413259],[-37.43698373498611,76.99589609110437],[-37.45467443547089,76.99822880197483],[-37.474687802935485,77.00060183922557],[-37.51730141508665,77.00351880377305],[-37.54270633797725,77.00573740904449],[-37.55719146552513,77.00467100374799]]]}},{"type":"Feature","properties":{"N03_001":"北海道","N03_002":"空知総合振興局","N03_003":null,"N03_004":"滝川市","N03_007":"01225"},"geometry":{"type":"Polygon","coordinates":[[[-36.95584335090745,77.07851817363535],[-36.96799879596032,77.07853891246262],[-36.997765134843085,77.07887765548656],[-37.04974042331487,77.08062312126616],[-37.10359625376413,77.07922467130709],[-37.15091148893375,77.07273785067359],[-37.154534947447225,77.07056413696851],[-37.15631282889553,77.06709458003475],[-37.15279216733732,77.06596497749513],[-37.08656323625351,77.06707534659704],[-37.049788333267,77.0665751696568],[-37.026369389816544,77.07427704027064],[-36.98387791941862,77.07851930053563],[-36.95642994176855,77.07821903550199],[-36.95584335090745,77.07851817363535]]]}},{"type":"Feature","properties":{"N03_001":"北海道","N03_002":"空知総合振興局","N03_003":null,"N03_004":"砂川市","N03_007":"01226"},"geometry":{"type":"Polygon","coordinates":[[[-37.049788333267,77.0665751696568],[-37.08656323625351,77.06707534659704],[-37.15279216733732,77.06596497749513],[-37.15128770711178,77.05984283883448],[-37.16144788585783,77.05738961798926],[-37.152131982950095,77.05534088943129],[-37.06273995441245,77.04983098962586],[-37.038503929127764,77.0489156499608],[-37.04669944515024,77.05054309388542],[-37.03427566709002,77.0638691051776],[-37.04758467361343,77.06579071996619],[-37.049788333267,77.0665751696568]]]}},{"type":"Feature","properties":{"N03_001":"北海道","N03_002":"空知総合振興局","N03_003":null,"N03_004":"歌志内市","N03_007":"01227"},"geometry":{"type":"Polygon","coordinates":[[[-36.91495870474821,77.05288285101516],[-36.91889620260839,77.05685792247732],[-36.95780476259692,77.06421027074332],[-37.03427566709002,77.0638691051776],[-37.04669944515024,77.05054309388542],[-36.99229075202689,77.04720860800559],[-36.96768573099263,77.04660609445408],[-36.939002509415744,77.04879044576205],[-36.93127484147649,77.04913917882605],[-36.91495870474821,77.05288285101516]]]}},{"type":"Feature","properties":{"N03_001":"北海道","N03_002":"空知総合振興局","N03_003":null,"N03_004":"深川市","N03_007":"01228"},"geometry":{"type":"Polygon","coordinates":[[[-36.93360677984675,77.08374470411212],[-36.949143759675515,77.08516548603863],[-36.95995218482329,77.0866647321853],[-36.955329677625336,77.08718026389948],[-36.969684219549514,77.08869075830843],[-36.967725726043994,77.08977903084612],[-36.987066386127196,77.09004314289217],[-36.99413966855871,77.08896852126004],[-37.00704285677054,77.0882523955798],[-37.011176796754526,77.08604250498358],[-37.006586765100614,77.0849818096042],[-36.98343914936894,77.08367229652174],[-36.969615767109794,77.08291003773084],[-36.97610845780617,77.08258177248652],[-37.011377868597826,77.08222148467449],[-37.01322539734335,77.08189841329775],[-37.01789693488623,77.08134574094883],[-37.04173490541046,77.08128033010597],[-37.02218404697661,77.08060632746151],[-37.04974042331487,77.08062312126616],[-36.997765134843085,77.07887765548656],[-36.96799879596032,77.07853891246262],[-36.95584335090745,77.07851817363535],[-36.93416482091428,77.07745958412764],[-36.9242894936469,77.077209811948],[-36.88259496441634,77.07461322856568],[-36.871694972155574,77.07667301707201],[-36.88475938723863,77.07614323706571],[-36.90163368187485,77.0783501045725],[-36.90160013571668,77.07986582630184],[-36.893541211346076,77.07999277771931],[-36.895575458912866,77.0801593339271],[-36.878430211723355,77.08017811823598],[-36.895682192129314,77.08097076457395],[-36.897581377564286,77.08194123228317],[-36.9195996754749,77.08238630271958],[-36.93360677984675,77.08374470411212]]]}},{"type":"Feature","properties":{"N03_001":"北海道","N03_002":"上川総合振興局","N03_003":null,"N03_004":"富良野市","N03_007":"01229"},"geometry":{"type":"Polygon","coordinates":[[[-36.871804449006454,77.04379434268748],[-36.85495450600782,77.04190483163575],[-36.85803702962704,77.03833334864323],[-36.83189617232186,77.03944038618495],[-36.819450173047024,77.04312401008144],[-36.80228810917927,77.04295663334902],[-36.7945949199967,77.04134676668113],[-36.78283600842792,77.0412168448101],[-36.7600692789918,77.04262189387393],[-36.741467488894465,77.04205440292925],[-36.720752626937205,77.04322338553163],[-36.70478032906586,77.04325549237461],[-36.693059256603,77.04408343421892],[-36.683845466145335,77.04615778019613],[-36.6838307171684,77.04743314535315],[-36.710338337656246,77.04976705071256],[-36.696623168220405,77.05080243068892],[-36.686087834447214,77.05371141848582],[-36.71991533258668,77.05196242724875],[-36.73017784239072,77.0524134430911],[-36.74561839742413,77.05156107417558],[-36.75818441615917,77.0507379795151],[-36.798745988588955,77.05109366788787],[-36.81185854077653,77.05109480583528],[-36.84315967059695,77.05272611236575],[-36.84443941545718,77.05302768629775],[-36.85114022207614,77.05256488391801],[-36.86479763449502,77.05220742719204],[-36.873373608066444,77.05048464799056],[-36.86603232702192,77.04828587611064],[-36.871804449006454,77.04379434268748]]]}},{"type":"Feature","properties":{"N03_001":"北海道","N03_002":"胆振総合振興局","N03_003":null,"N03_004":"登別市","N03_007":"01230"},"geometry":{"type":"Polygon","coordinates":[[[-37.5932797094073,76.97712923786968],[-37.58283441160276,76.98041937439372],[-37.537381431644235,76.98507723132393],[-37.52067796932521,76.98624529815238],[-37.53985962626482,76.99073255781485],[-37.5440964444572,76.99248297551486],[-37.57230055510986,76.99416783453346],[-37.57497133128788,76.99483696044776],[-37.60556312864096,76.99628292462312],[-37.65254061189095,76.99488806513978],[-37.68612830874626,76.99379881309581],[-37.68727576108222,76.99198925663923],[-37.67884097888641,76.99173765131405],[-37.67628062151282,76.99030860480504],[-37.65316383100473,76.98948152156323],[-37.59702519737038,76.97746898295664],[-37.5932797094073,76.97712923786968]]]}},{"type":"Feature","properties":{"N03_001":"北海道","N03_002":"石狩振興局","N03_003":null,"N03_004":"恵庭市","N03_007":"01231"},"geometry":{"type":"Polygon","coordinates":[[[-37.54270633797725,77.00573740904449],[-37.51730141508665,77.00351880377305],[-37.474687802935485,77.00060183922557],[-37.45467443547089,76.99822880197483],[-37.43698373498611,76.99589609110437],[-37.368747218515445,76.99020086413259],[-37.30859442839622,76.99711185282237],[-37.28422730160269,77.00148525588001],[-37.2589403499686,77.00270721053097],[-37.20041313965802,77.01234893627293],[-37.202183132060796,77.01874624854204],[-37.213138068431185,77.01846118255078],[-37.22532259002573,77.01225470448513],[-37.290326490606205,77.00080504991998],[-37.30044576735778,77.00010147965676],[-37.315076820995984,76.99891806190753],[-37.43327318533883,76.99776627377685],[-37.450703481654834,77.00111311923685],[-37.47393293998795,77.00267282981524],[-37.499698743053564,77.00436277332572],[-37.51652174328411,77.00586992637186],[-37.540626740377796,77.00718110459637],[-37.54270633797725,77.00573740904449]]]}},{"type":"Feature","properties":{"N03_001":"北海道","N03_002":"石狩振興局","N03_003":null,"N03_004":"北広島市","N03_007":"01234"},"geometry":{"type":"Polygon","coordinates":[[[-37.30008365798022,77.01610440600733],[-37.33373993328433,77.00319842086606],[-37.43803786205471,77.00000695219427],[-37.43327318533883,76.99776627377685],[-37.315076820995984,76.99891806190753],[-37.30044576735778,77.00010147965676],[-37.290326490606205,77.00080504991998],[-37.22532259002573,77.01225470448513],[-37.213138068431185,77.01846118255078],[-37.216652920974035,77.02115919053035],[-37.21880311625612,77.02292418394661],[-37.24291838611043,77.01988621900809],[-37.254496243277465,77.01852638359188],[-37.30008365798022,77.01610440600733]]]}},{"type":"Feature","properties":{"N03_001":"北海道","N03_002":"石狩振興局","N03_003":null,"N03_004":"石狩市","N03_007":"01235"},"geometry":{"type":"Polygon","coordinates":[[[-37.383971660879496,77.06077263661457],[-37.37392552804549,77.05990972437539],[-37.38956027228867,77.06259510483554],[-37.365971545866984,77.06076223068771],[-37.353198168603384,77.0602653442094],[-37.34933820645193,77.06191667330583],[-37.338853921953216,77.06138232741519],[-37.343699377951786,77.06301805831441],[-37.34831881066214,77.06340450534685],[-37.34359694903671,77.06316079711353],[-37.34358587844417,77.06280100509944],[-37.34877100999299,77.06247868339481],[-37.360062605020794,77.06246713325082],[-37.3650204071554,77.06204506809031],[-37.33261723427076,77.06276536278656],[-37.320769231745814,77.06412520898797],[-37.322003124341514,77.0652493982312],[-37.3476351686004,77.06667713954147],[-37.362891071492214,77.0690126146352],[-37.37352284227351,77.0700440625124],[-37.40029248584047,77.07059421670994],[-37.406718937884484,77.07243801877848],[-37.424959988571075,77.07175967401602],[-37.443625324915075,77.07249111983752],[-37.44636333501175,77.07055932775656],[-37.43463454778944,77.06753726625266],[-37.431056108318714,77.06528842266972],[-37.41416773484541,77.0623438316583],[-37.41273931690873,77.06215941729316],[-37.42246974382449,77.0627332346554],[-37.42353110851816,77.06299118469866],[-37.41163251217035,77.06354861107761],[-37.39293911912272,77.06325788523388],[-37.39134996142716,77.06377560262636],[-37.3936687890436,77.0648654319902],[-37.4048656004692,77.06496653362596],[-37.45134240738529,77.06305273639593],[-37.50002936930211,77.05865381400498],[-37.504511977315104,77.05763383903867],[-37.536187743144566,77.0534577493567],[-37.51721723712466,77.04964753773956],[-37.49464729782694,77.05569589636016],[-37.43018870381721,77.0643609467823],[-37.39416379962821,77.06181988250884],[-37.383971660879496,77.06077263661457]]]}},{"type":"Feature","properties":{"N03_001":"北海道","N03_002":"渡島総合振興局","N03_003":null,"N03_004":"北斗市","N03_007":"01236"},"geometry":{"type":"Polygon","coordinates":[[[-37.81007021647177,76.95240630674017],[-37.82821985715953,76.95374008433174],[-37.83227634577198,76.95594510778876],[-37.86516609724138,76.9573623325461],[-37.864501543221124,76.95822012081348],[-37.88497866144883,76.9594121109313],[-37.91060903681615,76.96108127840886],[-37.930193748476874,76.96091349278247],[-37.95311228768904,76.96144889397573],[-37.952918649748646,76.95934212764955],[-37.96876732936039,76.95843123132872],[-37.95111359350955,76.95631412923795],[-37.9582100513505,76.95284991704172],[-37.97656185062375,76.9521741010096],[-37.97460042136223,76.95078348316665],[-37.97162189587545,76.95010058890185],[-37.92887477501423,76.94839847522898],[-37.90242274314052,76.94704745046957],[-37.899368642284244,76.94598557726569],[-37.871548750992716,76.94704360530649],[-37.85743508104992,76.9502326977849],[-37.83719099564417,76.95114247924711],[-37.82078123847049,76.95123589490404],[-37.8044740814926,76.95076141236757],[-37.79812340610276,76.95115358748522],[-37.81007021647177,76.95240630674017]]]}}]}