{"type":"FeatureCollection","features":[{"type":"Feature","properties":{"N03_001":"大分県","N03_002":null,"N03_003":null,"N03_004":"大分市","N03_007":"44201"},"geometry":{"type":"Polygon","coordinates":[[[-42.805295459088626,76.49873792917273],[-42.772493221702476,76.50166867967009],[-42.83071393296754,76.50026427019749],[-42.853089619121825,76.49990637966825],[-42.87299145093812,76.49971043393336],[-42.89405364763455,76.50001458525328],[-42.93348443080008,76.49804191153721],[-42.94622506490488,76.49705993441272],[-42.97606374457148,76.4971464316009],[-42.976986711113085,76.49588125918582],[-42.96846475505287,76.49606707031973],[-42.97599970134001,76.49458129086312],[-42.997100808204614,76.49202302699068],[-43.02655383301405,76.48991525148192],[-43.04343938991331,76.48948097128344],[-43.04109399700997,76.48857798895925],[-43.04939390300858,76.48798631148905],[-43.02873513079863,76.48762329610081],[-43.017631031031556,76.48679461541931],[-43.00777468636452,76.48694543153525],[-43.00115577823772,76.4881453793748],[-42.97686632965511,76.49035350517093],[-42.96428753766808,76.48942114754293],[-42.956616833710534,76.49031763524299],[-42.94247639015453,76.4887433122094],[-42.92713877648451,76.48971987483755],[-42.90946014628821,76.49121431587844],[-42.879500318069674,76.49765343715079],[-42.84116995589772,76.49858982457292],[-42.81083290286952,76.49926407728617],[-42.805295459088626,76.49873792917273]]]}},{"type":"Feature","properties":{"N03_001":"大分県","N03_002":null,"N03_003":null,"N03_004":"別府市","N03_007":"44202"},"geometry":{"type":"Polygon","coordinates":[[[-42.97606374457148,76.4971464316009],[-42.9798970412036,76.4982276266253],[-43.00396384484782,76.50562333872975],[-43.027597651075084,76.50688933332138],[-43.06637097928441,76.50728969388001],[-43.07049533117844,76.50733310111023],[-43.084250865046116,76.50608263522082],[-43.070307123057155,76.50677036497028],[-43.06999142486022,76.50290584102602],[-43.09366781036472,76.50176421033278],[-43.09396711287214,76.49777745434996],[-43.07214536142832,76.49454815808346],[-43.01992675936894,76.49365596313888],[-43.00301665650353,76.49355299496258],[-42.98813912634349,76.49436056567409],[-42.976986711113085,76.49588125918582],[-42.97606374457148,76.4971464316009]]]}},{"type":"Feature","properties":{"N03_001":"大分県","N03_002":null,"N03_003":null,"N03_004":"中津市","N03_007":"44203"},"geometry":{"type":"Polygon","coordinates":[[[-43.32374978217919,76.50897404725173],[-43.31320266207363,76.50761398854826],[-43.28304997342116,76.5055838318693],[-43.27919901189028,76.50332720101184],[-43.26263672654943,76.50442750822768],[-43.254161173892044,76.50625081872384],[-43.23882668311758,76.50692295893224],[-43.225642979705526,76.50634031037148],[-43.21649009351523,76.50700273587711],[-43.20056640405152,76.50591461472656],[-43.18089487213467,76.50645274670258],[-43.17319391631974,76.50742490051525],[-43.17397612488808,76.50885799320935],[-43.15910540534205,76.50893276284373],[-43.165173939257684,76.51099885293536],[-43.14763779737824,76.51197393585177],[-43.15709525440637,76.51347307536906],[-43.14565144173988,76.51453242498523],[-43.14107296398448,76.51620958620485],[-43.15080000975084,76.51736874970274],[-43.17001978922723,76.51714407198759],[-43.18886542977053,76.51759195779312],[-43.19663547521311,76.5157376372771],[-43.18900273737313,76.51397603901289],[-43.2016374383625,76.51254950676814],[-43.20349084380555,76.51186175677724],[-43.22537047987448,76.51156661194621],[-43.250044435245414,76.51152098176347],[-43.26521908676065,76.51181838163821],[-43.28903740036407,76.51149573964346],[-43.29372501575189,76.51146895210907],[-43.31103725865674,76.51055218748537],[-43.32374978217919,76.50897404725173]]]}},{"type":"Feature","properties":{"N03_001":"大分県","N03_002":null,"N03_003":null,"N03_004":"日田市","N03_007":"44204"},"geometry":{"type":"Polygon","coordinates":[[[-43.26263672654943,76.50442750822768],[-43.27919901189028,76.50332720101184],[-43.28304997342116,76.5055838318693],[-43.31320266207363,76.50761398854826],[-43.32374978217919,76.50897404725173],[-43.33758732029035,76.50854923812919],[-43.34178058259535,76.50745550158022],[-43.342755126802736,76.50420125040473],[-43.355592833667856,76.50418700711909],[-43.36549849078775,76.5029311198209],[-43.35649895357078,76.50224452005429],[-43.348540760011645,76.50133731309164],[-43.353342665247936,76.50097496241006],[-43.366259828079556,76.50085903715632],[-43.3655926626122,76.50065276472006],[-43.351671008842445,76.50053485600309],[-43.36111893452898,76.50033053860045],[-43.34953931955181,76.50009047518199],[-43.342612503429145,76.49955041184506],[-43.35860410695432,76.49702978861968],[-43.36615915430317,76.49652047822103],[-43.363767754469485,76.49589569738407],[-43.34141810390891,76.49577768323125],[-43.336676693780525,76.49455334628917],[-43.307375309787545,76.49343918696798],[-43.29985573174941,76.49197814264842],[-43.285142173405774,76.49206749786836],[-43.278521665426425,76.4928095091487],[-43.278346203581165,76.49592204765861],[-43.30038377636148,76.49928144040355],[-43.2938910208368,76.49971549895123],[-43.284696167838106,76.4996913779522],[-43.27555289992708,76.49988070990032],[-43.25611894777289,76.49950363008719],[-43.25381774947996,76.50043625084129],[-43.2641466440457,76.50094786793521],[-43.27465973567842,76.50088417064364],[-43.27456368159914,76.50142135164647],[-43.26065981911641,76.50276854423285],[-43.26263672654943,76.50442750822768]]]}},{"type":"Feature","properties":{"N03_001":"大分県","N03_002":null,"N03_003":null,"N03_004":"佐伯市","N03_007":"44205"},"geometry":{"type":"Polygon","coordinates":[[[-42.713246355685015,76.49030815125784],[-42.7286658336933,76.48856084536246],[-42.74268024384564,76.48899698951737],[-42.75580869252856,76.48662516821706],[-42.77598431246295,76.4820131760546],[-42.853774601996996,76.47819812882888],[-42.85859430501031,76.47846000034761],[-42.853816570337216,76.47903256607523],[-42.863889913120815,76.47931699707583],[-42.881423315541184,76.4793525287133],[-42.89751572432669,76.47995004472087],[-42.90820622291274,76.48011624517332],[-42.9317327946135,76.48165244106548],[-42.92933036409946,76.48177506680935],[-42.94555872502881,76.48248216066179],[-42.95836828346797,76.48289757459256],[-42.972995020601765,76.48311803929955],[-42.99779562043183,76.48319692512686],[-43.00826020201979,76.48273378320863],[-42.98358506322751,76.48117950804235],[-42.98937045882079,76.4801046698331],[-42.97336206525766,76.47964106749124],[-42.954157073075606,76.47976229492215],[-42.93956253624897,76.48081191202813],[-42.89293999654924,76.48212216670393],[-42.87841674777116,76.48206615998608],[-42.87297607195772,76.48164871819993],[-42.87133479773973,76.48098425215275],[-42.84857743635865,76.48072832201711],[-42.84062039188412,76.48103743598983],[-42.820321424110645,76.48131687103303],[-42.82608749092852,76.48181788399773],[-42.821681692786164,76.48083127948357],[-42.80409365583406,76.4801974152735],[-42.80233778721628,76.48012215895501],[-42.81576847626807,76.48167071582873],[-42.80287755257738,76.48142832736508],[-42.77649828834462,76.48008312574514],[-42.76695493673327,76.48027369209593],[-42.748552258420595,76.48028213229856],[-42.770296890623754,76.48075843609837],[-42.73154546083051,76.48163169189398],[-42.744559450035055,76.48180565583286],[-42.724835937608326,76.48288330136957],[-42.75782911815464,76.4817998972383],[-42.77675385900468,76.48094383290531],[-42.80087331344058,76.47916593418373],[-42.76284124717018,76.48331933967474],[-42.74683960726034,76.48734144372116],[-42.72577650675264,76.48814452575395],[-42.713246355685015,76.49030815125784]]]}},{"type":"Feature","properties":{"N03_001":"大分県","N03_002":null,"N03_003":null,"N03_004":"津久見市","N03_007":"44207"},"geometry":{"type":"Polygon","coordinates":[[[-42.713246355685015,76.49030815125784],[-42.745945603052576,76.48930250888698],[-42.78955267754551,76.49449481546169],[-42.76144333689764,76.49577006685685],[-42.80582814604989,76.497432108206],[-42.82779366550848,76.49703902887434],[-42.8655346897036,76.48657332095362],[-42.852619326805616,76.47946327370435],[-42.853774601996996,76.47819812882888],[-42.77598431246295,76.4820131760546],[-42.75580869252856,76.48662516821706],[-42.74268024384564,76.48899698951737],[-42.7286658336933,76.48856084536246],[-42.713246355685015,76.49030815125784]]]}},{"type":"Feature","properties":{"N03_001":"大分県","N03_002":null,"N03_003":null,"N03_004":"臼杵市","N03_007":"44206"},"geometry":{"type":"Polygon","coordinates":[[[-42.92713877648451,76.48971987483755],[-42.938799586373946,76.48630882913291],[-42.92972752492351,76.48284980983578],[-42.9399466939906,76.4828139117859],[-42.912148567848206,76.48011078374023],[-42.90820622291274,76.48011624517332],[-42.89751572432669,76.47995004472087],[-42.881423315541184,76.4793525287133],[-42.863889913120815,76.47931699707583],[-42.853816570337216,76.47903256607523],[-42.85859430501031,76.47846000034761],[-42.853774601996996,76.47819812882888],[-42.852619326805616,76.47946327370435],[-42.8655346897036,76.48657332095362],[-42.82779366550848,76.49703902887434],[-42.80582814604989,76.497432108206],[-42.76144333689764,76.49577006685685],[-42.79019777355032,76.49726771464044],[-42.80856555189773,76.49755773611035],[-42.83074986533037,76.49740261323271],[-42.833780368930924,76.49767159208614],[-42.82396609590216,76.4981208966828],[-42.805295459088626,76.49873792917273],[-42.81083290286952,76.49926407728617],[-42.84116995589772,76.49858982457292],[-42.879500318069674,76.49765343715079],[-42.90946014628821,76.49121431587844],[-42.92713877648451,76.48971987483755]]]}},{"type":"Feature","properties":{"N03_001":"大分県","N03_002":null,"N03_003":null,"N03_004":"竹田市","N03_007":"44208"},"geometry":{"type":"Polygon","coordinates":[[[-43.08197908345043,76.48198999250525],[-43.05859430054301,76.48290226277781],[-43.04988113701074,76.48431539379182],[-43.05442912055188,76.48515362581072],[-43.04115951953989,76.48568926706011],[-43.04486057637711,76.48605115190902],[-43.06375213720187,76.48660120257018],[-43.0557384350345,76.48693584474692],[-43.060408727070545,76.48730811458012],[-43.04939390300858,76.48798631148905],[-43.04109399700997,76.48857798895925],[-43.04343938991331,76.48948097128344],[-43.02655383301405,76.48991525148192],[-43.03638063270344,76.4903187275958],[-43.0692482618712,76.49069850685211],[-43.080602012364416,76.48962503128308],[-43.1140388562433,76.49011876938528],[-43.127436015706245,76.49139543705658],[-43.147956756837424,76.49250457063218],[-43.155296961296436,76.49132746031736],[-43.17401285769153,76.49212992942425],[-43.179591455104415,76.4917839026676],[-43.17685192082518,76.49140706300625],[-43.16309484693818,76.4901196804657],[-43.15558020022577,76.48877825797072],[-43.13151258246631,76.48720215176552],[-43.14009036187554,76.48691468581126],[-43.13484138447491,76.4853148615255],[-43.12940598111708,76.48412605728905],[-43.092061558724644,76.48218145070503],[-43.08197908345043,76.48198999250525]]]}},{"type":"Feature","properties":{"N03_001":"大分県","N03_002":null,"N03_003":null,"N03_004":"豊後高田市","N03_007":"44209"},"geometry":{"type":"Polygon","coordinates":[[[-42.97916993582396,76.5246810934464],[-42.99818454076379,76.52447098487475],[-43.038952873012754,76.52175902465943],[-43.065985407414516,76.51862425483381],[-43.06549355980553,76.51661898770632],[-43.07366361648,76.51547848009746],[-43.05421304776937,76.51361359714882],[-43.03779160248775,76.51266953457846],[-42.99599037795264,76.51090467073833],[-42.96195529003893,76.51576817953234],[-42.94487745828057,76.51683041407372],[-42.95440478025346,76.52194353918519],[-42.968973340740014,76.5229684355619],[-42.97916993582396,76.5246810934464]]]}},{"type":"Feature","properties":{"N03_001":"大分県","N03_002":null,"N03_003":null,"N03_004":"杵築市","N03_007":"44210"},"geometry":{"type":"Polygon","coordinates":[[[-43.05421304776937,76.51361359714882],[-43.059242255782294,76.5128774265837],[-43.07403460300991,76.51237920381772],[-43.061959502615615,76.50982026426976],[-43.07628541266455,76.50816836719835],[-43.05855970275742,76.50757707054792],[-43.04498184011125,76.50761209302225],[-43.00154567070617,76.50661672049942],[-42.971285976739985,76.50831119633222],[-42.96568498674825,76.50616233378193],[-42.929285546243776,76.50542325828671],[-42.929003602975165,76.50472344063307],[-42.91408605871484,76.50509369700002],[-42.916604343322035,76.5077239194833],[-42.90341048846675,76.5078426380317],[-42.8817976245826,76.50719310775897],[-42.87093887704952,76.50955852847879],[-42.89074767785646,76.50880472196543],[-42.90837607420926,76.50865282613132],[-42.931590358046904,76.51068070962229],[-42.93759222431535,76.51290263789919],[-42.94813586157588,76.5148943282958],[-42.94487745828057,76.51683041407372],[-42.96195529003893,76.51576817953234],[-42.99599037795264,76.51090467073833],[-43.03779160248775,76.51266953457846],[-43.05421304776937,76.51361359714882]]]}},{"type":"Feature","properties":{"N03_001":"大分県","N03_002":null,"N03_003":null,"N03_004":"宇佐市","N03_007":"44211"},"geometry":{"type":"Polygon","coordinates":[[[-43.07049533117844,76.50733310111023],[-43.05855970275742,76.50757707054792],[-43.07628541266455,76.50816836719835],[-43.061959502615615,76.50982026426976],[-43.07403460300991,76.51237920381772],[-43.059242255782294,76.5128774265837],[-43.05421304776937,76.51361359714882],[-43.07366361648,76.51547848009746],[-43.06549355980553,76.51661898770632],[-43.069352872291944,76.51700452850288],[-43.11904471259369,76.51670514012685],[-43.14107296398448,76.51620958620485],[-43.14565144173988,76.51453242498523],[-43.15709525440637,76.51347307536906],[-43.14763779737824,76.51197393585177],[-43.165173939257684,76.51099885293536],[-43.15910540534205,76.50893276284373],[-43.17397612488808,76.50885799320935],[-43.17319391631974,76.50742490051525],[-43.18089487213467,76.50645274670258],[-43.15757236532675,76.50631025002454],[-43.147593169508625,76.50518542462315],[-43.1346835398162,76.50546717166613],[-43.11998853377435,76.50448525319655],[-43.10192186743339,76.5048096562406],[-43.084250865046116,76.50608263522082],[-43.07049533117844,76.50733310111023]]]}},{"type":"Feature","properties":{"N03_001":"大分県","N03_002":null,"N03_003":null,"N03_004":"豊後大野市","N03_007":"44212"},"geometry":{"type":"Polygon","coordinates":[[[-43.04939390300858,76.48798631148905],[-43.060408727070545,76.48730811458012],[-43.0557384350345,76.48693584474692],[-43.06375213720187,76.48660120257018],[-43.04486057637711,76.48605115190902],[-43.04115951953989,76.48568926706011],[-43.05442912055188,76.48515362581072],[-43.04988113701074,76.48431539379182],[-43.05859430054301,76.48290226277781],[-43.08197908345043,76.48198999250525],[-43.07254982881803,76.48094337426693],[-43.039402661444484,76.48147343131535],[-43.030060846761614,76.4822634668077],[-43.00826020201979,76.48273378320863],[-42.99779562043183,76.48319692512686],[-42.972995020601765,76.48311803929955],[-42.95836828346797,76.48289757459256],[-42.94555872502881,76.48248216066179],[-42.92933036409946,76.48177506680935],[-42.9317327946135,76.48165244106548],[-42.90820622291274,76.48011624517332],[-42.912148567848206,76.48011078374023],[-42.9399466939906,76.4828139117859],[-42.92972752492351,76.48284980983578],[-42.938799586373946,76.48630882913291],[-42.92713877648451,76.48971987483755],[-42.94247639015453,76.4887433122094],[-42.956616833710534,76.49031763524299],[-42.96428753766808,76.48942114754293],[-42.97686632965511,76.49035350517093],[-43.00115577823772,76.4881453793748],[-43.00777468636452,76.48694543153525],[-43.017631031031556,76.48679461541931],[-43.02873513079863,76.48762329610081],[-43.04939390300858,76.48798631148905]]]}},{"type":"Feature","properties":{"N03_001":"大分県","N03_002":null,"N03_003":null,"N03_004":"由布市","N03_007":"44213"},"geometry":{"type":"Polygon","coordinates":[[[-42.976986711113085,76.49588125918582],[-42.98813912634349,76.49436056567409],[-43.00301665650353,76.49355299496258],[-43.01992675936894,76.49365596313888],[-43.07214536142832,76.49454815808346],[-43.09396711287214,76.49777745434996],[-43.09366781036472,76.50176421033278],[-43.06999142486022,76.50290584102602],[-43.070307123057155,76.50677036497028],[-43.084250865046116,76.50608263522082],[-43.10192186743339,76.5048096562406],[-43.11998853377435,76.50448525319655],[-43.12090045365188,76.50300182440166],[-43.138010445466264,76.50095445739043],[-43.14005404134909,76.49994262734602],[-43.152500674788335,76.49887089453745],[-43.12022567982144,76.4932223219081],[-43.13513585964085,76.49351095453184],[-43.14842722458937,76.49316292427976],[-43.147956756837424,76.49250457063218],[-43.127436015706245,76.49139543705658],[-43.1140388562433,76.49011876938528],[-43.080602012364416,76.48962503128308],[-43.0692482618712,76.49069850685211],[-43.03638063270344,76.4903187275958],[-43.02655383301405,76.48991525148192],[-42.997100808204614,76.49202302699068],[-42.97599970134001,76.49458129086312],[-42.96846475505287,76.49606707031973],[-42.976986711113085,76.49588125918582]]]}},{"type":"Feature","properties":{"N03_001":"大分県","N03_002":null,"N03_003":null,"N03_004":"国東市","N03_007":"44214"},"geometry":{"type":"Polygon","coordinates":[[[-42.94487745828057,76.51683041407372],[-42.94813586157588,76.5148943282958],[-42.93759222431535,76.51290263789919],[-42.931590358046904,76.51068070962229],[-42.90837607420926,76.50865282613132],[-42.89074767785646,76.50880472196543],[-42.87093887704952,76.50955852847879],[-42.85950753027122,76.51059346010571],[-42.86323544767808,76.51249002980244],[-42.85667216481312,76.51474148855166],[-42.86028529340244,76.51804154860547],[-42.880855183800065,76.52057508783696],[-42.907975478547286,76.52373096722394],[-42.91595570634375,76.52356100021107],[-42.95349150294965,76.52503175376555],[-42.97916993582396,76.5246810934464],[-42.968973340740014,76.5229684355619],[-42.95440478025346,76.52194353918519],[-42.94487745828057,76.51683041407372]]]}}]}