{"type":"FeatureCollection","features":[{"type":"Feature","properties":{"N03_001":"島根県","N03_002":null,"N03_003":null,"N03_004":"松江市","N03_007":"32201"},"geometry":{"type":"Polygon","coordinates":[[[-42.212904800192916,76.61251239975527],[-42.20851651230833,76.61025969353685],[-42.19925779243197,76.60894476443873],[-42.2315299662088,76.60692327637835],[-42.228342727740696,76.60592627921285],[-42.214254469317716,76.6061186421412],[-42.15908191891577,76.6061557874261],[-42.15599793056857,76.60675699246055],[-42.13640988685646,76.60672860985599],[-42.13847945271194,76.60554085549595],[-42.12826289426262,76.60410619504809],[-42.10435243232676,76.60614179825798],[-42.06145387335353,76.60862873611387],[-42.053384773226476,76.61038727977456],[-42.05684363933094,76.61135564355865],[-42.034705333015296,76.61214726528901],[-42.04821997854869,76.61396058001544],[-42.03633268767896,76.61491934829219],[-42.02117199458653,76.61508549090311],[-41.978352668551295,76.61571578669727],[-41.99302911786209,76.61639593740495],[-42.031953755580915,76.61628455335617],[-42.08046375941654,76.61532034133248],[-42.10469672290193,76.61708798879573],[-42.10732474360311,76.6160111510444],[-42.1250107421522,76.61538049763604],[-42.14301380478097,76.61409279631229],[-42.174141903669906,76.61417215550327],[-42.17817861837577,76.6127644712304],[-42.212904800192916,76.61251239975527]]]}},{"type":"Feature","properties":{"N03_001":"島根県","N03_002":null,"N03_003":null,"N03_004":"益田市","N03_007":"32204"},"geometry":{"type":"Polygon","coordinates":[[[-42.77633108527453,76.57285415600614],[-42.791602540997516,76.57269348968286],[-42.787110072428284,76.57153776540531],[-42.79782945861984,76.57081312951499],[-42.81744959916384,76.57038597588958],[-42.85919515111281,76.57031473599638],[-42.88841530335346,76.57077482067652],[-42.883150099468374,76.56939821098739],[-42.88544868250059,76.56823713526583],[-42.872357837716066,76.56765943186676],[-42.86841898103233,76.56630284344595],[-42.86079889953706,76.56591704208368],[-42.82918218512386,76.56723330195649],[-42.8092485600938,76.56731314835591],[-42.79126153670944,76.56701361337119],[-42.78791067756979,76.56756609311724],[-42.772319875298834,76.56720812438142],[-42.760958924341615,76.5666824755076],[-42.77114995998206,76.5661955663798],[-42.76317945993737,76.56533447130309],[-42.7413373038721,76.56505788219111],[-42.74042715358311,76.56344201177018],[-42.71458888582077,76.56250846411703],[-42.69367481395763,76.56225320781668],[-42.68634174405164,76.56214503640436],[-42.7005281272073,76.56484140991198],[-42.69866630963066,76.5656614567336],[-42.68170287979018,76.56559554505785],[-42.665749411101935,76.56634793235658],[-42.65958997860916,76.56708703877212],[-42.665508232182255,76.56821101249031],[-42.651489923019945,76.56991837709526],[-42.6393865380467,76.57159621164124],[-42.655438201896715,76.5723430213548],[-42.66768480485502,76.57257633406937],[-42.6810054393888,76.57175521414152],[-42.70040150351964,76.57168654172642],[-42.71387368701778,76.5708021554366],[-42.719134133361244,76.57113009829507],[-42.74910967184633,76.57117005505674],[-42.75820816189483,76.5719931325336],[-42.77633108527453,76.57285415600614]]]}},{"type":"Feature","properties":{"N03_001":"島根県","N03_002":null,"N03_003":null,"N03_004":"浜田市","N03_007":"32202"},"geometry":{"type":"Polygon","coordinates":[[[-42.655438201896715,76.5723430213548],[-42.633745532372885,76.57312893262387],[-42.60661572592388,76.5736872495202],[-42.59588380708519,76.574543350585],[-42.59606448323905,76.57509845040632],[-42.57605028576549,76.57481568099291],[-42.56313225770667,76.57418645588272],[-42.55228955279034,76.5748486183526],[-42.54072033200054,76.5745191444175],[-42.51578517586145,76.57501489609166],[-42.50977458375225,76.57483583456897],[-42.5019042054623,76.57641323210238],[-42.50816530473729,76.57705904857808],[-42.534852866411406,76.57658018370302],[-42.554113700632776,76.57682144207598],[-42.57996181254505,76.57676010202971],[-42.60319443247745,76.57927106330354],[-42.6171378792407,76.57840141260047],[-42.62999417821678,76.57942309251042],[-42.62981326994025,76.5807971549572],[-42.65002064443356,76.58109310238602],[-42.652807833994046,76.58260335344654],[-42.66807165222713,76.58167299863632],[-42.70191457387447,76.57838107791967],[-42.724393934628665,76.57627639531654],[-42.74289747046874,76.57578950427647],[-42.74870927852371,76.57453061152049],[-42.77633108527453,76.57285415600614],[-42.75820816189483,76.5719931325336],[-42.74910967184633,76.57117005505674],[-42.719134133361244,76.57113009829507],[-42.71387368701778,76.5708021554366],[-42.70040150351964,76.57168654172642],[-42.6810054393888,76.57175521414152],[-42.66768480485502,76.57257633406937],[-42.655438201896715,76.5723430213548]]]}},{"type":"Feature","properties":{"N03_001":"島根県","N03_002":null,"N03_003":null,"N03_004":"出雲市","N03_007":"32203"},"geometry":{"type":"Polygon","coordinates":[[[-42.212904800192916,76.61251239975527],[-42.23192418796483,76.61237350171089],[-42.26696758758132,76.61123475053918],[-42.2704168750443,76.61067814228562],[-42.30708817823829,76.60981844393942],[-42.29543795027097,76.60867773175389],[-42.31998459253332,76.60852979822239],[-42.33146712561911,76.60908245924401],[-42.36263071688955,76.60862892910696],[-42.33740559214126,76.6070046769705],[-42.335757469829154,76.60599067739022],[-42.34158393272566,76.60451732183844],[-42.35115551589196,76.60352188725595],[-42.366415384665984,76.60270971885294],[-42.39015111016832,76.60231260474436],[-42.38703696592483,76.60064910197677],[-42.35791028027161,76.59875233144984],[-42.34243701444215,76.59854123860215],[-42.33877195704012,76.59675674731938],[-42.32068132218266,76.59619092611986],[-42.30310408935743,76.59659200510447],[-42.29510915266179,76.59744402889407],[-42.273662859714385,76.60132793675297],[-42.27711741198354,76.60167741437989],[-42.26424197724455,76.60294292971308],[-42.24928312562514,76.60297759199008],[-42.23892506827728,76.60385682481264],[-42.23792376953689,76.60510819026912],[-42.228342727740696,76.60592627921285],[-42.2315299662088,76.60692327637835],[-42.19925779243197,76.60894476443873],[-42.20851651230833,76.61025969353685],[-42.212904800192916,76.61251239975527]]]}},{"type":"Feature","properties":{"N03_001":"島根県","N03_002":null,"N03_003":null,"N03_004":"大田市","N03_007":"32205"},"geometry":{"type":"Polygon","coordinates":[[[-42.39015111016832,76.60231260474436],[-42.390209617060584,76.60231463443431],[-42.41706645009907,76.6016558907999],[-42.418523178297015,76.60125804172907],[-42.45622212701807,76.60016950635402],[-42.467139141912206,76.5990233051321],[-42.48605978278826,76.59835853799395],[-42.49766117837494,76.59711055276844],[-42.50585691530062,76.5947343690799],[-42.541052434888336,76.59310316625141],[-42.54706538043289,76.59235103475173],[-42.51727299291663,76.59070942737333],[-42.504472638597726,76.58771202611268],[-42.49448258980606,76.58665999136619],[-42.483645952610864,76.58766615568699],[-42.46886954285973,76.58719633420083],[-42.44958381481028,76.5877484483646],[-42.44382232443718,76.58898947673497],[-42.450073328336124,76.59026171647855],[-42.405473606680765,76.59358601101322],[-42.37028475752491,76.59312778162932],[-42.34330895392228,76.5917231170338],[-42.34420412655991,76.59342341416014],[-42.35578495115519,76.5944965214302],[-42.33877195704012,76.59675674731938],[-42.34243701444215,76.59854123860215],[-42.35791028027161,76.59875233144984],[-42.38703696592483,76.60064910197677],[-42.39015111016832,76.60231260474436]]]}},{"type":"Feature","properties":{"N03_001":"島根県","N03_002":null,"N03_003":null,"N03_004":"安来市","N03_007":"32206"},"geometry":{"type":"Polygon","coordinates":[[[-42.034705333015296,76.61214726528901],[-42.05684363933094,76.61135564355865],[-42.053384773226476,76.61038727977456],[-42.06145387335353,76.60862873611387],[-42.10435243232676,76.60614179825798],[-42.12826289426262,76.60410619504809],[-42.12865545627096,76.60181802101154],[-42.12109834515818,76.59937867220415],[-42.10044574869896,76.59836443285893],[-42.100304044144245,76.597339780015],[-42.074555461601136,76.59711561182179],[-42.057101768987934,76.59769233722824],[-41.979089101011766,76.59993292892565],[-41.98799883527148,76.60308855103038],[-41.98610415227523,76.60502684244781],[-41.970843215133414,76.60645223868188],[-41.97451987527831,76.60845982539715],[-41.98212256970052,76.60957783545223],[-42.00405842395336,76.6105323658443],[-42.03177485127512,76.61197582657519],[-42.034705333015296,76.61214726528901]]]}},{"type":"Feature","properties":{"N03_001":"島根県","N03_002":null,"N03_003":null,"N03_004":"江津市","N03_007":"32207"},"geometry":{"type":"Polygon","coordinates":[[[-42.554113700632776,76.57682144207598],[-42.5404568995694,76.57811012754324],[-42.508067545822065,76.58021362513703],[-42.4888898823629,76.58137013855101],[-42.473824516996594,76.58127805646495],[-42.46636330551426,76.58255091674921],[-42.45332696688532,76.58293850273515],[-42.473073643837196,76.58457525552171],[-42.48844516845483,76.58474347145987],[-42.49448258980606,76.58665999136619],[-42.504472638597726,76.58771202611268],[-42.51727299291663,76.59070942737333],[-42.54706538043289,76.59235103475173],[-42.579016859897784,76.59125210953742],[-42.6019859030075,76.59026868989159],[-42.63215298118474,76.58556564958711],[-42.652807833994046,76.58260335344654],[-42.65002064443356,76.58109310238602],[-42.62981326994025,76.5807971549572],[-42.62999417821678,76.57942309251042],[-42.6171378792407,76.57840141260047],[-42.60319443247745,76.57927106330354],[-42.57996181254505,76.57676010202971],[-42.554113700632776,76.57682144207598]]]}},{"type":"Feature","properties":{"N03_001":"島根県","N03_002":null,"N03_003":null,"N03_004":"雲南市","N03_007":"32209"},"geometry":{"type":"Polygon","coordinates":[[[-42.228342727740696,76.60592627921285],[-42.23792376953689,76.60510819026912],[-42.23892506827728,76.60385682481264],[-42.24928312562514,76.60297759199008],[-42.26424197724455,76.60294292971308],[-42.27711741198354,76.60167741437989],[-42.273662859714385,76.60132793675297],[-42.29510915266179,76.59744402889407],[-42.30310408935743,76.59659200510447],[-42.32068132218266,76.59619092611986],[-42.313553478727144,76.59392722574147],[-42.28422519224401,76.59322941905259],[-42.2731930220552,76.59426817065442],[-42.262586934446546,76.59424734977388],[-42.2604267454377,76.59277302648043],[-42.24518707518878,76.59305331530808],[-42.2353217043816,76.59202538996877],[-42.217427391300035,76.59266708936094],[-42.215151439670905,76.59365342055486],[-42.18918842623374,76.59527242515978],[-42.191735988468224,76.59760795457855],[-42.1820613856004,76.59878565106135],[-42.18422931553652,76.59986981763471],[-42.17070968012405,76.59992994898512],[-42.13563888635286,76.59929980720909],[-42.12109834515818,76.59937867220415],[-42.12865545627096,76.60181802101154],[-42.12826289426262,76.60410619504809],[-42.13847945271194,76.60554085549595],[-42.13640988685646,76.60672860985599],[-42.15599793056857,76.60675699246055],[-42.15908191891577,76.6061557874261],[-42.214254469317716,76.6061186421412],[-42.228342727740696,76.60592627921285]]]}}]}