{"type":"FeatureCollection","features":[{"type":"Feature","properties":{"N03_001":"広島県","N03_002":null,"N03_003":"広島市","N03_004":"中区","N03_007":"34101"},"geometry":{"type":"Polygon","coordinates":[[[-42.48635564273456,76.54720148333388],[-42.465907347465645,76.54548578766763],[-42.40647980440648,76.54706703703499],[-42.4174692687455,76.56555955260974],[-42.4291763565865,76.56828956535234],[-42.43752159464833,76.56838258501935],[-42.485099955911245,76.54701587763529],[-42.48635564273456,76.54720148333388]]]}},{"type":"Feature","properties":{"N03_001":"広島県","N03_002":null,"N03_003":"広島市","N03_004":"東区","N03_007":"34102"},"geometry":{"type":"Polygon","coordinates":[[[-42.4174692687455,76.56555955260974],[-42.37423042697187,76.5577749877786],[-42.374846282449376,76.55885915906622],[-42.33415765619478,76.56426841278457],[-42.322135377955874,76.56841930938755],[-42.34769881512711,76.57320599433874],[-42.364332827056444,76.57493941014269],[-42.40829352698348,76.57433352037977],[-42.42851036754184,76.56956989902864],[-42.4291763565865,76.56828956535234],[-42.4174692687455,76.56555955260974]]]}},{"type":"Feature","properties":{"N03_001":"広島県","N03_002":null,"N03_003":"広島市","N03_004":"西区","N03_007":"34104"},"geometry":{"type":"Polygon","coordinates":[[[-42.4291763565865,76.56828956535234],[-42.42851036754184,76.56956989902864],[-42.476239764457944,76.56774769926723],[-42.51327482113896,76.56291910536561],[-42.53128711624395,76.55589227202444],[-42.521963140941715,76.55268181037201],[-42.48635564273456,76.54720148333388],[-42.485099955911245,76.54701587763529],[-42.43752159464833,76.56838258501935],[-42.4291763565865,76.56828956535234]]]}},{"type":"Feature","properties":{"N03_001":"広島県","N03_002":null,"N03_003":"広島市","N03_004":"安佐南区","N03_007":"34105"},"geometry":{"type":"Polygon","coordinates":[[[-42.40829352698348,76.57433352037977],[-42.39622611527319,76.57511244253666],[-42.403940651176065,76.57507348901113],[-42.434574377027786,76.57569539561851],[-42.4723309658896,76.57328938511849],[-42.49299918126364,76.57598171309222],[-42.52324336176502,76.57407402131686],[-42.5316359613707,76.57241256805636],[-42.55706877935664,76.56766273759305],[-42.54744109476874,76.56415070527008],[-42.52701954188062,76.56569927742214],[-42.476239764457944,76.56774769926723],[-42.42851036754184,76.56956989902864],[-42.40829352698348,76.57433352037977]]]}},{"type":"Feature","properties":{"N03_001":"広島県","N03_002":null,"N03_003":"広島市","N03_004":"安佐北区","N03_007":"34106"},"geometry":{"type":"Polygon","coordinates":[[[-42.322135377955874,76.56841930938755],[-42.31502198370842,76.56923932083862],[-42.317588856879794,76.5704303372585],[-42.30402757494403,76.569781015445],[-42.29950399315085,76.57062741544561],[-42.28726096551917,76.57008385349945],[-42.29753368377726,76.573289751805],[-42.29432112085089,76.57488766196295],[-42.301395176389484,76.57628449664308],[-42.32348229534783,76.57594921838194],[-42.33317190559488,76.57599817064586],[-42.352182880789414,76.57478902983426],[-42.371434467747434,76.5754044427101],[-42.41964875444253,76.57590578972271],[-42.4365205178915,76.57600031960801],[-42.463602675706,76.57646401428228],[-42.4752506912335,76.57636783851129],[-42.476879600594586,76.57622876291944],[-42.50636815242931,76.57540633173154],[-42.52324336176502,76.57407402131686],[-42.49299918126364,76.57598171309222],[-42.4723309658896,76.57328938511849],[-42.434574377027786,76.57569539561851],[-42.403940651176065,76.57507348901113],[-42.39622611527319,76.57511244253666],[-42.40829352698348,76.57433352037977],[-42.364332827056444,76.57493941014269],[-42.34769881512711,76.57320599433874],[-42.322135377955874,76.56841930938755]]]}},{"type":"Feature","properties":{"N03_001":"広島県","N03_002":null,"N03_003":"広島市","N03_004":"佐伯区","N03_007":"34108"},"geometry":{"type":"Polygon","coordinates":[[[-42.476239764457944,76.56774769926723],[-42.52701954188062,76.56569927742214],[-42.54744109476874,76.56415070527008],[-42.55706877935664,76.56766273759305],[-42.5316359613707,76.57241256805636],[-42.52324336176502,76.57407402131686],[-42.50636815242931,76.57540633173154],[-42.509341617723614,76.57538049592615],[-42.5445721904449,76.5735399543093],[-42.58320022476103,76.57082552077733],[-42.592708536576716,76.56921661138558],[-42.605297262605674,76.56896009628234],[-42.62130770337437,76.56736755295383],[-42.6216139678908,76.56182911565354],[-42.6006407001007,76.5627282766182],[-42.589753049148676,76.56127663942388],[-42.55807929284512,76.56070747694251],[-42.55173288141448,76.55769021691167],[-42.53698193485298,76.5544578667897],[-42.521963140941715,76.55268181037201],[-42.53128711624395,76.55589227202444],[-42.51327482113896,76.56291910536561],[-42.476239764457944,76.56774769926723]]]}},{"type":"Feature","properties":{"N03_001":"広島県","N03_002":null,"N03_003":null,"N03_004":"竹原市","N03_007":"34203"},"geometry":{"type":"Polygon","coordinates":[[[-42.13133917864464,76.55976155151545],[-42.14064070631076,76.56171098402152],[-42.156775849985245,76.56308829965377],[-42.15938892613522,76.56659529705581],[-42.19914031650903,76.57049846836703],[-42.208063698059895,76.56995497025781],[-42.21677902605979,76.570476939921],[-42.23146257033403,76.56977522262684],[-42.248717883502145,76.5683529900789],[-42.26143833212296,76.5667413526371],[-42.23901964124995,76.56544878668667],[-42.22407000085643,76.55516054274982],[-42.19837228477586,76.5554563994986],[-42.169805398164165,76.55691467107182],[-42.15888208998591,76.55881003154737],[-42.13133917864464,76.55976155151545]]]}},{"type":"Feature","properties":{"N03_001":"広島県","N03_002":null,"N03_003":null,"N03_004":"三原市","N03_007":"34204"},"geometry":{"type":"Polygon","coordinates":[[[-42.13133917864464,76.55976155151545],[-42.11823600521202,76.5601206102989],[-42.09996728594043,76.5614048281294],[-42.09841884391572,76.56427080907518],[-42.079265395191356,76.56306924166289],[-42.065759741250616,76.56338259786119],[-42.07630608081918,76.56453824741891],[-42.06828996419001,76.56493303474205],[-42.08179565133689,76.56588060261161],[-42.10044405438874,76.5671749585586],[-42.111828632413605,76.56735655490944],[-42.128248205308616,76.56826645229381],[-42.11484862911734,76.56834266430202],[-42.13902328702264,76.57017897287783],[-42.1569764424954,76.56995548546249],[-42.178452520716476,76.57275372185914],[-42.1945353514022,76.57445784363252],[-42.20704855108376,76.5739382297063],[-42.21236502620009,76.57179454688405],[-42.22862722608823,76.5702197696409],[-42.227743975441236,76.56906343933122],[-42.21383898363509,76.56912513572823],[-42.20042648692663,76.56906455042918],[-42.20788450061961,76.56913594240999],[-42.208063698059895,76.56995497025781],[-42.19914031650903,76.57049846836703],[-42.15938892613522,76.56659529705581],[-42.156775849985245,76.56308829965377],[-42.14064070631076,76.56171098402152],[-42.13133917864464,76.55976155151545]]]}},{"type":"Feature","properties":{"N03_001":"広島県","N03_002":null,"N03_003":null,"N03_004":"福山市","N03_007":"34207"},"geometry":{"type":"Polygon","coordinates":[[[-42.02083836224462,76.57272213876445],[-42.01563760363235,76.56857514864234],[-42.00372369958133,76.56803543344274],[-42.0027101811286,76.5677297614132],[-42.018489549754314,76.56727049521045],[-42.02523268310037,76.56729947358853],[-42.01632717055804,76.56704995054287],[-42.01812374643287,76.56682454985926],[-42.032110541145286,76.56633383284282],[-42.01779976107082,76.5658821145415],[-42.01534260141511,76.56479856871174],[-42.00107568796531,76.5644621813773],[-41.995377949882204,76.56274420903833],[-41.97046995309903,76.56211833861009],[-41.953781935912126,76.56104872526852],[-41.94807234894085,76.56444374008564],[-41.924412914997376,76.56365260046881],[-41.919419010029955,76.56459101878679],[-41.92222392201135,76.56591392451871],[-41.918608376844645,76.56617599127173],[-41.92290581570127,76.5671345508062],[-41.9354042111234,76.5680171215676],[-41.94715204902456,76.56827568581893],[-41.95275454864647,76.56888373426607],[-41.94338893350497,76.57226537242977],[-41.952444484419686,76.57307808234314],[-41.9623474394601,76.5755108703321],[-41.962098587626336,76.57415432714993],[-41.9761131991973,76.57385999235312],[-41.98282919411453,76.5718988813267],[-42.009497514128746,76.57293049005447],[-42.02083836224462,76.57272213876445]]]}},{"type":"Feature","properties":{"N03_001":"広島県","N03_002":null,"N03_003":null,"N03_004":"府中市","N03_007":"34208"},"geometry":{"type":"Polygon","coordinates":[[[-42.02523268310037,76.56729947358853],[-42.018489549754314,76.56727049521045],[-42.0027101811286,76.5677297614132],[-42.00372369958133,76.56803543344274],[-42.01563760363235,76.56857514864234],[-42.02083836224462,76.57272213876445],[-42.06234946895626,76.57701881120485],[-42.06741056235088,76.58153327492394],[-42.087886156672795,76.58275689381904],[-42.091663617963576,76.58458355033008],[-42.1073003597875,76.5854555632368],[-42.12157114023913,76.5843660379725],[-42.12184762571199,76.5819308980993],[-42.12869160813629,76.57962060863926],[-42.107116847622706,76.57619599334653],[-42.077186325931024,76.57400569935042],[-42.07545835263961,76.57068144354801],[-42.08388189865334,76.56853809195894],[-42.055349634735826,76.56754541003943],[-42.02523268310037,76.56729947358853]]]}},{"type":"Feature","properties":{"N03_001":"広島県","N03_002":null,"N03_003":null,"N03_004":"三次市","N03_007":"34209"},"geometry":{"type":"Polygon","coordinates":[[[-42.268153532023874,76.57947605342025],[-42.26821678775034,76.57948961997755],[-42.24384183532221,76.58037782153232],[-42.2469489018715,76.58041607070108],[-42.25202261349799,76.58053336187753],[-42.2457605847567,76.58086959842502],[-42.25227443399738,76.5812113454448],[-42.23953192166257,76.58160185918513],[-42.255140789401956,76.57903275603665],[-42.24985679208038,76.5777347114523],[-42.233835729336015,76.57630465371145],[-42.21594393085973,76.57714777682236],[-42.21372976123607,76.58197643889025],[-42.20647013346335,76.58225730745386],[-42.18089403124376,76.58130514226633],[-42.1747399267551,76.58238653683726],[-42.16128229113912,76.58204549655837],[-42.13868259364041,76.57879198718591],[-42.12869160813629,76.57962060863926],[-42.12184762571199,76.5819308980993],[-42.12157114023913,76.5843660379725],[-42.12063785000392,76.58612738275288],[-42.13815258426346,76.58587541658228],[-42.152725821080544,76.58472230233876],[-42.158731781453355,76.58472383473372],[-42.152785708677875,76.58527828429668],[-42.1642560776752,76.58449961280066],[-42.17318476323169,76.58422837533965],[-42.19427387146335,76.58234029311107],[-42.19396335741031,76.58095597140303],[-42.20172307465992,76.58029396574705],[-42.20989808706723,76.58038841993775],[-42.23931483702661,76.58171183600541],[-42.24890560148417,76.58192918141951],[-42.25523679458686,76.58088053144577],[-42.29406780633497,76.58223316608093],[-42.29777983221381,76.58177988074087],[-42.322018994316934,76.58166791132903],[-42.27352157152937,76.57963911442121],[-42.268153532023874,76.57947605342025]]]}},{"type":"Feature","properties":{"N03_001":"広島県","N03_002":null,"N03_003":null,"N03_004":"庄原市","N03_007":"34210"},"geometry":{"type":"Polygon","coordinates":[[[-42.24890560148417,76.58192918141951],[-42.23931483702661,76.58171183600541],[-42.20989808706723,76.58038841993775],[-42.20172307465992,76.58029396574705],[-42.19396335741031,76.58095597140303],[-42.19427387146335,76.58234029311107],[-42.17318476323169,76.58422837533965],[-42.1642560776752,76.58449961280066],[-42.152785708677875,76.58527828429668],[-42.158731781453355,76.58472383473372],[-42.152725821080544,76.58472230233876],[-42.13815258426346,76.58587541658228],[-42.12063785000392,76.58612738275288],[-42.12157114023913,76.5843660379725],[-42.1073003597875,76.5854555632368],[-42.091663617963576,76.58458355033008],[-42.09240850120342,76.58529267665149],[-42.10775102794683,76.58629280231104],[-42.10496011453389,76.58596795448275],[-42.10851456156461,76.58558635898454],[-42.097149876889496,76.58502465699667],[-42.073918709102635,76.58538929370329],[-42.05797903673084,76.58444893288402],[-42.0427503385724,76.58381188562831],[-42.04210528180587,76.58409162816612],[-42.003860403244296,76.58260242470685],[-42.00292963155769,76.58263679595446],[-42.03167902301284,76.5839236916532],[-42.03540813008855,76.58393226761879],[-42.0127749496553,76.58453282525079],[-42.01157867185667,76.58479965367309],[-42.03971302140913,76.58457188078401],[-42.053688041630075,76.5842116226765],[-42.08632284092526,76.58168819207741],[-42.10094648973035,76.58138829001757],[-42.105517454452105,76.58122456107773],[-42.12632496382265,76.58104942213171],[-42.13557359747041,76.58115029387973],[-42.14581347575303,76.58079093495088],[-42.16344313018125,76.58079497419935],[-42.179495816304794,76.58176943839409],[-42.192955613038606,76.58403894321312],[-42.2086665262053,76.5843488765623],[-42.221728755751045,76.58359953100391],[-42.228239785002295,76.58258613306629],[-42.24890560148417,76.58192918141951]]]}},{"type":"Feature","properties":{"N03_001":"広島県","N03_002":null,"N03_003":null,"N03_004":"大竹市","N03_007":"34211"},"geometry":{"type":"Polygon","coordinates":[[[-42.57061407064275,76.54925436996874],[-42.592866713239545,76.55587011945181],[-42.6138305850062,76.55555853372215],[-42.64569963713504,76.5570702727384],[-42.6360662528712,76.55794483370394],[-42.66712720602643,76.55596103268692],[-42.670234139396605,76.55298801222293],[-42.64997070362798,76.54430741301933],[-42.60066772622716,76.54288177873909],[-42.610859510805795,76.54259638040293],[-42.573051279796886,76.54418439390058],[-42.57839245465403,76.54514575957654],[-42.57061407064275,76.54925436996874]]]}},{"type":"Feature","properties":{"N03_001":"広島県","N03_002":null,"N03_003":null,"N03_004":"東広島市","N03_007":"34212"},"geometry":{"type":"Polygon","coordinates":[[[-42.31502198370842,76.56923932083862],[-42.29577345597363,76.56810024852403],[-42.30305349173857,76.56624417490713],[-42.30186336903467,76.56456211311395],[-42.3178442712833,76.5605087507883],[-42.32930879569154,76.55805989217193],[-42.33495328496617,76.55520957780321],[-42.31565427488712,76.55642591965326],[-42.31223984339549,76.55455343280819],[-42.291985165130065,76.55834591415385],[-42.27314774614171,76.56251872656527],[-42.26987052066089,76.55687436012123],[-42.257830329827755,76.55492715054338],[-42.2529009636726,76.55779479611309],[-42.24662162221203,76.5581484496531],[-42.22407000085643,76.55516054274982],[-42.23901964124995,76.56544878668667],[-42.26143833212296,76.5667413526371],[-42.248717883502145,76.5683529900789],[-42.23146257033403,76.56977522262684],[-42.21677902605979,76.570476939921],[-42.208063698059895,76.56995497025781],[-42.20788450061961,76.56913594240999],[-42.20042648692663,76.56906455042918],[-42.21383898363509,76.56912513572823],[-42.227743975441236,76.56906343933122],[-42.22862722608823,76.5702197696409],[-42.21236502620009,76.57179454688405],[-42.20704855108376,76.5739382297063],[-42.21594393085973,76.57714777682236],[-42.233835729336015,76.57630465371145],[-42.24985679208038,76.5777347114523],[-42.25534809133183,76.57393536349426],[-42.26780414949654,76.57311584044012],[-42.274067676648144,76.57134620763765],[-42.28381157575835,76.57150037568958],[-42.28726096551917,76.57008385349945],[-42.29950399315085,76.57062741544561],[-42.30402757494403,76.569781015445],[-42.317588856879794,76.5704303372585],[-42.31502198370842,76.56923932083862]]]}},{"type":"Feature","properties":{"N03_001":"広島県","N03_002":null,"N03_003":null,"N03_004":"安芸高田市","N03_007":"34214"},"geometry":{"type":"Polygon","coordinates":[[[-42.371434467747434,76.5754044427101],[-42.352182880789414,76.57478902983426],[-42.33317190559488,76.57599817064586],[-42.32348229534783,76.57594921838194],[-42.301395176389484,76.57628449664308],[-42.29432112085089,76.57488766196295],[-42.29753368377726,76.573289751805],[-42.28726096551917,76.57008385349945],[-42.28381157575835,76.57150037568958],[-42.274067676648144,76.57134620763765],[-42.26780414949654,76.57311584044012],[-42.25534809133183,76.57393536349426],[-42.24985679208038,76.5777347114523],[-42.255140789401956,76.57903275603665],[-42.23953192166257,76.58160185918513],[-42.25227443399738,76.5812113454448],[-42.2457605847567,76.58086959842502],[-42.25202261349799,76.58053336187753],[-42.2469489018715,76.58041607070108],[-42.24384183532221,76.58037782153232],[-42.26821678775034,76.57948961997755],[-42.268153532023874,76.57947605342025],[-42.28867242343244,76.57954706920127],[-42.29358521328084,76.57932703445867],[-42.32638508238184,76.58000968929926],[-42.35011346307477,76.57968576469175],[-42.37658802420387,76.57963462592423],[-42.35322285600257,76.57850764277386],[-42.35323970626268,76.57823253266288],[-42.342987922053375,76.57815720587136],[-42.35010143051707,76.5776864601854],[-42.335747879992866,76.577677541389],[-42.35717931081111,76.57581896235949],[-42.371434467747434,76.5754044427101]]]}}]}