{"type":"FeatureCollection","features":[{"type":"Feature","properties":{"N03_001":"千葉県","N03_002":null,"N03_003":"千葉市","N03_004":"中央区","N03_007":"12101"},"geometry":{"type":"Polygon","coordinates":[[[-38.10351744041177,76.60836162737196],[-38.12463526084843,76.61020214737428],[-38.15563465090755,76.60781538719623],[-38.159331054113174,76.60685744704844],[-38.155689485045954,76.60549033220967],[-38.14762315844493,76.60009494153783],[-38.135611493372245,76.59973142615308],[-38.126110500003115,76.60131253547125],[-38.10351744041177,76.60836162737196]]]}},{"type":"Feature","properties":{"N03_001":"千葉県","N03_002":null,"N03_003":"千葉市","N03_004":"花見川区","N03_007":"12102"},"geometry":{"type":"Polygon","coordinates":[[[-38.11737927766288,76.6222895453412],[-38.1333676809705,76.62219215004095],[-38.16184369677526,76.62141601349147],[-38.16941446754329,76.61901069643977],[-38.21134700708588,76.61491292161519],[-38.17025762943965,76.61467774035279],[-38.12404472784238,76.61929898018919],[-38.110197460174604,76.62250609292663],[-38.11737927766288,76.6222895453412]]]}},{"type":"Feature","properties":{"N03_001":"千葉県","N03_002":null,"N03_003":"千葉市","N03_004":"稲毛区","N03_007":"12103"},"geometry":{"type":"Polygon","coordinates":[[[-38.12463526084843,76.61020214737428],[-38.12019088622286,76.61628718014386],[-38.10819481164578,76.61491837271338],[-38.12404472784238,76.61929898018919],[-38.17025762943965,76.61467774035279],[-38.15563465090755,76.60781538719623],[-38.12463526084843,76.61020214737428]]]}},{"type":"Feature","properties":{"N03_001":"千葉県","N03_002":null,"N03_003":"千葉市","N03_004":"若葉区","N03_007":"12104"},"geometry":{"type":"Polygon","coordinates":[[[-38.10351744041177,76.60836162737196],[-38.089400777458145,76.6102389676302],[-38.079238865155254,76.60940206277542],[-38.06205041022852,76.6100808870835],[-38.04484251400002,76.6117269593245],[-38.0452962784761,76.61185914132626],[-38.05615920951933,76.61277468033491],[-38.05514448294462,76.61447686681365],[-38.06856783575683,76.61448656424156],[-38.069964221329954,76.61635153212582],[-38.0864672042292,76.61374796429723],[-38.10819481164578,76.61491837271338],[-38.12019088622286,76.61628718014386],[-38.12463526084843,76.61020214737428],[-38.10351744041177,76.60836162737196]]]}},{"type":"Feature","properties":{"N03_001":"千葉県","N03_002":null,"N03_003":"千葉市","N03_004":"緑区","N03_007":"12105"},"geometry":{"type":"Polygon","coordinates":[[[-38.135611493372245,76.59973142615308],[-38.12211626684409,76.60007687435345],[-38.097928732136836,76.60457239230344],[-38.10204596210462,76.60156812945047],[-38.084852757061846,76.60242728051331],[-38.07370854249516,76.60332931560713],[-38.05148894394208,76.60829258128484],[-38.04347098889866,76.61127680931988],[-38.04484251400002,76.6117269593245],[-38.06205041022852,76.6100808870835],[-38.079238865155254,76.60940206277542],[-38.089400777458145,76.6102389676302],[-38.10351744041177,76.60836162737196],[-38.126110500003115,76.60131253547125],[-38.135611493372245,76.59973142615308]]]}},{"type":"Feature","properties":{"N03_001":"千葉県","N03_002":null,"N03_003":"千葉市","N03_004":"美浜区","N03_007":"12106"},"geometry":{"type":"Polygon","coordinates":[[[-38.15563465090755,76.60781538719623],[-38.17025762943965,76.61467774035279],[-38.21134700708588,76.61491292161519],[-38.22232147742208,76.61373788386341],[-38.170206169744674,76.60541502911758],[-38.159331054113174,76.60685744704844],[-38.15563465090755,76.60781538719623]]]}},{"type":"Feature","properties":{"N03_001":"千葉県","N03_002":null,"N03_003":null,"N03_004":"銚子市","N03_007":"12202"},"geometry":{"type":"Polygon","coordinates":[[[-37.83391603584427,76.62551792252543],[-37.809481899222945,76.62395829485266],[-37.81251765701031,76.62231180649684],[-37.79556686124495,76.62158933126581],[-37.75367441466981,76.62238446815691],[-37.73581824840619,76.62167419946617],[-37.73425310743222,76.62388469491937],[-37.74179713744276,76.62407398648995],[-37.76219455871434,76.62393009070207],[-37.80917493225131,76.62636766340216],[-37.82086134430384,76.62743281751902],[-37.837252924075045,76.62697720504379],[-37.83391603584427,76.62551792252543]]]}},{"type":"Feature","properties":{"N03_001":"千葉県","N03_002":null,"N03_003":null,"N03_004":"館山市","N03_007":"12205"},"geometry":{"type":"Polygon","coordinates":[[[-38.30864495615352,76.58495803696039],[-38.292285831838825,76.58532582415748],[-38.24967650721235,76.58980199586442],[-38.2576813188052,76.59150719380949],[-38.25534761183728,76.59182827548975],[-38.24892970401396,76.59173911678565],[-38.24705535536163,76.5914748639594],[-38.25837437185139,76.59153221249593],[-38.26498265854193,76.59137058291752],[-38.28312802723567,76.59127851837266],[-38.27352778732015,76.59167474687268],[-38.27500951210072,76.59180988052893],[-38.292848153472775,76.59098160939621],[-38.3213331252985,76.58852830354245],[-38.345871247990466,76.58726809299594],[-38.31295390386244,76.58645434689515],[-38.30864495615352,76.58495803696039]]]}},{"type":"Feature","properties":{"N03_001":"千葉県","N03_002":null,"N03_003":null,"N03_004":"木更津市","N03_007":"12206"},"geometry":{"type":"Polygon","coordinates":[[[-38.23824104493315,76.6015079056595],[-38.25229308784455,76.60169991646634],[-38.264585899114614,76.6012706544074],[-38.25439371321878,76.59915471314056],[-38.261972968871106,76.59840513243397],[-38.242230162925814,76.59672408717482],[-38.21511847410921,76.59671095184044],[-38.19017578039666,76.59715190072735],[-38.170757789741174,76.59999977722822],[-38.15816037099102,76.60158050534551],[-38.15785417993012,76.60070471757403],[-38.144206279203544,76.60241507863145],[-38.15296905598832,76.60086188101656],[-38.165431411039236,76.60058120704332],[-38.20070873793669,76.5965800162145],[-38.19776437559165,76.59725803003715],[-38.176471021256724,76.59960757233755],[-38.23869576024977,76.59959159280346],[-38.23824104493315,76.6015079056595]]]}},{"type":"Feature","properties":{"N03_001":"千葉県","N03_002":null,"N03_003":null,"N03_004":"松戸市","N03_007":"12207"},"geometry":{"type":"Polygon","coordinates":[[[-38.248708174985765,76.62646919007685],[-38.22024916813915,76.6320845828462],[-38.231743056235835,76.63101034902833],[-38.24715609070028,76.63083868388262],[-38.25494786639509,76.63015685056176],[-38.29427812602689,76.6289174097783],[-38.293976709882116,76.62547054316744],[-38.30087600293143,76.62449061574264],[-38.29464751815342,76.62341533440753],[-38.29437696336319,76.62338501168111],[-38.28788433511434,76.62403279129684],[-38.26471609643286,76.6231568557976],[-38.256838202223584,76.62565926264507],[-38.248708174985765,76.62646919007685]]]}},{"type":"Feature","properties":{"N03_001":"千葉県","N03_002":null,"N03_003":null,"N03_004":"野田市","N03_007":"12208"},"geometry":{"type":"Polygon","coordinates":[[[-38.297166801350684,76.63563142010112],[-38.26412922861549,76.63637166126469],[-38.24501294829396,76.63626579769887],[-38.25809484583772,76.63713607655798],[-38.25697070250336,76.63776021315392],[-38.26345662595489,76.63786281551914],[-38.28610874762096,76.6383774845592],[-38.289071409905915,76.63899820170884],[-38.32067026930801,76.64096153450835],[-38.33916886027063,76.64320448201295],[-38.34532544874341,76.64252619855732],[-38.33807991142733,76.64113463354282],[-38.32830079849034,76.64025624321702],[-38.324685788369166,76.63824295177889],[-38.31540681859014,76.63731083014596],[-38.308650610555375,76.63628638559777],[-38.297166801350684,76.63563142010112]]]}},{"type":"Feature","properties":{"N03_001":"千葉県","N03_002":null,"N03_003":null,"N03_004":"茂原市","N03_007":"12210"},"geometry":{"type":"Polygon","coordinates":[[[-38.084852757061846,76.60242728051331],[-38.09573556519544,76.60126538382217],[-38.106311849864824,76.60084446675776],[-38.10178648064946,76.6013255840955],[-38.1017096018936,76.60198057488805],[-38.08679557541994,76.60206833818742],[-38.06245338309296,76.6019501928674],[-38.053368445616925,76.60221119397359],[-38.054414479773925,76.60245846867068],[-38.05102149489998,76.60256644754597],[-38.031564715265084,76.60374151910018],[-38.033207201682195,76.60417409389092],[-38.00239903259131,76.6063425384555],[-38.003855754855714,76.60743434998129],[-38.02493637218748,76.60544116476669],[-38.04708176198513,76.60563743286838],[-38.07370854249516,76.60332931560713],[-38.084852757061846,76.60242728051331]]]}},{"type":"Feature","properties":{"N03_001":"千葉県","N03_002":null,"N03_003":null,"N03_004":"成田市","N03_007":"12211"},"geometry":{"type":"Polygon","coordinates":[[[-38.05090904559808,76.62804277696698],[-38.04733862452936,76.62658710268089],[-38.02614920349887,76.62760752833547],[-38.01461165405242,76.62854164631781],[-37.998072049960165,76.62868395555745],[-37.989609372353975,76.62667256730647],[-37.97653322461766,76.62710026317032],[-37.978518788594755,76.62850869783708],[-37.96942988220162,76.62845365306022],[-37.95088131958899,76.62895375437868],[-37.94015919754957,76.62900419160098],[-37.942964148107805,76.62870806044313],[-37.95314091462991,76.62858279008243],[-37.97917981043596,76.62817120826968],[-37.99074925943943,76.62943165302869],[-38.01300365957381,76.62839646240688],[-38.030353899241646,76.62917997357214],[-38.0384145829588,76.6284477754123],[-38.05090904559808,76.62804277696698]]]}},{"type":"Feature","properties":{"N03_001":"千葉県","N03_002":null,"N03_003":null,"N03_004":"佐倉市","N03_007":"12212"},"geometry":{"type":"Polygon","coordinates":[[[-38.110197460174604,76.62250609292663],[-38.0749660681036,76.62379670784037],[-38.07368958001052,76.62275307031595],[-38.069964221329954,76.61635153212582],[-38.06856783575683,76.61448656424156],[-38.05514448294462,76.61447686681365],[-38.05467616794353,76.61755414117069],[-38.039132792201634,76.62100774155162],[-38.03846412494982,76.62280192523434],[-38.04840930455267,76.62263283253895],[-38.05668434160218,76.62416232923678],[-38.05139835898248,76.62543437771446],[-38.07540431023286,76.62683452745893],[-38.084657082636305,76.62580237809223],[-38.102148296063504,76.6268178217461],[-38.11737964859232,76.62268075779487],[-38.11737927766288,76.6222895453412],[-38.110197460174604,76.62250609292663]]]}},{"type":"Feature","properties":{"N03_001":"千葉県","N03_002":null,"N03_003":null,"N03_004":"東金市","N03_007":"12213"},"geometry":{"type":"Polygon","coordinates":[[[-38.04484251400002,76.6117269593245],[-38.04347098889866,76.61127680931988],[-38.02659344642154,76.61215370442325],[-38.007532879451965,76.60945667867351],[-37.98394908267648,76.60996823860212],[-37.965641412607575,76.61538469762526],[-37.96865177580073,76.61640082197093],[-37.98252876577606,76.61588925896216],[-37.98621703988931,76.61640837916006],[-38.012843272165696,76.6151131227492],[-38.009411174210946,76.61664804589772],[-38.02465029117811,76.61574237802883],[-38.02437450727,76.6135559523097],[-38.0452962784761,76.61185914132626],[-38.04484251400002,76.6117269593245]]]}},{"type":"Feature","properties":{"N03_001":"千葉県","N03_002":null,"N03_003":null,"N03_004":"旭市","N03_007":"12215"},"geometry":{"type":"Polygon","coordinates":[[[-37.83391603584427,76.62551792252543],[-37.84703221402367,76.62555304040471],[-37.85729587267992,76.62640704469197],[-37.87482859131757,76.62764152513991],[-37.89848727206921,76.62667424523376],[-37.896247334925455,76.62523106441016],[-37.87973547175827,76.6247901812734],[-37.873758234285624,76.62168888220529],[-37.867283676521375,76.62154178984302],[-37.84823493477912,76.62266715875305],[-37.823228146100995,76.62243550879445],[-37.79556686124495,76.62158933126581],[-37.81251765701031,76.62231180649684],[-37.809481899222945,76.62395829485266],[-37.83391603584427,76.62551792252543]]]}},{"type":"Feature","properties":{"N03_001":"千葉県","N03_002":null,"N03_003":null,"N03_004":"習志野市","N03_007":"12216"},"geometry":{"type":"Polygon","coordinates":[[[-38.16184369677526,76.62141601349147],[-38.17204060430207,76.62253230626628],[-38.17316490450684,76.62209644958847],[-38.2311667476278,76.62093901270057],[-38.232189065162686,76.61559366016779],[-38.22232147742208,76.61373788386341],[-38.21134700708588,76.61491292161519],[-38.16941446754329,76.61901069643977],[-38.16184369677526,76.62141601349147]]]}},{"type":"Feature","properties":{"N03_001":"千葉県","N03_002":null,"N03_003":null,"N03_004":"柏市","N03_007":"12217"},"geometry":{"type":"Polygon","coordinates":[[[-38.24501294829396,76.63626579769887],[-38.26412922861549,76.63637166126469],[-38.23532014042794,76.63173067474398],[-38.24715609070028,76.63083868388262],[-38.231743056235835,76.63101034902833],[-38.22024916813915,76.6320845828462],[-38.20613272394579,76.62941468499618],[-38.20819142921403,76.63180530574779],[-38.196643944232804,76.63051085882189],[-38.13807477740228,76.62886846092754],[-38.125603561083146,76.62993389534572],[-38.22272761115797,76.63241893031719],[-38.22076391069902,76.6326807705242],[-38.20943414817448,76.63355572536675],[-38.22163870052685,76.63324116057039],[-38.24501294829396,76.63626579769887]]]}},{"type":"Feature","properties":{"N03_001":"千葉県","N03_002":null,"N03_003":null,"N03_004":"勝浦市","N03_007":"12218"},"geometry":{"type":"Polygon","coordinates":[[[-38.05163554841186,76.59899056590365],[-38.07146448221692,76.59961365829218],[-38.095172612395174,76.5984495121365],[-38.1002481159876,76.5969841396606],[-38.12071960965978,76.59703817765674],[-38.13184761941404,76.5964258149661],[-38.11602232187158,76.59579342962952],[-38.11553799557152,76.59457691422077],[-38.08786194625326,76.59514235236381],[-38.07066226613619,76.59489072886562],[-38.063991310900356,76.59562342039787],[-38.04754471562639,76.59508162370251],[-38.035805841868275,76.59682063220009],[-38.053109656193136,76.59692264554677],[-38.06015736710413,76.59794634034127],[-38.05163554841186,76.59899056590365]]]}},{"type":"Feature","properties":{"N03_001":"千葉県","N03_002":null,"N03_003":null,"N03_004":"市原市","N03_007":"12219"},"geometry":{"type":"Polygon","coordinates":[[[-38.14762315844493,76.60009494153783],[-38.16044520162855,76.60181010529928],[-38.17509251537746,76.6025458525128],[-38.18837470011934,76.60264809015021],[-38.171116027329745,76.60048351130465],[-38.16457060278526,76.60027440340171],[-38.15517069302186,76.6005268210281],[-38.15296905598832,76.60086188101656],[-38.144206279203544,76.60241507863145],[-38.15785417993012,76.60070471757403],[-38.16815586182877,76.59853575453457],[-38.15941097801503,76.59847368422027],[-38.13870849599918,76.59955305715852],[-38.123083584257444,76.60271095992171],[-38.1126856812187,76.60294486739785],[-38.11879209719484,76.60326421944642],[-38.12094007272597,76.60186004539302],[-38.12681647204136,76.60092954300595],[-38.11865785261261,76.59936653066512],[-38.09573556519544,76.60126538382217],[-38.084852757061846,76.60242728051331],[-38.10204596210462,76.60156812945047],[-38.097928732136836,76.60457239230344],[-38.12211626684409,76.60007687435345],[-38.135611493372245,76.59973142615308],[-38.14762315844493,76.60009494153783]]]}},{"type":"Feature","properties":{"N03_001":"千葉県","N03_002":null,"N03_003":null,"N03_004":"流山市","N03_007":"12220"},"geometry":{"type":"Polygon","coordinates":[[[-38.29427812602689,76.6289174097783],[-38.25494786639509,76.63015685056176],[-38.24715609070028,76.63083868388262],[-38.23532014042794,76.63173067474398],[-38.26412922861549,76.63637166126469],[-38.297166801350684,76.63563142010112],[-38.28763877501308,76.63101580908109],[-38.29427812602689,76.6289174097783]]]}},{"type":"Feature","properties":{"N03_001":"千葉県","N03_002":null,"N03_003":null,"N03_004":"八千代市","N03_007":"12221"},"geometry":{"type":"Polygon","coordinates":[[[-38.11737927766288,76.6222895453412],[-38.11737964859232,76.62268075779487],[-38.102148296063504,76.6268178217461],[-38.136980066483595,76.62732853575412],[-38.14281646756933,76.62708817511384],[-38.17673994180476,76.62310589973669],[-38.17204060430207,76.62253230626628],[-38.16184369677526,76.62141601349147],[-38.1333676809705,76.62219215004095],[-38.11737927766288,76.6222895453412]]]}},{"type":"Feature","properties":{"N03_001":"千葉県","N03_002":null,"N03_003":null,"N03_004":"我孫子市","N03_007":"12222"},"geometry":{"type":"Polygon","coordinates":[[[-38.20943414817448,76.63355572536675],[-38.22076391069902,76.6326807705242],[-38.22272761115797,76.63241893031719],[-38.125603561083146,76.62993389534572],[-38.10720081008596,76.62960664267813],[-38.11763988168264,76.63179843135764],[-38.19292954038517,76.6363067211259],[-38.20943414817448,76.63355572536675]]]}},{"type":"Feature","properties":{"N03_001":"千葉県","N03_002":null,"N03_003":null,"N03_004":"鴨川市","N03_007":"12223"},"geometry":{"type":"Polygon","coordinates":[[[-38.13184761941404,76.5964258149661],[-38.14781470956866,76.59652747730223],[-38.16818151443165,76.59676153703052],[-38.17855939581974,76.59646251558284],[-38.18441148804721,76.59683554268642],[-38.193014260720894,76.59660060755938],[-38.21231210757352,76.59645173561381],[-38.234540828159126,76.59635240815437],[-38.24201521528363,76.59508012762747],[-38.243275637344524,76.59409062221846],[-38.23284187527166,76.59319788364742],[-38.21551021563006,76.59421136860232],[-38.20595530336596,76.59445744672965],[-38.20567972491021,76.59276830810606],[-38.18512376038718,76.59420316779524],[-38.174417717857246,76.59508714066253],[-38.171717048690695,76.59520161078599],[-38.16038941999174,76.59545366362353],[-38.153380522508044,76.59535396749898],[-38.13007272145121,76.59517541171071],[-38.11553799557152,76.59457691422077],[-38.11602232187158,76.59579342962952],[-38.13184761941404,76.5964258149661]]]}},{"type":"Feature","properties":{"N03_001":"千葉県","N03_002":null,"N03_003":null,"N03_004":"鎌ケ谷市","N03_007":"12224"},"geometry":{"type":"Polygon","coordinates":[[[-38.196080103872035,76.62515854092281],[-38.20613272394579,76.62941468499618],[-38.22024916813915,76.6320845828462],[-38.248708174985765,76.62646919007685],[-38.24861265576693,76.62257998030205],[-38.21783653237802,76.62240984612009],[-38.196080103872035,76.62515854092281]]]}},{"type":"Feature","properties":{"N03_001":"千葉県","N03_002":null,"N03_003":null,"N03_004":"君津市","N03_007":"12225"},"geometry":{"type":"Polygon","coordinates":[[[-38.261972968871106,76.59840513243397],[-38.289200272569715,76.60010781866181],[-38.282172875799574,76.5988051867242],[-38.247568924260136,76.59620489198356],[-38.23913191423425,76.59668426234043],[-38.22268458948669,76.59757957579023],[-38.212435879722236,76.59850520417913],[-38.21231210757352,76.59645173561381],[-38.193014260720894,76.59660060755938],[-38.18441148804721,76.59683554268642],[-38.17855939581974,76.59646251558284],[-38.16818151443165,76.59676153703052],[-38.14781470956866,76.59652747730223],[-38.15941097801503,76.59847368422027],[-38.16815586182877,76.59853575453457],[-38.15785417993012,76.60070471757403],[-38.15816037099102,76.60158050534551],[-38.170757789741174,76.59999977722822],[-38.19017578039666,76.59715190072735],[-38.21511847410921,76.59671095184044],[-38.242230162925814,76.59672408717482],[-38.261972968871106,76.59840513243397]]]}},{"type":"Feature","properties":{"N03_001":"千葉県","N03_002":null,"N03_003":null,"N03_004":"富津市","N03_007":"12226"},"geometry":{"type":"Polygon","coordinates":[[[-38.21231210757352,76.59645173561381],[-38.212435879722236,76.59850520417913],[-38.22268458948669,76.59757957579023],[-38.23913191423425,76.59668426234043],[-38.247568924260136,76.59620489198356],[-38.282172875799574,76.5988051867242],[-38.29972179889504,76.59929221597442],[-38.302100053471435,76.59809940513972],[-38.27299072960647,76.59658544440735],[-38.266787555899995,76.59680608203226],[-38.267289146151064,76.59680830546299],[-38.289189698596104,76.59644785281863],[-38.29741917113682,76.59474315743753],[-38.276202732650646,76.59592578061597],[-38.255100936522155,76.59630979332212],[-38.24201521528363,76.59508012762747],[-38.234540828159126,76.59635240815437],[-38.21231210757352,76.59645173561381]]]}},{"type":"Feature","properties":{"N03_001":"千葉県","N03_002":null,"N03_003":null,"N03_004":"浦安市","N03_007":"12227"},"geometry":{"type":"Polygon","coordinates":[[[-38.298527508204096,76.61974500969082],[-38.31214866718139,76.61462966411915],[-38.28391052633523,76.60983928068526],[-38.25355370588322,76.61319124666447],[-38.2668288951305,76.61840447522982],[-38.298527508204096,76.61974500969082]]]}},{"type":"Feature","properties":{"N03_001":"千葉県","N03_002":null,"N03_003":null,"N03_004":"四街道市","N03_007":"12228"},"geometry":{"type":"Polygon","coordinates":[[[-38.12404472784238,76.61929898018919],[-38.10819481164578,76.61491837271338],[-38.0864672042292,76.61374796429723],[-38.069964221329954,76.61635153212582],[-38.07368958001052,76.62275307031595],[-38.0749660681036,76.62379670784037],[-38.110197460174604,76.62250609292663],[-38.12404472784238,76.61929898018919]]]}},{"type":"Feature","properties":{"N03_001":"千葉県","N03_002":null,"N03_003":null,"N03_004":"袖ケ浦市","N03_007":"12229"},"geometry":{"type":"Polygon","coordinates":[[[-38.15296905598832,76.60086188101656],[-38.15517069302186,76.6005268210281],[-38.16457060278526,76.60027440340171],[-38.171116027329745,76.60048351130465],[-38.19232069038001,76.60295355083511],[-38.228286217955926,76.60294324431477],[-38.23824104493315,76.6015079056595],[-38.23869576024977,76.59959159280346],[-38.176471021256724,76.59960757233755],[-38.19776437559165,76.59725803003715],[-38.20070873793669,76.5965800162145],[-38.165431411039236,76.60058120704332],[-38.15296905598832,76.60086188101656]]]}},{"type":"Feature","properties":{"N03_001":"千葉県","N03_002":null,"N03_003":null,"N03_004":"八街市","N03_007":"12230"},"geometry":{"type":"Polygon","coordinates":[[[-38.0452962784761,76.61185914132626],[-38.02437450727,76.6135559523097],[-38.02465029117811,76.61574237802883],[-38.009411174210946,76.61664804589772],[-38.01452188372826,76.61715152559388],[-38.00109411679975,76.61940203372964],[-38.01312405846974,76.6200715183884],[-38.03303213758896,76.6235951192742],[-38.03846412494982,76.62280192523434],[-38.039132792201634,76.62100774155162],[-38.05467616794353,76.61755414117069],[-38.05514448294462,76.61447686681365],[-38.05615920951933,76.61277468033491],[-38.0452962784761,76.61185914132626]]]}},{"type":"Feature","properties":{"N03_001":"千葉県","N03_002":null,"N03_003":null,"N03_004":"印西市","N03_007":"12231"},"geometry":{"type":"Polygon","coordinates":[[[-38.10720081008596,76.62960664267813],[-38.125603561083146,76.62993389534572],[-38.13807477740228,76.62886846092754],[-38.12779918240069,76.6282308592347],[-38.136980066483595,76.62732853575412],[-38.102148296063504,76.6268178217461],[-38.084657082636305,76.62580237809223],[-38.07540431023286,76.62683452745893],[-38.05139835898248,76.62543437771446],[-38.04733862452936,76.62658710268089],[-38.05090904559808,76.62804277696698],[-38.051316126462005,76.62842968128773],[-38.06343892857546,76.62893997980574],[-38.078796487899865,76.62882923302766],[-38.096617446418186,76.62938789671213],[-38.10720081008596,76.62960664267813]]]}},{"type":"Feature","properties":{"N03_001":"千葉県","N03_002":null,"N03_003":null,"N03_004":"白井市","N03_007":"12232"},"geometry":{"type":"Polygon","coordinates":[[[-38.14281646756933,76.62708817511384],[-38.136980066483595,76.62732853575412],[-38.12779918240069,76.6282308592347],[-38.13807477740228,76.62886846092754],[-38.196643944232804,76.63051085882189],[-38.20819142921403,76.63180530574779],[-38.20613272394579,76.62941468499618],[-38.196080103872035,76.62515854092281],[-38.14281646756933,76.62708817511384]]]}},{"type":"Feature","properties":{"N03_001":"千葉県","N03_002":null,"N03_003":null,"N03_004":"富里市","N03_007":"12233"},"geometry":{"type":"Polygon","coordinates":[[[-38.02614920349887,76.62760752833547],[-38.038316197841,76.62532631965296],[-38.03303213758896,76.6235951192742],[-38.01312405846974,76.6200715183884],[-38.00109411679975,76.61940203372964],[-37.99391311729438,76.61992299687758],[-37.9757917500495,76.61966449145213],[-37.989609372353975,76.62667256730647],[-37.998072049960165,76.62868395555745],[-38.01461165405242,76.62854164631781],[-38.02614920349887,76.62760752833547]]]}},{"type":"Feature","properties":{"N03_001":"千葉県","N03_002":null,"N03_003":null,"N03_004":"南房総市","N03_007":"12234"},"geometry":{"type":"Polygon","coordinates":[[[-38.30864495615352,76.58495803696039],[-38.30877870753115,76.58495365556749],[-38.296769449268844,76.58470558313407],[-38.26206990615964,76.58584312442143],[-38.244972016435,76.58718865105608],[-38.236474027880945,76.58947130787905],[-38.238535927698926,76.59178382562767],[-38.23181456347301,76.5917634870436],[-38.20567972491021,76.59276830810606],[-38.20595530336596,76.59445744672965],[-38.21551021563006,76.59421136860232],[-38.23284187527166,76.59319788364742],[-38.243275637344524,76.59409062221846],[-38.25009573994844,76.59216659591038],[-38.27047403124667,76.59204620359439],[-38.28639480886927,76.59196543395875],[-38.29235983191816,76.5913788162419],[-38.28312802723567,76.59127851837266],[-38.26498265854193,76.59137058291752],[-38.25837437185139,76.59153221249593],[-38.24705535536163,76.5914748639594],[-38.24892970401396,76.59173911678565],[-38.25534761183728,76.59182827548975],[-38.2576813188052,76.59150719380949],[-38.24967650721235,76.58980199586442],[-38.292285831838825,76.58532582415748],[-38.30864495615352,76.58495803696039]]]}},{"type":"Feature","properties":{"N03_001":"千葉県","N03_002":null,"N03_003":null,"N03_004":"匝瑳市","N03_007":"12235"},"geometry":{"type":"Polygon","coordinates":[[[-37.89848727206921,76.62667424523376],[-37.90617742272492,76.62748060597463],[-37.91647765068511,76.6270165629612],[-37.93531323099412,76.62429915598743],[-37.92806663643998,76.6216407363812],[-37.902460491097585,76.61846922977585],[-37.867283676521375,76.62154178984302],[-37.873758234285624,76.62168888220529],[-37.87973547175827,76.6247901812734],[-37.896247334925455,76.62523106441016],[-37.89848727206921,76.62667424523376]]]}},{"type":"Feature","properties":{"N03_001":"千葉県","N03_002":null,"N03_003":null,"N03_004":"香取市","N03_007":"12236"},"geometry":{"type":"Polygon","coordinates":[[[-37.95314091462991,76.62858279008243],[-37.942964148107805,76.62870806044313],[-37.94015919754957,76.62900419160098],[-37.95088131958899,76.62895375437868],[-37.93547198052743,76.62921043405923],[-37.91052206134964,76.6288538264798],[-37.90617742272492,76.62748060597463],[-37.89848727206921,76.62667424523376],[-37.87482859131757,76.62764152513991],[-37.86383160630109,76.62832425558928],[-37.86717255245874,76.62890760301],[-37.87803758359433,76.6288831886502],[-37.89027616369958,76.62882253656689],[-37.912958483052584,76.62959093667284],[-37.92481682466156,76.63171697244101],[-37.93323801035346,76.62932855809105],[-37.94766586820742,76.63002408754676],[-37.95924502527599,76.62968085957556],[-37.964047118788216,76.62883469733792],[-37.95314091462991,76.62858279008243]]]}},{"type":"Feature","properties":{"N03_001":"千葉県","N03_002":null,"N03_003":null,"N03_004":"山武市","N03_007":"12237"},"geometry":{"type":"Polygon","coordinates":[[[-37.965641412607575,76.61538469762526],[-37.94962132574034,76.61371771797364],[-37.9216493645715,76.61696997634357],[-37.95022783017464,76.6183096395313],[-37.944150984961134,76.61884918916493],[-37.96884513075108,76.61971679465937],[-37.9757917500495,76.61966449145213],[-37.99391311729438,76.61992299687758],[-38.00109411679975,76.61940203372964],[-38.01452188372826,76.61715152559388],[-38.009411174210946,76.61664804589772],[-38.012843272165696,76.6151131227492],[-37.98621703988931,76.61640837916006],[-37.98252876577606,76.61588925896216],[-37.96865177580073,76.61640082197093],[-37.965641412607575,76.61538469762526]]]}},{"type":"Feature","properties":{"N03_001":"千葉県","N03_002":null,"N03_003":null,"N03_004":"いすみ市","N03_007":"12238"},"geometry":{"type":"Polygon","coordinates":[[[-38.05163554841186,76.59899056590365],[-38.02882509941674,76.59900399778806],[-38.02917973135149,76.59815812338623],[-38.01509569558866,76.59738566286372],[-38.006833110601264,76.59909089384445],[-38.01098816042775,76.59975054802788],[-38.00137565637205,76.60035622355637],[-38.00964829823931,76.60083263580489],[-38.0224362275199,76.60086430340016],[-38.040592639611,76.60067118751591],[-38.054392293020754,76.60084408795424],[-38.081436687415845,76.60098822970524],[-38.07542235452201,76.60044560933758],[-38.08609264292522,76.60024252232414],[-38.068187995910485,76.59985453860132],[-38.07146448221692,76.59961365829218],[-38.05163554841186,76.59899056590365]]]}},{"type":"Feature","properties":{"N03_001":"千葉県","N03_002":null,"N03_003":null,"N03_004":"大網白里市","N03_007":"12239"},"geometry":{"type":"Polygon","coordinates":[[[-38.07370854249516,76.60332931560713],[-38.04708176198513,76.60563743286838],[-38.02493637218748,76.60544116476669],[-38.003855754855714,76.60743434998129],[-38.00239903259131,76.6063425384555],[-37.983061601458964,76.60741329495816],[-37.97206533840898,76.60962802330565],[-37.98394908267648,76.60996823860212],[-38.007532879451965,76.60945667867351],[-38.02659344642154,76.61215370442325],[-38.04347098889866,76.61127680931988],[-38.05148894394208,76.60829258128484],[-38.07370854249516,76.60332931560713]]]}}]}