{"type":"FeatureCollection","features":[{"type":"Feature","properties":{"N03_001":"兵庫県","N03_002":null,"N03_003":"神戸市","N03_004":"東灘区","N03_007":"28101"},"geometry":{"type":"Polygon","coordinates":[[[-40.83761301728358,76.56925391705418],[-40.90807350350874,76.58867455816006],[-40.91639300657969,76.58940163077754],[-40.90174624607943,76.58833300296625],[-40.91487242704402,76.58543699927124],[-40.875803305196726,76.56686188603081],[-40.85209210145292,76.56757875826412],[-40.83761301728358,76.56925391705418]]]}},{"type":"Feature","properties":{"N03_001":"兵庫県","N03_002":null,"N03_003":"神戸市","N03_004":"灘区","N03_007":"28102"},"geometry":{"type":"Polygon","coordinates":[[[-40.91639300657969,76.58940163077754],[-40.95595516610769,76.59017965085496],[-40.95966500903066,76.5893750818667],[-40.89427187580539,76.56762493194228],[-40.875803305196726,76.56686188603081],[-40.91487242704402,76.58543699927124],[-40.90174624607943,76.58833300296625],[-40.91639300657969,76.58940163077754]]]}},{"type":"Feature","properties":{"N03_001":"兵庫県","N03_002":null,"N03_003":"神戸市","N03_004":"兵庫区","N03_007":"28105"},"geometry":{"type":"Polygon","coordinates":[[[-40.97266572432345,76.58791004359163],[-40.99643325401032,76.58597328433594],[-40.93131755227564,76.56426042251677],[-40.93573763476002,76.5626634629115],[-40.91357230032058,76.56458755823512],[-40.97266572432345,76.58791004359163]]]}},{"type":"Feature","properties":{"N03_001":"兵庫県","N03_002":null,"N03_003":"神戸市","N03_004":"長田区","N03_007":"28106"},"geometry":{"type":"Polygon","coordinates":[[[-40.99643325401032,76.58597328433594],[-41.00621486414328,76.5843652067749],[-40.96205645800511,76.56260492822734],[-40.93573763476002,76.5626634629115],[-40.93131755227564,76.56426042251677],[-40.99643325401032,76.58597328433594]]]}},{"type":"Feature","properties":{"N03_001":"兵庫県","N03_002":null,"N03_003":"神戸市","N03_004":"須磨区","N03_007":"28107"},"geometry":{"type":"Polygon","coordinates":[[[-41.00621486414328,76.5843652067749],[-41.017510203086815,76.5848783699856],[-41.0326630781822,76.5816921295291],[-41.03323730803853,76.5786826545855],[-40.991270914272825,76.56461441194172],[-40.99292756824376,76.56322547303328],[-40.96205645800511,76.56260492822734],[-41.00621486414328,76.5843652067749]]]}},{"type":"Feature","properties":{"N03_001":"兵庫県","N03_002":null,"N03_003":"神戸市","N03_004":"垂水区","N03_007":"28108"},"geometry":{"type":"Polygon","coordinates":[[[-41.03323730803853,76.5786826545855],[-41.04274626439435,76.57782292498912],[-41.05309926105066,76.5721763942708],[-41.05904133820562,76.56728545541682],[-41.03251485554158,76.56297868576999],[-40.99292756824376,76.56322547303328],[-40.991270914272825,76.56461441194172],[-41.03323730803853,76.5786826545855]]]}},{"type":"Feature","properties":{"N03_001":"兵庫県","N03_002":null,"N03_003":"神戸市","N03_004":"北区","N03_007":"28109"},"geometry":{"type":"Polygon","coordinates":[[[-40.90807350350874,76.58867455816006],[-40.907438914151854,76.588612801618],[-40.90972761181868,76.58889960091582],[-40.933172085797516,76.59026833706403],[-40.93369206978611,76.59101828555768],[-40.91957505133322,76.59094188726186],[-40.90471503904726,76.59293711731787],[-40.908323232516736,76.59501242889242],[-40.93435264771481,76.59298878759432],[-40.96186778961781,76.59359974417715],[-40.96788702306413,76.59286006132507],[-40.96697000442053,76.59100818237218],[-40.97570243708724,76.59074858375901],[-40.985822406110145,76.59074719591298],[-40.99917981423313,76.5902696056421],[-41.004901858586315,76.58988179317518],[-40.99724175779702,76.58988802877067],[-41.01879922212848,76.58829857625865],[-41.004088997148195,76.58878949889889],[-41.017510203086815,76.5848783699856],[-41.00621486414328,76.5843652067749],[-40.99643325401032,76.58597328433594],[-40.97266572432345,76.58791004359163],[-40.95966500903066,76.5893750818667],[-40.95595516610769,76.59017965085496],[-40.91639300657969,76.58940163077754],[-40.90807350350874,76.58867455816006]]]}},{"type":"Feature","properties":{"N03_001":"兵庫県","N03_002":null,"N03_003":"神戸市","N03_004":"西区","N03_007":"28111"},"geometry":{"type":"Polygon","coordinates":[[[-41.017510203086815,76.5848783699856],[-41.004088997148195,76.58878949889889],[-41.01879922212848,76.58829857625865],[-41.04011371763531,76.58697079842675],[-41.059099213658484,76.58640449945665],[-41.0763679827034,76.58508055418469],[-41.085191949414096,76.58316959076112],[-41.10771627527562,76.58153206252574],[-41.075997946833766,76.58193006511603],[-41.074264736844995,76.56939180793886],[-41.05309926105066,76.5721763942708],[-41.04274626439435,76.57782292498912],[-41.03323730803853,76.5786826545855],[-41.0326630781822,76.5816921295291],[-41.017510203086815,76.5848783699856]]]}},{"type":"Feature","properties":{"N03_001":"兵庫県","N03_002":null,"N03_003":null,"N03_004":"尼崎市","N03_007":"28202"},"geometry":{"type":"Polygon","coordinates":[[[-40.7518556125372,76.57838787120487],[-40.7898103421287,76.57721671709665],[-40.83742046778816,76.5870960721498],[-40.7995180553777,76.57125065467491],[-40.806028685985964,76.56906322636884],[-40.78542151077914,76.56937565982138],[-40.756359863452715,76.57241025748402],[-40.75482098838588,76.573826512282],[-40.747625672391926,76.57466397435968],[-40.7518556125372,76.57838787120487]]]}},{"type":"Feature","properties":{"N03_001":"兵庫県","N03_002":null,"N03_003":null,"N03_004":"明石市","N03_007":"28203"},"geometry":{"type":"Polygon","coordinates":[[[-41.05309926105066,76.5721763942708],[-41.074264736844995,76.56939180793886],[-41.075997946833766,76.58193006511603],[-41.10771627527562,76.58153206252574],[-41.113651222349155,76.58119433098389],[-41.11997059274242,76.58021524232807],[-41.13552434454853,76.57672495590792],[-41.121632267973766,76.57222518673144],[-41.103918031215564,76.57074557601157],[-41.077228921112784,76.56775128752004],[-41.05904133820562,76.56728545541682],[-41.05309926105066,76.5721763942708]]]}},{"type":"Feature","properties":{"N03_001":"兵庫県","N03_002":null,"N03_003":null,"N03_004":"西宮市","N03_007":"28204"},"geometry":{"type":"Polygon","coordinates":[[[-40.907438914151854,76.588612801618],[-40.873045028034404,76.5877401022438],[-40.82336630385171,76.57106429702814],[-40.806028685985964,76.56906322636884],[-40.7995180553777,76.57125065467491],[-40.83742046778816,76.5870960721498],[-40.838658188017035,76.58704768535493],[-40.84044212481892,76.587328382293],[-40.853039401491316,76.58757368485846],[-40.87345866620939,76.58636039347653],[-40.85391081819987,76.58599055406282],[-40.8951641930381,76.59266707153213],[-40.90471503904726,76.59293711731787],[-40.91957505133322,76.59094188726186],[-40.93369206978611,76.59101828555768],[-40.933172085797516,76.59026833706403],[-40.90972761181868,76.58889960091582],[-40.907438914151854,76.588612801618]]]}},{"type":"Feature","properties":{"N03_001":"兵庫県","N03_002":null,"N03_003":null,"N03_004":"洲本市","N03_007":"28205"},"geometry":{"type":"Polygon","coordinates":[[[-41.10465618677512,76.5561244096708],[-41.13051244251629,76.55744954459728],[-41.15996394010439,76.55819459171936],[-41.18165814333226,76.55449622495765],[-41.15090015978957,76.55409048201933],[-41.12862403947039,76.55370513116063],[-41.13547589137574,76.5530401077344],[-41.13578935990289,76.55226001934513],[-41.11466611261053,76.5506716437974],[-41.06981344959663,76.55106098306878],[-41.07586761207665,76.55241761387299],[-41.092223923375855,76.55339206930823],[-41.09420555705505,76.55395078191255],[-41.10490713328844,76.55448967324311],[-41.10465618677512,76.5561244096708]]]}},{"type":"Feature","properties":{"N03_001":"兵庫県","N03_002":null,"N03_003":null,"N03_004":"芦屋市","N03_007":"28206"},"geometry":{"type":"Polygon","coordinates":[[[-40.83761301728358,76.56925391705418],[-40.83763957866452,76.56923868198731],[-40.82336630385171,76.57106429702814],[-40.873045028034404,76.5877401022438],[-40.907438914151854,76.588612801618],[-40.90807350350874,76.58867455816006],[-40.83761301728358,76.56925391705418]]]}},{"type":"Feature","properties":{"N03_001":"兵庫県","N03_002":null,"N03_003":null,"N03_004":"伊丹市","N03_007":"28207"},"geometry":{"type":"Polygon","coordinates":[[[-40.77340473848794,76.58654400758836],[-40.8121477425548,76.58677489567398],[-40.838658188017035,76.58704768535493],[-40.83742046778816,76.5870960721498],[-40.7898103421287,76.57721671709665],[-40.7518556125372,76.57838787120487],[-40.753632018445295,76.58272989389883],[-40.77340473848794,76.58654400758836]]]}},{"type":"Feature","properties":{"N03_001":"兵庫県","N03_002":null,"N03_003":null,"N03_004":"相生市","N03_007":"28208"},"geometry":{"type":"Polygon","coordinates":[[[-41.33116481588517,76.57925623553633],[-41.3285860004189,76.58025190182981],[-41.31260884065235,76.58177540807397],[-41.30673916210639,76.58504982254802],[-41.32438896989661,76.59009797549436],[-41.312163046685036,76.5907387366824],[-41.31589998051255,76.59121697862369],[-41.33007927279467,76.59088190819051],[-41.34863980104526,76.59014061337275],[-41.3626537006107,76.58794987779139],[-41.368373925304425,76.58462312274962],[-41.35704797372458,76.5808402114842],[-41.33834434477635,76.57984503375407],[-41.34386720457174,76.57890584075571],[-41.33116481588517,76.57925623553633]]]}},{"type":"Feature","properties":{"N03_001":"兵庫県","N03_002":null,"N03_003":null,"N03_004":"豊岡市","N03_007":"28209"},"geometry":{"type":"Polygon","coordinates":[[[-41.20280989763447,76.60541973598134],[-41.16190971912063,76.60913242755402],[-41.157390593880415,76.60914685668881],[-41.14103623215089,76.60903690122886],[-41.127759087565835,76.61042029059038],[-41.10454772610531,76.61056799254435],[-41.10072894335265,76.61047027230293],[-41.07712115209784,76.6082853783181],[-41.0446613035711,76.60760231063026],[-41.047762060346514,76.60878064866179],[-41.05692860977027,76.60919589416473],[-41.0545412978131,76.60947457296672],[-41.08409582186825,76.6082343125154],[-41.093747879505344,76.60854424806111],[-41.10277963399528,76.6085400367038],[-41.10593883523947,76.60807745292905],[-41.11732333188275,76.60752598810038],[-41.12286262427564,76.60682330001598],[-41.119305401892916,76.60596415103005],[-41.118113208433854,76.60922692194688],[-41.12806807815373,76.60612811158138],[-41.145682597789474,76.61055285300773],[-41.1533077634958,76.60952600966642],[-41.17107162840543,76.61068229717618],[-41.17554481343981,76.60899117842888],[-41.167516627205835,76.60641892499454],[-41.173768910509246,76.60679757223744],[-41.18677459078847,76.60751332775624],[-41.21098883082605,76.60755153385244],[-41.1943050101466,76.6075081414578],[-41.20721092901409,76.60563738316829],[-41.20280989763447,76.60541973598134]]]}},{"type":"Feature","properties":{"N03_001":"兵庫県","N03_002":null,"N03_003":null,"N03_004":"南あわじ市","N03_007":"28224"},"geometry":{"type":"Polygon","coordinates":[[[-41.18165814333226,76.55449622495765],[-41.19448036233593,76.55339062721647],[-41.21664931282184,76.55366941532736],[-41.22248605609217,76.55222613359247],[-41.21632719687088,76.5512885245827],[-41.19576409684603,76.55109546040315],[-41.20156121475824,76.5504437141395],[-41.1861163767959,76.54994200676877],[-41.18496678046207,76.54884240996627],[-41.16402028243109,76.54964878980732],[-41.151183596703525,76.54941278444159],[-41.13728617715909,76.55031289878355],[-41.11466611261053,76.5506716437974],[-41.13578935990289,76.55226001934513],[-41.13547589137574,76.5530401077344],[-41.12862403947039,76.55370513116063],[-41.15090015978957,76.55409048201933],[-41.18165814333226,76.55449622495765]]]}},{"type":"Feature","properties":{"N03_001":"兵庫県","N03_002":null,"N03_003":null,"N03_004":"加古川市","N03_007":"28210"},"geometry":{"type":"Polygon","coordinates":[[[-41.175713468277316,76.58937826847912],[-41.13916324075016,76.58459711667624],[-41.14595769882603,76.58179102216971],[-41.161198917537895,76.5769860957031],[-41.15506861465837,76.57581821837147],[-41.14361309649265,76.5772537599325],[-41.13133782304698,76.57949576372421],[-41.11997059274242,76.58021524232807],[-41.113651222349155,76.58119433098389],[-41.118114252818856,76.58322219563672],[-41.08973596142739,76.58560932267558],[-41.093365605065166,76.5870730715672],[-41.10077093689216,76.58801328819199],[-41.118161766337955,76.58955140360445],[-41.13084521203045,76.59080697021014],[-41.15417639906971,76.59161843442304],[-41.16244526261289,76.59024387597665],[-41.17545370216022,76.5901588037513],[-41.175713468277316,76.58937826847912]]]}},{"type":"Feature","properties":{"N03_001":"兵庫県","N03_002":null,"N03_003":null,"N03_004":"赤穂市","N03_007":"28212"},"geometry":{"type":"Polygon","coordinates":[[[-41.3626537006107,76.58794987779139],[-41.380837556812146,76.58605461966502],[-41.40319479253604,76.58584232982115],[-41.413849467572945,76.58384713408707],[-41.4282501959671,76.58283751304107],[-41.41864768022436,76.58200607719513],[-41.4122157631579,76.57990985813021],[-41.419156297705364,76.57789093804162],[-41.416192380101585,76.57661066635018],[-41.40662988752834,76.57749139214741],[-41.393030600008956,76.577557351022],[-41.380997984703164,76.57683422133543],[-41.363620742928894,76.57730374281182],[-41.35280677452621,76.5794572320924],[-41.34386720457174,76.57890584075571],[-41.33834434477635,76.57984503375407],[-41.35704797372458,76.5808402114842],[-41.368373925304425,76.58462312274962],[-41.3626537006107,76.58794987779139]]]}},{"type":"Feature","properties":{"N03_001":"兵庫県","N03_002":null,"N03_003":null,"N03_004":"西脇市","N03_007":"28213"},"geometry":{"type":"Polygon","coordinates":[[[-40.99329356503164,76.60158745810848],[-41.012084935918146,76.60231285491628],[-41.03175537952748,76.60385006031957],[-41.032911744651535,76.60397792920321],[-41.0530706558842,76.60406592093814],[-41.08746039254442,76.59962381645408],[-41.088014928716206,76.59876084745467],[-41.10809960919789,76.59805736018194],[-41.107062847390814,76.59723594715659],[-41.086863232923086,76.5970426543242],[-41.06130139046257,76.59676038984063],[-41.0163830338165,76.59825446076017],[-41.01082123336964,76.60019914537139],[-40.99329356503164,76.60158745810848]]]}},{"type":"Feature","properties":{"N03_001":"兵庫県","N03_002":null,"N03_003":null,"N03_004":"宝塚市","N03_007":"28214"},"geometry":{"type":"Polygon","coordinates":[[[-40.90471503904726,76.59293711731787],[-40.8951641930381,76.59266707153213],[-40.85391081819987,76.58599055406282],[-40.87345866620939,76.58636039347653],[-40.853039401491316,76.58757368485846],[-40.84044212481892,76.587328382293],[-40.838658188017035,76.58704768535493],[-40.8121477425548,76.58677489567398],[-40.79585268933724,76.58655795812774],[-40.828589401325026,76.58497116918421],[-40.84046938351955,76.58856438568827],[-40.86674974594868,76.59639850174489],[-40.874588108801596,76.59717677415563],[-40.87700989245458,76.59784551260819],[-40.8928250314803,76.59881265162777],[-40.888488978344824,76.59768117575588],[-40.908200770440175,76.59694373483079],[-40.908323232516736,76.59501242889242],[-40.90471503904726,76.59293711731787]]]}},{"type":"Feature","properties":{"N03_001":"兵庫県","N03_002":null,"N03_003":null,"N03_004":"三木市","N03_007":"28215"},"geometry":{"type":"Polygon","coordinates":[[[-40.96186778961781,76.59359974417715],[-40.96826960329324,76.59726241587822],[-40.98398014791999,76.5961514968466],[-41.000938831102374,76.59302551925364],[-41.0123435791524,76.59296944899374],[-41.0159239876676,76.59184103809915],[-41.029550839761555,76.59129401505822],[-41.04269055889132,76.58961359281946],[-41.08521130527879,76.58689811142243],[-41.093365605065166,76.5870730715672],[-41.08973596142739,76.58560932267558],[-41.0763679827034,76.58508055418469],[-41.059099213658484,76.58640449945665],[-41.04011371763531,76.58697079842675],[-41.01879922212848,76.58829857625865],[-40.99724175779702,76.58988802877067],[-41.004901858586315,76.58988179317518],[-40.99917981423313,76.5902696056421],[-40.985822406110145,76.59074719591298],[-40.97570243708724,76.59074858375901],[-40.96697000442053,76.59100818237218],[-40.96788702306413,76.59286006132507],[-40.96186778961781,76.59359974417715]]]}},{"type":"Feature","properties":{"N03_001":"兵庫県","N03_002":null,"N03_003":null,"N03_004":"高砂市","N03_007":"28216"},"geometry":{"type":"Polygon","coordinates":[[[-41.161198917537895,76.5769860957031],[-41.14595769882603,76.58179102216971],[-41.13916324075016,76.58459711667624],[-41.175713468277316,76.58937826847912],[-41.19085415350948,76.58827050090504],[-41.200768040920465,76.57974044231273],[-41.19079131626251,76.57741639214986],[-41.161198917537895,76.5769860957031]]]}},{"type":"Feature","properties":{"N03_001":"兵庫県","N03_002":null,"N03_003":null,"N03_004":"川西市","N03_007":"28217"},"geometry":{"type":"Polygon","coordinates":[[[-40.84046938351955,76.58856438568827],[-40.828589401325026,76.58497116918421],[-40.79585268933724,76.58655795812774],[-40.8121477425548,76.58677489567398],[-40.77340473848794,76.58654400758836],[-40.78800214478282,76.58662471631672],[-40.77321956345128,76.5890822209223],[-40.77176019149208,76.59121859983925],[-40.798739134221954,76.59465211935273],[-40.767980885736286,76.59239128253611],[-40.78768032142654,76.59416002801832],[-40.80408827434486,76.59516134436468],[-40.84046938351955,76.58856438568827]]]}},{"type":"Feature","properties":{"N03_001":"兵庫県","N03_002":null,"N03_003":null,"N03_004":"小野市","N03_007":"28218"},"geometry":{"type":"Polygon","coordinates":[[[-41.093365605065166,76.5870730715672],[-41.08521130527879,76.58689811142243],[-41.04269055889132,76.58961359281946],[-41.029550839761555,76.59129401505822],[-41.030584491255325,76.59290182788008],[-41.04564962632062,76.59458695412835],[-41.08160639899484,76.59386681820959],[-41.08425822767163,76.59501879255572],[-41.10240892039702,76.59475721365318],[-41.10869144382188,76.59260268641353],[-41.118161766337955,76.58955140360445],[-41.10077093689216,76.58801328819199],[-41.093365605065166,76.5870730715672]]]}},{"type":"Feature","properties":{"N03_001":"兵庫県","N03_002":null,"N03_003":null,"N03_004":"三田市","N03_007":"28219"},"geometry":{"type":"Polygon","coordinates":[[[-40.908323232516736,76.59501242889242],[-40.908200770440175,76.59694373483079],[-40.888488978344824,76.59768117575588],[-40.8928250314803,76.59881265162777],[-40.89338187544383,76.59956580292976],[-40.907964171714134,76.60025348975421],[-40.92079500277401,76.60022375734333],[-40.92458216126938,76.59978386637826],[-40.944278840195274,76.60015633098831],[-40.96949440241687,76.59927135528513],[-40.994871120452935,76.59808118167982],[-40.98398014791999,76.5961514968466],[-40.96826960329324,76.59726241587822],[-40.96186778961781,76.59359974417715],[-40.93435264771481,76.59298878759432],[-40.908323232516736,76.59501242889242]]]}},{"type":"Feature","properties":{"N03_001":"兵庫県","N03_002":null,"N03_003":null,"N03_004":"加西市","N03_007":"28220"},"geometry":{"type":"Polygon","coordinates":[[[-41.15417639906971,76.59161843442304],[-41.13084521203045,76.59080697021014],[-41.118161766337955,76.58955140360445],[-41.10869144382188,76.59260268641353],[-41.10240892039702,76.59475721365318],[-41.08502803035967,76.59603096109967],[-41.086863232923086,76.5970426543242],[-41.107062847390814,76.59723594715659],[-41.10809960919789,76.59805736018194],[-41.12480333323533,76.59810012120322],[-41.13280164164785,76.59969034297376],[-41.15654338074879,76.59715360515952],[-41.16372716696701,76.59434246621814],[-41.16878004227784,76.59261840890329],[-41.15417639906971,76.59161843442304]]]}},{"type":"Feature","properties":{"N03_001":"兵庫県","N03_002":null,"N03_003":null,"N03_004":"丹波篠山市","N03_007":"28221"},"geometry":{"type":"Polygon","coordinates":[[[-40.93820797885142,76.59808975142859],[-40.9360815426228,76.59828421045873],[-40.94384322154234,76.5988626127294],[-40.97636478792742,76.60055924651213],[-40.99932934758277,76.60239334158571],[-40.977932490016904,76.60091256173227],[-40.99329356503164,76.60158745810848],[-41.01082123336964,76.60019914537139],[-40.992069244196365,76.59952742262092],[-40.994871120452935,76.59808118167982],[-40.96949440241687,76.59927135528513],[-40.944278840195274,76.60015633098831],[-40.92458216126938,76.59978386637826],[-40.92079500277401,76.60022375734333],[-40.907964171714134,76.60025348975421],[-40.89230923838275,76.59990492003156],[-40.880395055575356,76.599349239507],[-40.88534353856712,76.59947743611022],[-40.856495347666154,76.59863607903137],[-40.85404184573538,76.59869421429424],[-40.836481819662374,76.59849466842729],[-40.8435067818341,76.59882700286589],[-40.85056439974487,76.59921722216531],[-40.880696071309664,76.59872305261844],[-40.89105737935269,76.59840002095581],[-40.9080721191082,76.59816670900659],[-40.90939087527878,76.5980443234078],[-40.93565767755128,76.5980429077775],[-40.93820797885142,76.59808975142859]]]}},{"type":"Feature","properties":{"N03_001":"兵庫県","N03_002":null,"N03_003":null,"N03_004":"養父市","N03_007":"28222"},"geometry":{"type":"Polygon","coordinates":[[[-41.20280989763447,76.60541973598134],[-41.2071121343449,76.60513571001938],[-41.2162018355112,76.60477786462906],[-41.22493990058279,76.60437716514772],[-41.23529394105711,76.60416729694316],[-41.26284219530964,76.6041376810382],[-41.27903374931811,76.6030607698927],[-41.277550220492344,76.60174592466583],[-41.245392615646885,76.60161807397475],[-41.24627668876159,76.59949749435533],[-41.220910465572246,76.60358328008749],[-41.21846462010935,76.60301452841084],[-41.19463416814029,76.60507384352056],[-41.18866516549914,76.60507650378153],[-41.17244241496259,76.6057137318577],[-41.15970551799289,76.6058472383996],[-41.15425307099703,76.60559948741863],[-41.14598103980691,76.60738802760937],[-41.13145579742651,76.60974349901917],[-41.127759087565835,76.61042029059038],[-41.14103623215089,76.60903690122886],[-41.157390593880415,76.60914685668881],[-41.16190971912063,76.60913242755402],[-41.20280989763447,76.60541973598134]]]}},{"type":"Feature","properties":{"N03_001":"兵庫県","N03_002":null,"N03_003":null,"N03_004":"丹波市","N03_007":"28223"},"geometry":{"type":"Polygon","coordinates":[[[-41.10081443938655,76.60473658859122],[-41.11319948829529,76.60503108050318],[-41.097929717145696,76.60450682730932],[-41.07418859455605,76.60287630737126],[-41.065965983296216,76.60286046561706],[-41.0671644691064,76.60347204365864],[-41.075372632637624,76.60392306602174],[-41.067538635930156,76.60400188913586],[-41.06889109077238,76.60342324447193],[-41.0530706558842,76.60406592093814],[-41.032911744651535,76.60397792920321],[-41.03175537952748,76.60385006031957],[-41.012084935918146,76.60231285491628],[-40.99329356503164,76.60158745810848],[-40.977932490016904,76.60091256173227],[-40.99932934758277,76.60239334158571],[-40.97636478792742,76.60055924651213],[-40.94384322154234,76.5988626127294],[-40.9360815426228,76.59828421045873],[-40.93820797885142,76.59808975142859],[-40.94648367643177,76.59832118731019],[-40.965561856489295,76.59990798704352],[-40.971440541010516,76.60031324450485],[-40.984752102897446,76.60044208246299],[-40.9859362956293,76.60066786333856],[-41.008640542864676,76.6004161911556],[-41.02378925898328,76.6012634222393],[-41.03236386100942,76.60088320703399],[-41.048718292351495,76.60115940711538],[-41.052832357217724,76.60175506026394],[-41.10081443938655,76.60473658859122]]]}},{"type":"Feature","properties":{"N03_001":"兵庫県","N03_002":null,"N03_003":null,"N03_004":"朝来市","N03_007":"28225"},"geometry":{"type":"Polygon","coordinates":[[[-41.10454772610531,76.61056799254435],[-41.127759087565835,76.61042029059038],[-41.13145579742651,76.60974349901917],[-41.14598103980691,76.60738802760937],[-41.15425307099703,76.60559948741863],[-41.15970551799289,76.6058472383996],[-41.17244241496259,76.6057137318577],[-41.18866516549914,76.60507650378153],[-41.19463416814029,76.60507384352056],[-41.203238223900634,76.60353980988005],[-41.195293986872485,76.60386594505059],[-41.1971705391917,76.60304505711457],[-41.172962395871174,76.60370014027329],[-41.16154943578897,76.6049007027182],[-41.1433111475552,76.60482004735077],[-41.1346850990644,76.6060393399032],[-41.11804042821052,76.60567551810085],[-41.107025174668756,76.60513542037296],[-41.097929717145696,76.60450682730932],[-41.11319948829529,76.60503108050318],[-41.10081443938655,76.60473658859122],[-41.110262082548225,76.60582866608388],[-41.10804702611206,76.6106354148688],[-41.10454772610531,76.61056799254435]]]}},{"type":"Feature","properties":{"N03_001":"兵庫県","N03_002":null,"N03_003":null,"N03_004":"淡路市","N03_007":"28226"},"geometry":{"type":"Polygon","coordinates":[[[-41.10465618677512,76.5561244096708],[-41.10091946213779,76.55735733695046],[-41.07272714470787,76.55998182887079],[-41.055203976392974,76.56077061323747],[-41.054495336612575,76.56155102989459],[-41.03784749877819,76.56228246842547],[-41.05755126665746,76.56421173061105],[-41.06682706149869,76.56442224451675],[-41.088475084290494,76.56232627712532],[-41.11142735716556,76.56217103838713],[-41.12922990904753,76.56041357157636],[-41.14452155336251,76.56019676007446],[-41.15996394010439,76.55819459171936],[-41.13051244251629,76.55744954459728],[-41.10465618677512,76.5561244096708]]]}},{"type":"Feature","properties":{"N03_001":"兵庫県","N03_002":null,"N03_003":null,"N03_004":"宍粟市","N03_007":"28227"},"geometry":{"type":"Polygon","coordinates":[[[-41.195293986872485,76.60386594505059],[-41.203238223900634,76.60353980988005],[-41.19463416814029,76.60507384352056],[-41.21846462010935,76.60301452841084],[-41.220910465572246,76.60358328008749],[-41.24627668876159,76.59949749435533],[-41.245392615646885,76.60161807397475],[-41.277550220492344,76.60174592466583],[-41.27704337268859,76.5973926085593],[-41.290515050411116,76.59774120867614],[-41.304212043973166,76.59803880073271],[-41.32078444916414,76.59845730249789],[-41.33379583300927,76.5990130811784],[-41.32956708738459,76.59897152376855],[-41.312737024434064,76.59897606491137],[-41.31432972368901,76.59991824786414],[-41.31378897334793,76.60049636254244],[-41.30345645120492,76.6011807791801],[-41.309979678793766,76.60138815516635],[-41.31608778505997,76.59928849188096],[-41.30278101227828,76.60046841462554],[-41.30511795771833,76.59837695627189],[-41.29497901900432,76.59588061369236],[-41.274517841805284,76.59485568646454],[-41.27320421517902,76.59774537542044],[-41.26008243824207,76.60299890614017],[-41.26072568526408,76.60304526991472],[-41.25071985729102,76.6021950590419],[-41.23408247557158,76.60249914193406],[-41.23825428227691,76.6020910836643],[-41.232818997453045,76.600964051879],[-41.195293986872485,76.60386594505059]]]}},{"type":"Feature","properties":{"N03_001":"兵庫県","N03_002":null,"N03_003":null,"N03_004":"加東市","N03_007":"28228"},"geometry":{"type":"Polygon","coordinates":[[[-41.086863232923086,76.5970426543242],[-41.08502803035967,76.59603096109967],[-41.10240892039702,76.59475721365318],[-41.08425822767163,76.59501879255572],[-41.08160639899484,76.59386681820959],[-41.04564962632062,76.59458695412835],[-41.030584491255325,76.59290182788008],[-41.029550839761555,76.59129401505822],[-41.0159239876676,76.59184103809915],[-41.0123435791524,76.59296944899374],[-41.000938831102374,76.59302551925364],[-40.98398014791999,76.5961514968466],[-40.994871120452935,76.59808118167982],[-40.992069244196365,76.59952742262092],[-41.01082123336964,76.60019914537139],[-41.0163830338165,76.59825446076017],[-41.06130139046257,76.59676038984063],[-41.086863232923086,76.5970426543242]]]}},{"type":"Feature","properties":{"N03_001":"兵庫県","N03_002":null,"N03_003":null,"N03_004":"たつの市","N03_007":"28229"},"geometry":{"type":"Polygon","coordinates":[[[-41.274517841805284,76.59485568646454],[-41.29497901900432,76.59588061369236],[-41.30511795771833,76.59837695627189],[-41.321713816665095,76.59417778031094],[-41.33742874359847,76.59311793481844],[-41.339488846468775,76.59220146207483],[-41.33146401940947,76.59186749969936],[-41.33007927279467,76.59088190819051],[-41.31589998051255,76.59121697862369],[-41.312163046685036,76.5907387366824],[-41.32438896989661,76.59009797549436],[-41.30673916210639,76.58504982254802],[-41.31260884065235,76.58177540807397],[-41.3285860004189,76.58025190182981],[-41.33116481588517,76.57925623553633],[-41.31898370973748,76.5806013668497],[-41.30350967903249,76.58179778292809],[-41.28293480338492,76.58072305454822],[-41.279825617219764,76.58266863991288],[-41.284983856240416,76.58569471515118],[-41.28410173694525,76.5887734618186],[-41.27450196614993,76.589813679969],[-41.26938507812538,76.59074043593496],[-41.27662654051015,76.59110564304748],[-41.27925317197518,76.5923006290396],[-41.274517841805284,76.59485568646454]]]}}]}