{"type":"FeatureCollection","features":[{"type":"Feature","properties":{"N03_001":"佐賀県","N03_002":null,"N03_003":null,"N03_004":"佐賀市","N03_007":"41201"},"geometry":{"type":"Polygon","coordinates":[[[-43.767568498856065,76.50858436145475],[-43.76510746995646,76.5078196440253],[-43.76904007303525,76.50810802902305],[-43.780037269476765,76.50892332108904],[-43.76564216453944,76.50880556274565],[-43.73051549205042,76.50572629328502],[-43.72463978632676,76.50608246906332],[-43.71851896742135,76.50783561824794],[-43.717383595258376,76.50793941645207],[-43.72279728154811,76.50801816922835],[-43.717349787982045,76.49939909487891],[-43.716704679633025,76.49942651690151],[-43.70698798501474,76.50018447256242],[-43.691052269074554,76.4981149182125],[-43.689107332847335,76.49726957577174],[-43.65082324428283,76.49651879978215],[-43.654414868392074,76.49783019964245],[-43.66655620391329,76.49942405006841],[-43.642770398203666,76.4990534634989],[-43.647774841030405,76.4991328258299],[-43.69397788345487,76.50618557155138],[-43.69838958438289,76.5060692771969],[-43.69758533574968,76.50617362618232],[-43.70094799258032,76.50505465110871],[-43.706707115484626,76.50527361602857],[-43.71331558333174,76.50353093933641],[-43.70044523638973,76.50264958875209],[-43.686819060299506,76.50973431997056],[-43.71492151794854,76.50932430795977],[-43.72433929980762,76.50806771980358],[-43.746692930937776,76.50887635110577],[-43.767568498856065,76.50858436145475]]]}},{"type":"Feature","properties":{"N03_001":"佐賀県","N03_002":null,"N03_003":null,"N03_004":"唐津市","N03_007":"41202"},"geometry":{"type":"Polygon","coordinates":[[[-43.890238197259976,76.50959296714909],[-43.875633976960444,76.50942648385801],[-43.870736650722826,76.50979937903968],[-43.87234701119272,76.51012539523474],[-43.86369529158588,76.51101088728778],[-43.84312712800233,76.51192186382525],[-43.8374828023375,76.51016901812329],[-43.83655238696852,76.50994318581076],[-43.833576483039444,76.50962183765546],[-43.80733496644118,76.51142826877012],[-43.784419153281796,76.50972496608637],[-43.76564216453944,76.50880556274565],[-43.780037269476765,76.50892332108904],[-43.76904007303525,76.50810802902305],[-43.76510746995646,76.5078196440253],[-43.767568498856065,76.50858436145475],[-43.77549150686292,76.50885728195152],[-43.83092274121087,76.50843503518125],[-43.830777712652385,76.50883275795972],[-43.844690296000735,76.50926106554057],[-43.85525305149587,76.50897073284463],[-43.8621646256452,76.50842924113446],[-43.86297089438114,76.50795057430697],[-43.858283392425314,76.50769886015433],[-43.863363865602665,76.50781409704916],[-43.89061324874015,76.5113058309034],[-43.911063042730376,76.51158674905687],[-43.907067342988306,76.51046714913267],[-43.87890307471895,76.50817076437906],[-43.878261006536015,76.50841957691502],[-43.883717271480414,76.50905375980095],[-43.898452363354295,76.50908234680486],[-43.921899594571904,76.51023469951497],[-43.93595477545704,76.51086889749439],[-43.94846246646422,76.5101476372241],[-43.890238197259976,76.50959296714909]]]}},{"type":"Feature","properties":{"N03_001":"佐賀県","N03_002":null,"N03_003":null,"N03_004":"鳥栖市","N03_007":"41203"},"geometry":{"type":"Polygon","coordinates":[[[-43.5413457409658,76.5056201980649],[-43.53775713693062,76.5101484094515],[-43.55422485824722,76.51209933343277],[-43.56796656525613,76.51227028299758],[-43.5996198304606,76.51311524609298],[-43.600281346784136,76.51311343692454],[-43.61903548810892,76.51227823732187],[-43.57768229955399,76.50464665290077],[-43.5413457409658,76.5056201980649]]]}},{"type":"Feature","properties":{"N03_001":"佐賀県","N03_002":null,"N03_003":null,"N03_004":"多久市","N03_007":"41204"},"geometry":{"type":"Polygon","coordinates":[[[-43.83655238696852,76.50994318581076],[-43.84015901802639,76.50790412023312],[-43.82792081722596,76.50657517067947],[-43.80631934352507,76.50635524502692],[-43.79703821302709,76.50603254616257],[-43.7898339691474,76.50722169158449],[-43.78294429482914,76.50454144214625],[-43.77392186699109,76.50307001125331],[-43.739092745243184,76.50765484152323],[-43.76596844356508,76.50959762571985],[-43.76564216453944,76.50880556274565],[-43.784419153281796,76.50972496608637],[-43.80733496644118,76.51142826877012],[-43.833576483039444,76.50962183765546],[-43.83655238696852,76.50994318581076]]]}},{"type":"Feature","properties":{"N03_001":"佐賀県","N03_002":null,"N03_003":null,"N03_004":"伊万里市","N03_007":"41205"},"geometry":{"type":"Polygon","coordinates":[[[-43.890238197259976,76.50959296714909],[-43.91991233135725,76.50777425527234],[-43.92284182843222,76.50714817998353],[-43.94226372501477,76.50731118516192],[-43.95204591319555,76.50706984403908],[-43.966102547129665,76.50567132635875],[-43.9561165230567,76.5052464328085],[-43.93848041105725,76.50455523947332],[-43.91268963882201,76.50589566752367],[-43.896519068883094,76.50542769228176],[-43.88121958689553,76.50596698099604],[-43.87121466956867,76.50752301836732],[-43.85769279113271,76.50905169887976],[-43.8374828023375,76.51016901812329],[-43.84312712800233,76.51192186382525],[-43.86369529158588,76.51101088728778],[-43.87234701119272,76.51012539523474],[-43.870736650722826,76.50979937903968],[-43.875633976960444,76.50942648385801],[-43.890238197259976,76.50959296714909]]]}},{"type":"Feature","properties":{"N03_001":"佐賀県","N03_002":null,"N03_003":null,"N03_004":"武雄市","N03_007":"41206"},"geometry":{"type":"Polygon","coordinates":[[[-43.8374828023375,76.51016901812329],[-43.85769279113271,76.50905169887976],[-43.87121466956867,76.50752301836732],[-43.88121958689553,76.50596698099604],[-43.896519068883094,76.50542769228176],[-43.891494659932555,76.50331324182709],[-43.880356570887955,76.50245612650068],[-43.877750794103065,76.49840401906182],[-43.86545277963665,76.4985935574572],[-43.85170083688321,76.50199218423367],[-43.818564575425256,76.50226814116692],[-43.81039635831935,76.50397365035751],[-43.80631934352507,76.50635524502692],[-43.82792081722596,76.50657517067947],[-43.84015901802639,76.50790412023312],[-43.83655238696852,76.50994318581076],[-43.8374828023375,76.51016901812329]]]}},{"type":"Feature","properties":{"N03_001":"佐賀県","N03_002":null,"N03_003":null,"N03_004":"鹿島市","N03_007":"41207"},"geometry":{"type":"Polygon","coordinates":[[[-43.8107481393875,76.49927480581277],[-43.8116469233871,76.49739393255024],[-43.832082142907,76.49603299584908],[-43.82616818686066,76.49447325203522],[-43.83043502328804,76.49206775912765],[-43.825451388707656,76.49069886318308],[-43.80669487006069,76.48968334263341],[-43.7946275826372,76.49062674523731],[-43.75222827791017,76.49297187099212],[-43.76329171191704,76.49408248688431],[-43.7812434606263,76.49725127844232],[-43.794182183942574,76.4984238476612],[-43.8107481393875,76.49927480581277]]]}},{"type":"Feature","properties":{"N03_001":"佐賀県","N03_002":null,"N03_003":null,"N03_004":"小城市","N03_007":"41208"},"geometry":{"type":"Polygon","coordinates":[[[-43.76564216453944,76.50880556274565],[-43.76596844356508,76.50959762571985],[-43.739092745243184,76.50765484152323],[-43.77392186699109,76.50307001125331],[-43.78294429482914,76.50454144214625],[-43.738342682717146,76.49782302513077],[-43.74997876063009,76.4978848978326],[-43.717349787982045,76.49939909487891],[-43.72279728154811,76.50801816922835],[-43.717383595258376,76.50793941645207],[-43.71851896742135,76.50783561824794],[-43.72463978632676,76.50608246906332],[-43.73051549205042,76.50572629328502],[-43.76564216453944,76.50880556274565]]]}},{"type":"Feature","properties":{"N03_001":"佐賀県","N03_002":null,"N03_003":null,"N03_004":"嬉野市","N03_007":"41209"},"geometry":{"type":"Polygon","coordinates":[[[-43.877750794103065,76.49840401906182],[-43.89026032598718,76.49792510832495],[-43.892053726904166,76.49688583496156],[-43.88404643871172,76.49580244546598],[-43.86121953167322,76.49431656270602],[-43.85036232739641,76.49223478192765],[-43.82649009824227,76.49070882927198],[-43.825451388707656,76.49069886318308],[-43.83043502328804,76.49206775912765],[-43.82616818686066,76.49447325203522],[-43.832082142907,76.49603299584908],[-43.8116469233871,76.49739393255024],[-43.8107481393875,76.49927480581277],[-43.818564575425256,76.50226814116692],[-43.85170083688321,76.50199218423367],[-43.86545277963665,76.4985935574572],[-43.877750794103065,76.49840401906182]]]}},{"type":"Feature","properties":{"N03_001":"佐賀県","N03_002":null,"N03_003":null,"N03_004":"神埼市","N03_007":"41210"},"geometry":{"type":"Polygon","coordinates":[[[-43.686819060299506,76.50973431997056],[-43.70044523638973,76.50264958875209],[-43.71331558333174,76.50353093933641],[-43.706707115484626,76.50527361602857],[-43.70094799258032,76.50505465110871],[-43.69758533574968,76.50617362618232],[-43.69838958438289,76.5060692771969],[-43.69397788345487,76.50618557155138],[-43.647774841030405,76.4991328258299],[-43.63717809802169,76.49931595495113],[-43.615474893469916,76.50030826884584],[-43.612738363000055,76.5009439927653],[-43.62137487914738,76.50071976371056],[-43.62884067299735,76.49975734327208],[-43.6893466803849,76.50546831271576],[-43.68985599650074,76.50624115545136],[-43.66266557378956,76.51162156584343],[-43.663205042281724,76.51161731252742],[-43.686819060299506,76.50973431997056]]]}}]}