{"type":"FeatureCollection","features":[{"type":"Feature","properties":{"N03_001":"山口県","N03_002":null,"N03_003":null,"N03_004":"山口市","N03_007":"35203"},"geometry":{"type":"Polygon","coordinates":[[[-43.015093643748905,76.55338425002935],[-43.02061970202325,76.55391177720843],[-43.03018530706092,76.55379889895246],[-43.03953156167098,76.55341146643423],[-43.0407941745651,76.55292668370721],[-43.05295646377463,76.55162848859314],[-43.07404990416461,76.5461515168887],[-43.08474728394698,76.54486504844732],[-43.10069388286528,76.53865820944719],[-43.07169566193456,76.54008149141222],[-43.06445673144455,76.53995184689602],[-43.04888958994502,76.54352096570591],[-43.035195381528425,76.54242416928916],[-43.03083443600548,76.5399799775708],[-43.01239542032442,76.54190879268032],[-43.01753232836596,76.54518384752404],[-43.02208347824326,76.55033483002373],[-43.00450474090208,76.55475140845436],[-42.99579781430323,76.55634833607215],[-42.985788040505184,76.55676055650734],[-42.96650255166937,76.55717175533314],[-42.96212861404931,76.55703155529955],[-42.945782058744314,76.5557752557913],[-42.92356243548147,76.55585260529348],[-42.91160211049011,76.5556393831288],[-42.894604567560826,76.55487164338076],[-42.88966997404588,76.55401074623998],[-42.89175039583523,76.55353830083652],[-42.8725344491868,76.55318353470194],[-42.89422186530298,76.5520028937571],[-42.88050395836061,76.55159000508309],[-42.884344310258655,76.5514015209307],[-42.861800858793536,76.55279645762728],[-42.863921898112956,76.55349877966852],[-42.84915589299975,76.55460257824825],[-42.84165182453977,76.55630649801377],[-42.88807129440893,76.55477995224524],[-42.90691046137077,76.55894541757553],[-42.92728778998508,76.55449839248858],[-42.94571898008389,76.55022221035922],[-42.957970192126716,76.55059652151469],[-42.97022931821262,76.55034774363848],[-42.95892374772641,76.55064334631487],[-42.96486653111729,76.55163061166476],[-42.9825044195452,76.55281291888323],[-43.002747714149876,76.55337186225465],[-43.015093643748905,76.55338425002935]]]}},{"type":"Feature","properties":{"N03_001":"山口県","N03_002":null,"N03_003":null,"N03_004":"光市","N03_007":"35210"},"geometry":{"type":"Polygon","coordinates":[[[-42.797522784239845,76.53653597206825],[-42.781827815901146,76.53508107301941],[-42.76586573376982,76.53290492859702],[-42.74982053121197,76.53194782234306],[-42.69694488933807,76.53209642822956],[-42.722149673305616,76.53159427572304],[-42.68187980156364,76.54107222420645],[-42.6619236334247,76.54268219610859],[-42.6623811791309,76.54382008033693],[-42.669831451082025,76.54667382822038],[-42.688610340654776,76.55057835593011],[-42.71069125358737,76.55273549896526],[-42.75623153741993,76.54358482178803],[-42.797522784239845,76.53653597206825]]]}},{"type":"Feature","properties":{"N03_001":"山口県","N03_002":null,"N03_003":null,"N03_004":"宇部市","N03_007":"35202"},"geometry":{"type":"Polygon","coordinates":[[[-43.03953156167098,76.55341146643423],[-43.05562734537299,76.55248846224363],[-43.09036233732762,76.55177416937939],[-43.10492446821746,76.5511409614043],[-43.126181097678845,76.55090242414713],[-43.14703809848482,76.55015106866536],[-43.141042737295855,76.54810734777263],[-43.16964164101158,76.54444933001551],[-43.13434510402182,76.54118994243858],[-43.14279481522725,76.53791418324093],[-43.16988934929603,76.53463894968874],[-43.1718118495495,76.53402680279893],[-43.1649179197939,76.5336241520482],[-43.145108475252044,76.53342492330817],[-43.12500616885306,76.53365634214896],[-43.09316954497085,76.53596131015507],[-43.0748014908528,76.537284899023],[-43.06445673144455,76.53995184689602],[-43.07169566193456,76.54008149141222],[-43.10069388286528,76.53865820944719],[-43.08474728394698,76.54486504844732],[-43.07404990416461,76.5461515168887],[-43.05295646377463,76.55162848859314],[-43.0407941745651,76.55292668370721],[-43.03953156167098,76.55341146643423]]]}},{"type":"Feature","properties":{"N03_001":"山口県","N03_002":null,"N03_003":null,"N03_004":"防府市","N03_007":"35206"},"geometry":{"type":"Polygon","coordinates":[[[-43.01753232836596,76.54518384752404],[-43.00044192970968,76.54200192696979],[-42.992155430292875,76.54018630821373],[-42.97788995815087,76.53940021296444],[-42.94530607007141,76.54099451750479],[-42.92656309700892,76.54168427149756],[-42.9152885263203,76.54597752242098],[-42.89505175506093,76.54891477665629],[-42.90914891868508,76.55498339415642],[-42.92320177066715,76.5565103322174],[-42.92660993676622,76.5567669316111],[-42.92356243548147,76.55585260529348],[-42.945782058744314,76.5557752557913],[-42.96212861404931,76.55703155529955],[-42.96650255166937,76.55717175533314],[-42.985788040505184,76.55676055650734],[-42.99579781430323,76.55634833607215],[-43.00450474090208,76.55475140845436],[-43.02208347824326,76.55033483002373],[-43.01753232836596,76.54518384752404]]]}},{"type":"Feature","properties":{"N03_001":"山口県","N03_002":null,"N03_003":null,"N03_004":"下松市","N03_007":"35207"},"geometry":{"type":"Polygon","coordinates":[[[-42.75623153741993,76.54358482178803],[-42.741688086167635,76.5512492637323],[-42.73889124315924,76.55520240325625],[-42.79245696212494,76.55518577259089],[-42.81471992394864,76.55491716822145],[-42.814681978649126,76.55432424110927],[-42.83674259814986,76.5492228714472],[-42.83551932622803,76.54179364935356],[-42.82336597671752,76.539667525134],[-42.797522784239845,76.53653597206825],[-42.75623153741993,76.54358482178803]]]}},{"type":"Feature","properties":{"N03_001":"山口県","N03_002":null,"N03_003":null,"N03_004":"岩国市","N03_007":"35208"},"geometry":{"type":"Polygon","coordinates":[[[-42.78955416975186,76.55223181434341],[-42.78905660478403,76.55180153662504],[-42.78017918460078,76.55214445124692],[-42.749854984053506,76.55193013561195],[-42.738328356553794,76.5525773866989],[-42.73260601492079,76.55439474392153],[-42.72578639084429,76.55453697061854],[-42.69608693883491,76.55318694664847],[-42.6896904605708,76.55225939378529],[-42.688610340654776,76.55057835593011],[-42.669831451082025,76.54667382822038],[-42.666459658316036,76.5474222379756],[-42.65760726645234,76.54972959857182],[-42.64941807695838,76.5488639772107],[-42.62369704917116,76.54411538831937],[-42.61155777842579,76.54363491481746],[-42.602970911217696,76.54041794258602],[-42.59740192037452,76.54184303089222],[-42.59772053830806,76.54439650903389],[-42.623570791081974,76.55040888463475],[-42.59595090265029,76.5488681179363],[-42.596671738758126,76.54954188044388],[-42.612025247414955,76.55057852147695],[-42.63158904299347,76.55099374201568],[-42.63361310441026,76.55095020547056],[-42.630419408064206,76.55085703693851],[-42.64830145422628,76.55111566802913],[-42.659234936947506,76.5511221729659],[-42.66369898182364,76.55086324029058],[-42.66210940180658,76.55078360723388],[-42.686761719414136,76.5510862835044],[-42.68404142170545,76.55329537937682],[-42.68814857815736,76.55518081799532],[-42.681538744769576,76.55691262905339],[-42.68781930684001,76.55828790694086],[-42.69501306227125,76.55826639109509],[-42.71642399497933,76.55735176680899],[-42.715861530718385,76.55652182660846],[-42.729489642910515,76.55528832672405],[-42.71523279781148,76.55313982493698],[-42.72746009571494,76.55175998050449],[-42.73661673757533,76.5511261445424],[-42.75964226892096,76.55241868975156],[-42.78955416975186,76.55223181434341]]]}},{"type":"Feature","properties":{"N03_001":"山口県","N03_002":null,"N03_003":null,"N03_004":"美祢市","N03_007":"35213"},"geometry":{"type":"Polygon","coordinates":[[[-43.22162887525972,76.54814134311765],[-43.210936077783394,76.5485435581528],[-43.17752064344878,76.54983138745239],[-43.16702916891143,76.55016279256093],[-43.14703809848482,76.55015106866536],[-43.126181097678845,76.55090242414713],[-43.10492446821746,76.5511409614043],[-43.09036233732762,76.55177416937939],[-43.05562734537299,76.55248846224363],[-43.03953156167098,76.55341146643423],[-43.03018530706092,76.55379889895246],[-43.02061970202325,76.55391177720843],[-43.015093643748905,76.55338425002935],[-43.01639655508512,76.55257554183709],[-43.03452532927961,76.551564479511],[-43.0591614350285,76.55292436764935],[-43.100449659484745,76.55456824737492],[-43.124043317343876,76.55405343351812],[-43.134926912363056,76.55359329330854],[-43.1628602138559,76.55359016441801],[-43.16903334377036,76.55315488827203],[-43.18698515661774,76.55210501816565],[-43.212237113566715,76.55129417145812],[-43.21806467439301,76.55075472490745],[-43.208442309249584,76.55018421803518],[-43.227181966969034,76.54944793093357],[-43.23382522129941,76.54848811522119],[-43.21855455992898,76.54858412101629],[-43.22162887525972,76.54814134311765]]]}},{"type":"Feature","properties":{"N03_001":"山口県","N03_002":null,"N03_003":null,"N03_004":"周南市","N03_007":"35215"},"geometry":{"type":"Polygon","coordinates":[[[-42.861800858793536,76.55279645762728],[-42.884344310258655,76.5514015209307],[-42.88050395836061,76.55159000508309],[-42.89422186530298,76.5520028937571],[-42.8725344491868,76.55318353470194],[-42.89175039583523,76.55353830083652],[-42.88966997404588,76.55401074623998],[-42.894604567560826,76.55487164338076],[-42.91160211049011,76.5556393831288],[-42.92356243548147,76.55585260529348],[-42.92660993676622,76.5567669316111],[-42.92320177066715,76.5565103322174],[-42.90914891868508,76.55498339415642],[-42.89505175506093,76.54891477665629],[-42.884792289218744,76.5520608374573],[-42.863630840926405,76.55142363163142],[-42.846680843623076,76.54900221297558],[-42.84690094816213,76.54431314624173],[-42.85842028047191,76.53997089831925],[-42.836703708224135,76.53825787511815],[-42.839908276820424,76.5404883625974],[-42.83551932622803,76.54179364935356],[-42.83674259814986,76.5492228714472],[-42.814681978649126,76.55432424110927],[-42.81471992394864,76.55491716822145],[-42.79245696212494,76.55518577259089],[-42.73889124315924,76.55520240325625],[-42.741688086167635,76.5512492637323],[-42.75623153741993,76.54358482178803],[-42.71069125358737,76.55273549896526],[-42.688610340654776,76.55057835593011],[-42.6896904605708,76.55225939378529],[-42.69608693883491,76.55318694664847],[-42.72578639084429,76.55453697061854],[-42.73260601492079,76.55439474392153],[-42.738328356553794,76.5525773866989],[-42.749854984053506,76.55193013561195],[-42.78017918460078,76.55214445124692],[-42.78905660478403,76.55180153662504],[-42.78955416975186,76.55223181434341],[-42.82328644847401,76.55208058319651],[-42.84705273878654,76.55226803090568],[-42.861245971057585,76.5523710169803],[-42.861800858793536,76.55279645762728]]]}},{"type":"Feature","properties":{"N03_001":"山口県","N03_002":null,"N03_003":null,"N03_004":"山陽小野田市","N03_007":"35216"},"geometry":{"type":"Polygon","coordinates":[[[-43.1649179197939,76.5336241520482],[-43.1718118495495,76.53402680279893],[-43.16988934929603,76.53463894968874],[-43.14279481522725,76.53791418324093],[-43.13434510402182,76.54118994243858],[-43.16964164101158,76.54444933001551],[-43.141042737295855,76.54810734777263],[-43.14703809848482,76.55015106866536],[-43.16702916891143,76.55016279256093],[-43.17752064344878,76.54983138745239],[-43.210936077783394,76.5485435581528],[-43.22162887525972,76.54814134311765],[-43.241686637131046,76.54552608211834],[-43.256426570961224,76.54109936759392],[-43.240211726224025,76.53986873350246],[-43.22373406843723,76.53591203214599],[-43.19002265356598,76.53418372427686],[-43.1921235895177,76.53371852700414],[-43.183091509892286,76.53340510673725],[-43.1649179197939,76.5336241520482]]]}}]}