{"type":"FeatureCollection","features":[{"type":"Feature","properties":{"N03_001":"東京都","N03_002":null,"N03_003":null,"N03_004":"千代田区","N03_007":"13101"},"geometry":{"type":"Polygon","coordinates":[[[-38.34338714597413,76.62258779562806],[-38.36853128279459,76.62198736895341],[-38.375236900468806,76.62050711329934],[-38.360567942586414,76.61892515900533],[-38.33392280018772,76.6219307738163],[-38.34152177603923,76.6225099602601],[-38.34338714597413,76.62258779562806]]]}},{"type":"Feature","properties":{"N03_001":"東京都","N03_002":null,"N03_003":null,"N03_004":"中央区","N03_007":"13102"},"geometry":{"type":"Polygon","coordinates":[[[-38.360567942586414,76.61892515900533],[-38.351744705522975,76.61782370750053],[-38.33060941604732,76.61809056009868],[-38.327802776851975,76.6214150366641],[-38.329497347688246,76.62168156523393],[-38.33392280018772,76.6219307738163],[-38.360567942586414,76.61892515900533]]]}},{"type":"Feature","properties":{"N03_001":"東京都","N03_002":null,"N03_003":null,"N03_004":"新宿区","N03_007":"13104"},"geometry":{"type":"Polygon","coordinates":[[[-38.36853128279459,76.62198736895341],[-38.38145251646205,76.62277870726317],[-38.407888580150576,76.62563737204957],[-38.40154197733793,76.62115641374373],[-38.3816443187386,76.62025435224554],[-38.375236900468806,76.62050711329934],[-38.36853128279459,76.62198736895341]]]}},{"type":"Feature","properties":{"N03_001":"東京都","N03_002":null,"N03_003":null,"N03_004":"文京区","N03_007":"13105"},"geometry":{"type":"Polygon","coordinates":[[[-38.34338714597413,76.62258779562806],[-38.352934853865904,76.62590295674423],[-38.35424823503379,76.6260888567015],[-38.3590098334274,76.62634733612848],[-38.38145251646205,76.62277870726317],[-38.36853128279459,76.62198736895341],[-38.34338714597413,76.62258779562806]]]}},{"type":"Feature","properties":{"N03_001":"東京都","N03_002":null,"N03_003":null,"N03_004":"台東区","N03_007":"13106"},"geometry":{"type":"Polygon","coordinates":[[[-38.33392280018772,76.6219307738163],[-38.329497347688246,76.62168156523393],[-38.31636264291906,76.62546780372023],[-38.352934853865904,76.62590295674423],[-38.34338714597413,76.62258779562806],[-38.34152177603923,76.6225099602601],[-38.33392280018772,76.6219307738163]]]}},{"type":"Feature","properties":{"N03_001":"東京都","N03_002":null,"N03_003":null,"N03_004":"墨田区","N03_007":"13107"},"geometry":{"type":"Polygon","coordinates":[[[-38.327802776851975,76.6214150366641],[-38.298860158618545,76.62176106455],[-38.29669529943694,76.6235386922193],[-38.31193616311231,76.626501900078],[-38.31406917268997,76.62630729812827],[-38.31636264291906,76.62546780372023],[-38.329497347688246,76.62168156523393],[-38.327802776851975,76.6214150366641]]]}},{"type":"Feature","properties":{"N03_001":"東京都","N03_002":null,"N03_003":null,"N03_004":"目黒区","N03_007":"13110"},"geometry":{"type":"Polygon","coordinates":[[[-38.37750200223449,76.61818158089939],[-38.41351614618804,76.61868041902669],[-38.41025672514641,76.61854742702371],[-38.40562090397469,76.61572999734523],[-38.394844231865754,76.61542088763503],[-38.37750200223449,76.61818158089939]]]}},{"type":"Feature","properties":{"N03_001":"東京都","N03_002":null,"N03_003":null,"N03_004":"世田谷区","N03_007":"13112"},"geometry":{"type":"Polygon","coordinates":[[[-38.41351614618804,76.61868041902669],[-38.41764303345862,76.61933795817377],[-38.42492882546785,76.618720156544],[-38.44550013732095,76.62082276602035],[-38.44937498766681,76.62031505565324],[-38.44221358237851,76.61995485603951],[-38.44261477706408,76.61544708127153],[-38.4361073338274,76.61691564109172],[-38.423022237900355,76.61720759066102],[-38.41791958814257,76.61594195923074],[-38.40562090397469,76.61572999734523],[-38.41025672514641,76.61854742702371],[-38.41351614618804,76.61868041902669]]]}},{"type":"Feature","properties":{"N03_001":"東京都","N03_002":null,"N03_003":null,"N03_004":"渋谷区","N03_007":"13113"},"geometry":{"type":"Polygon","coordinates":[[[-38.3816443187386,76.62025435224554],[-38.40154197733793,76.62115641374373],[-38.41643204272837,76.61983903965383],[-38.41764303345862,76.61933795817377],[-38.41351614618804,76.61868041902669],[-38.37750200223449,76.61818158089939],[-38.37671581921916,76.6181520738928],[-38.3816443187386,76.62025435224554]]]}},{"type":"Feature","properties":{"N03_001":"東京都","N03_002":null,"N03_003":null,"N03_004":"中野区","N03_007":"13114"},"geometry":{"type":"Polygon","coordinates":[[[-38.407888580150576,76.62563737204957],[-38.40768548734429,76.625669849463],[-38.43405207528685,76.62531104316398],[-38.42053157497076,76.62286123537609],[-38.41643204272837,76.61983903965383],[-38.40154197733793,76.62115641374373],[-38.407888580150576,76.62563737204957]]]}},{"type":"Feature","properties":{"N03_001":"東京都","N03_002":null,"N03_003":null,"N03_004":"杉並区","N03_007":"13115"},"geometry":{"type":"Polygon","coordinates":[[[-38.41764303345862,76.61933795817377],[-38.41643204272837,76.61983903965383],[-38.42053157497076,76.62286123537609],[-38.43405207528685,76.62531104316398],[-38.448415601596196,76.62339641750076],[-38.44821422663534,76.62151357260895],[-38.44550013732095,76.62082276602035],[-38.42492882546785,76.618720156544],[-38.41764303345862,76.61933795817377]]]}},{"type":"Feature","properties":{"N03_001":"東京都","N03_002":null,"N03_003":null,"N03_004":"豊島区","N03_007":"13116"},"geometry":{"type":"Polygon","coordinates":[[[-38.38145251646205,76.62277870726317],[-38.3590098334274,76.62634733612848],[-38.38150340234775,76.6263977572768],[-38.40649343556206,76.62593476199046],[-38.40768548734429,76.625669849463],[-38.407888580150576,76.62563737204957],[-38.38145251646205,76.62277870726317]]]}},{"type":"Feature","properties":{"N03_001":"東京都","N03_002":null,"N03_003":null,"N03_004":"北区","N03_007":"13117"},"geometry":{"type":"Polygon","coordinates":[[[-38.3921706524299,76.62809512460137],[-38.38150340234775,76.6263977572768],[-38.3590098334274,76.62634733612848],[-38.35424823503379,76.6260888567015],[-38.35191028749663,76.62810142870688],[-38.36393462061636,76.62827239169458],[-38.3917206465299,76.62809125267441],[-38.3921706524299,76.62809512460137]]]}},{"type":"Feature","properties":{"N03_001":"東京都","N03_002":null,"N03_003":null,"N03_004":"荒川区","N03_007":"13118"},"geometry":{"type":"Polygon","coordinates":[[[-38.352934853865904,76.62590295674423],[-38.31636264291906,76.62546780372023],[-38.31406917268997,76.62630729812827],[-38.336298870114994,76.62903458952603],[-38.35191028749663,76.62810142870688],[-38.35424823503379,76.6260888567015],[-38.352934853865904,76.62590295674423]]]}},{"type":"Feature","properties":{"N03_001":"東京都","N03_002":null,"N03_003":null,"N03_004":"板橋区","N03_007":"13119"},"geometry":{"type":"Polygon","coordinates":[[[-38.432176117299136,76.62588583282303],[-38.41119093835106,76.62649031604768],[-38.40649343556206,76.62593476199046],[-38.38150340234775,76.6263977572768],[-38.3921706524299,76.62809512460137],[-38.42018510653512,76.62741245700427],[-38.432176117299136,76.62588583282303]]]}},{"type":"Feature","properties":{"N03_001":"東京都","N03_002":null,"N03_003":null,"N03_004":"練馬区","N03_007":"13120"},"geometry":{"type":"Polygon","coordinates":[[[-38.45929013451872,76.62611613245124],[-38.45715564598946,76.6244827116846],[-38.448415601596196,76.62339641750076],[-38.43405207528685,76.62531104316398],[-38.40768548734429,76.625669849463],[-38.40649343556206,76.62593476199046],[-38.41119093835106,76.62649031604768],[-38.432176117299136,76.62588583282303],[-38.44312447738131,76.62590040006641],[-38.44445893542091,76.62596308413703],[-38.45929013451872,76.62611613245124]]]}},{"type":"Feature","properties":{"N03_001":"東京都","N03_002":null,"N03_003":null,"N03_004":"足立区","N03_007":"13121"},"geometry":{"type":"Polygon","coordinates":[[[-38.36393462061636,76.62827239169458],[-38.35191028749663,76.62810142870688],[-38.336298870114994,76.62903458952603],[-38.31406917268997,76.62630729812827],[-38.31193616311231,76.626501900078],[-38.303830957337574,76.62679042425901],[-38.306978101062676,76.62753163068628],[-38.32109432272205,76.62769066787673],[-38.332912176658596,76.62785705668605],[-38.34621552536822,76.62843897345837],[-38.36393462061636,76.62827239169458]]]}},{"type":"Feature","properties":{"N03_001":"東京都","N03_002":null,"N03_003":null,"N03_004":"葛飾区","N03_007":"13122"},"geometry":{"type":"Polygon","coordinates":[[[-38.306978101062676,76.62753163068628],[-38.303830957337574,76.62679042425901],[-38.31193616311231,76.626501900078],[-38.29669529943694,76.6235386922193],[-38.28857643379149,76.62241204907808],[-38.279677838082385,76.62515762462795],[-38.285868632864926,76.625993173926],[-38.278600417177316,76.62659345646662],[-38.299027359634074,76.62737168763435],[-38.306978101062676,76.62753163068628]]]}},{"type":"Feature","properties":{"N03_001":"東京都","N03_002":null,"N03_003":null,"N03_004":"江戸川区","N03_007":"13123"},"geometry":{"type":"Polygon","coordinates":[[[-38.279677838082385,76.62515762462795],[-38.28857643379149,76.62241204907808],[-38.29669529943694,76.6235386922193],[-38.298860158618545,76.62176106455],[-38.294757099433575,76.62166776591647],[-38.299230168435734,76.61998904525095],[-38.29868379497116,76.61909616337343],[-38.28618701240957,76.61923744928247],[-38.2801235046297,76.6213189863637],[-38.270733178052296,76.62167902725335],[-38.26622398813395,76.62238672726791],[-38.27402212644187,76.62315532317926],[-38.27942024348545,76.62512889082532],[-38.279677838082385,76.62515762462795]]]}},{"type":"Feature","properties":{"N03_001":"東京都","N03_002":null,"N03_003":null,"N03_004":"八王子市","N03_007":"13201"},"geometry":{"type":"Polygon","coordinates":[[[-38.61654622878699,76.61564869998162],[-38.630665758864,76.61618419340061],[-38.65662987041407,76.62128035198246],[-38.658374706317176,76.62052857807303],[-38.6712267947622,76.62142574207209],[-38.67528670824085,76.6205460712611],[-38.659146520241656,76.6195941960626],[-38.641281208969055,76.61886149257387],[-38.6402123099286,76.61975413465579],[-38.63300839122682,76.62077008356532],[-38.629437863086146,76.62039350617138],[-38.62772661129216,76.61995494466383],[-38.6152434240736,76.61992861700577],[-38.58399507139305,76.61719873824217],[-38.576027765325804,76.61653710498302],[-38.55910507957917,76.61631558435077],[-38.5711860829179,76.6167926334696],[-38.60664021553606,76.6184914302091],[-38.60542553960975,76.61640229916864],[-38.615423690672216,76.61644557467214],[-38.61627013073086,76.61568669396559],[-38.61654622878699,76.61564869998162]]]}},{"type":"Feature","properties":{"N03_001":"東京都","N03_002":null,"N03_003":null,"N03_004":"立川市","N03_007":"13202"},"geometry":{"type":"Polygon","coordinates":[[[-38.567460999560986,76.62154963504737],[-38.59633689748142,76.62234804620617],[-38.60918520760851,76.62040473690762],[-38.58356437871463,76.62125534125705],[-38.57716160715524,76.62069653195907],[-38.601943125104356,76.6163271955391],[-38.571620874183616,76.61984055636053],[-38.563176363321965,76.62127767206836],[-38.546985908746876,76.6226612480565],[-38.5597627943107,76.62197026472174],[-38.567460999560986,76.62154963504737]]]}},{"type":"Feature","properties":{"N03_001":"東京都","N03_002":null,"N03_003":null,"N03_004":"武蔵野市","N03_007":"13203"},"geometry":{"type":"Polygon","coordinates":[[[-38.448415601596196,76.62339641750076],[-38.45715564598946,76.6244827116846],[-38.49256190506531,76.62266654812302],[-38.48718813315545,76.6202909207148],[-38.478494620166,76.62185776607757],[-38.44821422663534,76.62151357260895],[-38.448415601596196,76.62339641750076]]]}},{"type":"Feature","properties":{"N03_001":"東京都","N03_002":null,"N03_003":null,"N03_004":"三鷹市","N03_007":"13204"},"geometry":{"type":"Polygon","coordinates":[[[-38.44550013732095,76.62082276602035],[-38.44821422663534,76.62151357260895],[-38.478494620166,76.62185776607757],[-38.48718813315545,76.6202909207148],[-38.492418150117935,76.6188328328143],[-38.47295017886657,76.61914117894402],[-38.44937498766681,76.62031505565324],[-38.44550013732095,76.62082276602035]]]}},{"type":"Feature","properties":{"N03_001":"東京都","N03_002":null,"N03_003":null,"N03_004":"青梅市","N03_007":"13205"},"geometry":{"type":"Polygon","coordinates":[[[-38.69276856906697,76.6245110549165],[-38.677326898574435,76.62483948991591],[-38.66371557498045,76.62513659550065],[-38.649731654298044,76.6239205407193],[-38.63888650149148,76.62223987323759],[-38.63841300262131,76.62569314876178],[-38.62128866736128,76.62609875755747],[-38.6143456283402,76.62617100994655],[-38.62152996594601,76.62628523884],[-38.637508898108834,76.62528688032171],[-38.66637636964552,76.62521929047853],[-38.684078667537726,76.62723748078191],[-38.67147815505423,76.62532991575978],[-38.67082618848887,76.62519044009318],[-38.68752161693579,76.62518288327341],[-38.69276856906697,76.6245110549165]]]}},{"type":"Feature","properties":{"N03_001":"東京都","N03_002":null,"N03_003":null,"N03_004":"府中市","N03_007":"13206"},"geometry":{"type":"Polygon","coordinates":[[[-38.53292099404963,76.61896890411377],[-38.539815434517116,76.61808005453983],[-38.560141005635316,76.61762719245452],[-38.54929978214202,76.61764209566059],[-38.5289092975244,76.61829748646171],[-38.49761718757653,76.61834642236697],[-38.49549856483354,76.61880525059392],[-38.518986048395305,76.61936512956814],[-38.53036880775495,76.6194130182787],[-38.53292099404963,76.61896890411377]]]}},{"type":"Feature","properties":{"N03_001":"東京都","N03_002":null,"N03_003":null,"N03_004":"昭島市","N03_007":"13207"},"geometry":{"type":"Polygon","coordinates":[[[-38.60542553960975,76.61640229916864],[-38.601943125104356,76.6163271955391],[-38.57716160715524,76.62069653195907],[-38.58356437871463,76.62125534125705],[-38.60918520760851,76.62040473690762],[-38.61627013073086,76.61568669396559],[-38.615423690672216,76.61644557467214],[-38.60542553960975,76.61640229916864]]]}},{"type":"Feature","properties":{"N03_001":"東京都","N03_002":null,"N03_003":null,"N03_004":"調布市","N03_007":"13208"},"geometry":{"type":"Polygon","coordinates":[[[-38.44937498766681,76.62031505565324],[-38.47295017886657,76.61914117894402],[-38.492418150117935,76.6188328328143],[-38.49549856483354,76.61880525059392],[-38.49761718757653,76.61834642236697],[-38.495018097744,76.61822527062294],[-38.47923027291506,76.61849860258457],[-38.44221358237851,76.61995485603951],[-38.44937498766681,76.62031505565324]]]}},{"type":"Feature","properties":{"N03_001":"東京都","N03_002":null,"N03_003":null,"N03_004":"町田市","N03_007":"13209"},"geometry":{"type":"Polygon","coordinates":[[[-38.629437863086146,76.62039350617138],[-38.604089442959854,76.6200434377397],[-38.56182798550077,76.6158871583081],[-38.558036987832615,76.61591559036262],[-38.53683720062997,76.61490296407435],[-38.536494839767556,76.61436962783756],[-38.52748816362643,76.61307480695979],[-38.51786267976022,76.61286693390663],[-38.5202761009905,76.61427923723899],[-38.53698372089357,76.615457370398],[-38.53009682067016,76.61532219202998],[-38.51044363551703,76.61498677357376],[-38.54047431091484,76.61495638530776],[-38.54687940580487,76.6148836154007],[-38.576027765325804,76.61653710498302],[-38.58399507139305,76.61719873824217],[-38.6152434240736,76.61992861700577],[-38.62772661129216,76.61995494466383],[-38.629437863086146,76.62039350617138]]]}},{"type":"Feature","properties":{"N03_001":"東京都","N03_002":null,"N03_003":null,"N03_004":"小金井市","N03_007":"13210"},"geometry":{"type":"Polygon","coordinates":[[[-38.49256190506531,76.62266654812302],[-38.49497514913533,76.6227990453087],[-38.52038543590665,76.62152443151966],[-38.518986048395305,76.61936512956814],[-38.49549856483354,76.61880525059392],[-38.492418150117935,76.6188328328143],[-38.48718813315545,76.6202909207148],[-38.49256190506531,76.62266654812302]]]}},{"type":"Feature","properties":{"N03_001":"東京都","N03_002":null,"N03_003":null,"N03_004":"小平市","N03_007":"13211"},"geometry":{"type":"Polygon","coordinates":[[[-38.546985908746876,76.6226612480565],[-38.52038543590665,76.62152443151966],[-38.49497514913533,76.6227990453087],[-38.49734447865232,76.62313764601936],[-38.519972700967486,76.62388362124116],[-38.54057445690018,76.62333515666694],[-38.5597627943107,76.62197026472174],[-38.546985908746876,76.6226612480565]]]}},{"type":"Feature","properties":{"N03_001":"東京都","N03_002":null,"N03_003":null,"N03_004":"日野市","N03_007":"13212"},"geometry":{"type":"Polygon","coordinates":[[[-38.5711860829179,76.6167926334696],[-38.54929978214202,76.61764209566059],[-38.560141005635316,76.61762719245452],[-38.571620874183616,76.61984055636053],[-38.601943125104356,76.6163271955391],[-38.60542553960975,76.61640229916864],[-38.60664021553606,76.6184914302091],[-38.5711860829179,76.6167926334696]]]}},{"type":"Feature","properties":{"N03_001":"東京都","N03_002":null,"N03_003":null,"N03_004":"東村山市","N03_007":"13213"},"geometry":{"type":"Polygon","coordinates":[[[-38.54622289868024,76.62632042604784],[-38.54057445690018,76.62333515666694],[-38.519972700967486,76.62388362124116],[-38.509151568821366,76.6260832393415],[-38.513758189609625,76.6272568582882],[-38.54622289868024,76.62632042604784]]]}},{"type":"Feature","properties":{"N03_001":"東京都","N03_002":null,"N03_003":null,"N03_004":"国分寺市","N03_007":"13214"},"geometry":{"type":"Polygon","coordinates":[[[-38.563176363321965,76.62127767206836],[-38.53292099404963,76.61896890411377],[-38.53036880775495,76.6194130182787],[-38.518986048395305,76.61936512956814],[-38.52038543590665,76.62152443151966],[-38.546985908746876,76.6226612480565],[-38.563176363321965,76.62127767206836]]]}},{"type":"Feature","properties":{"N03_001":"東京都","N03_002":null,"N03_003":null,"N03_004":"国立市","N03_007":"13215"},"geometry":{"type":"Polygon","coordinates":[[[-38.571620874183616,76.61984055636053],[-38.560141005635316,76.61762719245452],[-38.539815434517116,76.61808005453983],[-38.53292099404963,76.61896890411377],[-38.563176363321965,76.62127767206836],[-38.571620874183616,76.61984055636053]]]}},{"type":"Feature","properties":{"N03_001":"東京都","N03_002":null,"N03_003":null,"N03_004":"福生市","N03_007":"13218"},"geometry":{"type":"Polygon","coordinates":[[[-38.61627013073086,76.61568669396559],[-38.60918520760851,76.62040473690762],[-38.59633689748142,76.62234804620617],[-38.600279344757695,76.62315656050447],[-38.606546149431104,76.62361389940354],[-38.63111017748912,76.62116118128935],[-38.61654622878699,76.61564869998162],[-38.61627013073086,76.61568669396559]]]}},{"type":"Feature","properties":{"N03_001":"東京都","N03_002":null,"N03_003":null,"N03_004":"狛江市","N03_007":"13219"},"geometry":{"type":"Polygon","coordinates":[[[-38.44221358237851,76.61995485603951],[-38.47923027291506,76.61849860258457],[-38.44261477706408,76.61544708127153],[-38.44221358237851,76.61995485603951]]]}},{"type":"Feature","properties":{"N03_001":"東京都","N03_002":null,"N03_003":null,"N03_004":"東大和市","N03_007":"13220"},"geometry":{"type":"Polygon","coordinates":[[[-38.576902911249256,76.62586008221267],[-38.56686832058123,76.6255373519837],[-38.567460999560986,76.62154963504737],[-38.5597627943107,76.62197026472174],[-38.54057445690018,76.62333515666694],[-38.54622289868024,76.62632042604784],[-38.576902911249256,76.62586008221267]]]}},{"type":"Feature","properties":{"N03_001":"東京都","N03_002":null,"N03_003":null,"N03_004":"清瀬市","N03_007":"13221"},"geometry":{"type":"Polygon","coordinates":[[[-38.513758189609625,76.6272568582882],[-38.509151568821366,76.6260832393415],[-38.49908291525861,76.62596728253821],[-38.47186431008409,76.6272116556049],[-38.47748620529492,76.62914390144789],[-38.513758189609625,76.6272568582882]]]}},{"type":"Feature","properties":{"N03_001":"東京都","N03_002":null,"N03_003":null,"N03_004":"東久留米市","N03_007":"13222"},"geometry":{"type":"Polygon","coordinates":[[[-38.49908291525861,76.62596728253821],[-38.509151568821366,76.6260832393415],[-38.519972700967486,76.62388362124116],[-38.49734447865232,76.62313764601936],[-38.47156206990617,76.62621352244746],[-38.49908291525861,76.62596728253821]]]}},{"type":"Feature","properties":{"N03_001":"東京都","N03_002":null,"N03_003":null,"N03_004":"武蔵村山市","N03_007":"13223"},"geometry":{"type":"Polygon","coordinates":[[[-38.600279344757695,76.62315656050447],[-38.59633689748142,76.62234804620617],[-38.567460999560986,76.62154963504737],[-38.56686832058123,76.6255373519837],[-38.576902911249256,76.62586008221267],[-38.58505889229106,76.62596209306822],[-38.600279344757695,76.62315656050447]]]}},{"type":"Feature","properties":{"N03_001":"東京都","N03_002":null,"N03_003":null,"N03_004":"多摩市","N03_007":"13224"},"geometry":{"type":"Polygon","coordinates":[[[-38.576027765325804,76.61653710498302],[-38.54687940580487,76.6148836154007],[-38.53813511012972,76.61546346204604],[-38.5289092975244,76.61829748646171],[-38.54929978214202,76.61764209566059],[-38.5711860829179,76.6167926334696],[-38.55910507957917,76.61631558435077],[-38.576027765325804,76.61653710498302]]]}},{"type":"Feature","properties":{"N03_001":"東京都","N03_002":null,"N03_003":null,"N03_004":"稲城市","N03_007":"13225"},"geometry":{"type":"Polygon","coordinates":[[[-38.5289092975244,76.61829748646171],[-38.53813511012972,76.61546346204604],[-38.51807752313935,76.6154687959769],[-38.50196862200538,76.61667152554604],[-38.495018097744,76.61822527062294],[-38.49761718757653,76.61834642236697],[-38.5289092975244,76.61829748646171]]]}},{"type":"Feature","properties":{"N03_001":"東京都","N03_002":null,"N03_003":null,"N03_004":"羽村市","N03_007":"13227"},"geometry":{"type":"Polygon","coordinates":[[[-38.63888650149148,76.62223987323759],[-38.63111017748912,76.62116118128935],[-38.606546149431104,76.62361389940354],[-38.62128866736128,76.62609875755747],[-38.63841300262131,76.62569314876178],[-38.63888650149148,76.62223987323759]]]}},{"type":"Feature","properties":{"N03_001":"東京都","N03_002":null,"N03_003":null,"N03_004":"あきる野市","N03_007":"13228"},"geometry":{"type":"Polygon","coordinates":[[[-38.61654622878699,76.61564869998162],[-38.63111017748912,76.62116118128935],[-38.63888650149148,76.62223987323759],[-38.649731654298044,76.6239205407193],[-38.6398542100936,76.62037256774869],[-38.65682772280506,76.62262839449926],[-38.677326898574435,76.62483948991591],[-38.69276856906697,76.6245110549165],[-38.693646525821414,76.6244358491066],[-38.674871242620256,76.62267322046786],[-38.6712267947622,76.62142574207209],[-38.658374706317176,76.62052857807303],[-38.65662987041407,76.62128035198246],[-38.630665758864,76.61618419340061],[-38.61654622878699,76.61564869998162]]]}},{"type":"Feature","properties":{"N03_001":"東京都","N03_002":null,"N03_003":null,"N03_004":"西東京市","N03_007":"13229"},"geometry":{"type":"Polygon","coordinates":[[[-38.47156206990617,76.62621352244746],[-38.49734447865232,76.62313764601936],[-38.49497514913533,76.6227990453087],[-38.49256190506531,76.62266654812302],[-38.45715564598946,76.6244827116846],[-38.45929013451872,76.62611613245124],[-38.47156206990617,76.62621352244746]]]}},{"type":"Feature","properties":{"N03_001":"東京都","N03_002":null,"N03_003":"大島支庁","N03_004":"大島町","N03_007":"13361"},"geometry":{"type":"Polygon","coordinates":[[[-38.57482498760405,76.57596333228915],[-38.5784746884016,76.57519849095821],[-38.57101716346672,76.57477302004183],[-38.55817028194121,76.57427041368926],[-38.53813494790427,76.57305703975722],[-38.53526857648008,76.57398579334424],[-38.54203962486078,76.57428179308602],[-38.54518502674017,76.57401578033189],[-38.55210561823246,76.57425783830956],[-38.57482498760405,76.57596333228915]]]}},{"type":"Feature","properties":{"N03_001":"東京都","N03_002":null,"N03_003":"三宅支庁","N03_004":"御蔵島村","N03_007":"13382"},"geometry":{"type":"Polygon","coordinates":[[[-38.441273827162505,76.53389750779539],[-38.45841898972421,76.5326970421409],[-38.457315790796244,76.53085801862306],[-38.43012492794389,76.53038555413028],[-38.422753127447734,76.53156497252711],[-38.441273827162505,76.53389750779539]]]}},{"type":"Feature","properties":{"N03_001":"東京都","N03_002":null,"N03_003":"大島支庁","N03_004":"新島村","N03_007":"13363"},"geometry":{"type":"Polygon","coordinates":[[[-38.623262880716844,76.55974351537415],[-38.63698623100197,76.55831228919419],[-38.645072478775596,76.55613231154767],[-38.63849577159269,76.55492303740652],[-38.62743508341327,76.55451447615268],[-38.623622485394066,76.55773204757797],[-38.616212125802946,76.55861008137695],[-38.623262880716844,76.55974351537415]]]}},{"type":"Feature","properties":{"N03_001":"東京都","N03_002":null,"N03_003":"大島支庁","N03_004":"神津島村","N03_007":"13364"},"geometry":{"type":"Polygon","coordinates":[[[-38.70042141932499,76.55085519697877],[-38.712586692245935,76.54930901989418],[-38.708376859930276,76.5467265289376],[-38.68977012220208,76.54748626698118],[-38.682388772041676,76.54996342122435],[-38.70042141932499,76.55085519697877]]]}}]}