{"type":"FeatureCollection","features":[{"type":"Feature","properties":{"N03_001":"愛知県","N03_002":null,"N03_003":"名古屋市","N03_004":"千種区","N03_007":"23101"},"geometry":{"type":"Polygon","coordinates":[[[-39.849833766067505,76.59102049994193],[-39.85896015429608,76.59715043942808],[-39.87386068013973,76.59875470145842],[-39.914476770238146,76.59467695461264],[-39.92236150147013,76.5929741639003],[-39.8740578804059,76.59428659300222],[-39.860110756737086,76.5912792155569],[-39.849833766067505,76.59102049994193]]]}},{"type":"Feature","properties":{"N03_001":"愛知県","N03_002":null,"N03_003":"名古屋市","N03_004":"東区","N03_007":"23102"},"geometry":{"type":"Polygon","coordinates":[[[-39.87386068013973,76.59875470145842],[-39.88768668125229,76.60189144093242],[-39.944578008201375,76.59841328637874],[-39.914476770238146,76.59467695461264],[-39.87386068013973,76.59875470145842]]]}},{"type":"Feature","properties":{"N03_001":"愛知県","N03_002":null,"N03_003":"名古屋市","N03_004":"北区","N03_007":"23103"},"geometry":{"type":"Polygon","coordinates":[[[-39.88768668125229,76.60189144093242],[-39.893005760638744,76.6031411316241],[-39.90620449448799,76.60446931203558],[-39.92789382421519,76.60390356606752],[-39.9341327794113,76.60308667177927],[-39.95129915402352,76.59851092931882],[-39.944578008201375,76.59841328637874],[-39.88768668125229,76.60189144093242]]]}},{"type":"Feature","properties":{"N03_001":"愛知県","N03_002":null,"N03_003":"名古屋市","N03_004":"西区","N03_007":"23104"},"geometry":{"type":"Polygon","coordinates":[[[-39.9341327794113,76.60308667177927],[-39.99368372951919,76.60252139141673],[-39.97583726644966,76.59763984261362],[-39.95896780068518,76.59752084771577],[-39.95129915402352,76.59851092931882],[-39.9341327794113,76.60308667177927]]]}},{"type":"Feature","properties":{"N03_001":"愛知県","N03_002":null,"N03_003":"名古屋市","N03_004":"中村区","N03_007":"23105"},"geometry":{"type":"Polygon","coordinates":[[[-39.97583726644966,76.59763984261362],[-39.9981277722971,76.59612893194817],[-40.00564808731031,76.59488367481104],[-40.01107120347761,76.59324034953559],[-40.00502877130357,76.5905100333731],[-39.961468764347906,76.59253232352613],[-39.95896780068518,76.59752084771577],[-39.97583726644966,76.59763984261362]]]}},{"type":"Feature","properties":{"N03_001":"愛知県","N03_002":null,"N03_003":"名古屋市","N03_004":"中区","N03_007":"23106"},"geometry":{"type":"Polygon","coordinates":[[[-39.914476770238146,76.59467695461264],[-39.944578008201375,76.59841328637874],[-39.95129915402352,76.59851092931882],[-39.95896780068518,76.59752084771577],[-39.961468764347906,76.59253232352613],[-39.95964675888231,76.59219704938262],[-39.93272363444678,76.59123238170618],[-39.92236150147013,76.5929741639003],[-39.914476770238146,76.59467695461264]]]}},{"type":"Feature","properties":{"N03_001":"愛知県","N03_002":null,"N03_003":"名古屋市","N03_004":"昭和区","N03_007":"23107"},"geometry":{"type":"Polygon","coordinates":[[[-39.92236150147013,76.5929741639003],[-39.93272363444678,76.59123238170618],[-39.92870783178708,76.5908368146534],[-39.871533945543405,76.58922610301083],[-39.860110756737086,76.5912792155569],[-39.8740578804059,76.59428659300222],[-39.92236150147013,76.5929741639003]]]}},{"type":"Feature","properties":{"N03_001":"愛知県","N03_002":null,"N03_003":"名古屋市","N03_004":"瑞穂区","N03_007":"23108"},"geometry":{"type":"Polygon","coordinates":[[[-39.92870783178708,76.5908368146534],[-39.93543565784953,76.58576927385965],[-39.88565822143758,76.58585560583724],[-39.871533945543405,76.58922610301083],[-39.92870783178708,76.5908368146534]]]}},{"type":"Feature","properties":{"N03_001":"愛知県","N03_002":null,"N03_003":"名古屋市","N03_004":"熱田区","N03_007":"23109"},"geometry":{"type":"Polygon","coordinates":[[[-39.95964675888231,76.59219704938262],[-39.97428952197606,76.58650213545812],[-39.953164219196715,76.584241939745],[-39.93543565784953,76.58576927385965],[-39.92870783178708,76.5908368146534],[-39.93272363444678,76.59123238170618],[-39.95964675888231,76.59219704938262]]]}},{"type":"Feature","properties":{"N03_001":"愛知県","N03_002":null,"N03_003":"名古屋市","N03_004":"中川区","N03_007":"23110"},"geometry":{"type":"Polygon","coordinates":[[[-40.01107120347761,76.59324034953559],[-40.023501523247866,76.59293124651454],[-40.028421210234036,76.59114828763519],[-40.02879878090082,76.58950965713152],[-39.97428952197606,76.58650213545812],[-39.95964675888231,76.59219704938262],[-39.961468764347906,76.59253232352613],[-40.00502877130357,76.5905100333731],[-40.01107120347761,76.59324034953559]]]}},{"type":"Feature","properties":{"N03_001":"愛知県","N03_002":null,"N03_003":"名古屋市","N03_004":"港区","N03_007":"23111"},"geometry":{"type":"Polygon","coordinates":[[[-39.97428952197606,76.58650213545812],[-40.02879878090082,76.58950965713152],[-40.02375127857237,76.58770039408597],[-40.00727690254216,76.5850918802893],[-39.99165456145054,76.5847770784781],[-39.98287272128865,76.58308610717411],[-39.96218300792105,76.58315940735228],[-39.9484907550715,76.58282525330509],[-39.953164219196715,76.584241939745],[-39.97428952197606,76.58650213545812]]]}},{"type":"Feature","properties":{"N03_001":"愛知県","N03_002":null,"N03_003":"名古屋市","N03_004":"南区","N03_007":"23112"},"geometry":{"type":"Polygon","coordinates":[[[-39.93543565784953,76.58576927385965],[-39.953164219196715,76.584241939745],[-39.9484907550715,76.58282525330509],[-39.94454574295791,76.5825981835717],[-39.91143145486852,76.58204308771013],[-39.887668923100144,76.5855598459065],[-39.88565822143758,76.58585560583724],[-39.93543565784953,76.58576927385965]]]}},{"type":"Feature","properties":{"N03_001":"愛知県","N03_002":null,"N03_003":"名古屋市","N03_004":"守山区","N03_007":"23113"},"geometry":{"type":"Polygon","coordinates":[[[-39.85896015429608,76.59715043942808],[-39.82511175102405,76.59617730031422],[-39.81433784287506,76.59566267736237],[-39.849396433746065,76.59917302601163],[-39.83952588754542,76.60305757237218],[-39.80568236992268,76.59945821173592],[-39.82128187917816,76.60133676327109],[-39.83912063433919,76.60290023186603],[-39.874786020241324,76.60282168339357],[-39.893005760638744,76.6031411316241],[-39.88768668125229,76.60189144093242],[-39.87386068013973,76.59875470145842],[-39.85896015429608,76.59715043942808]]]}},{"type":"Feature","properties":{"N03_001":"愛知県","N03_002":null,"N03_003":"名古屋市","N03_004":"緑区","N03_007":"23114"},"geometry":{"type":"Polygon","coordinates":[[[-39.94454574295791,76.5825981835717],[-39.91392944810962,76.58206322125909],[-39.8815027990523,76.5834013207333],[-39.87087875175365,76.58324123327408],[-39.86155286289777,76.58504507226085],[-39.815320031470094,76.58758119710367],[-39.814580595988,76.58815869522408],[-39.81531678571447,76.58813028276101],[-39.887668923100144,76.5855598459065],[-39.91143145486852,76.58204308771013],[-39.94454574295791,76.5825981835717]]]}},{"type":"Feature","properties":{"N03_001":"愛知県","N03_002":null,"N03_003":"名古屋市","N03_004":"名東区","N03_007":"23115"},"geometry":{"type":"Polygon","coordinates":[[[-39.849833766067505,76.59102049994193],[-39.82185738376633,76.58945428059413],[-39.81066515588365,76.59023246334007],[-39.82511175102405,76.59617730031422],[-39.85896015429608,76.59715043942808],[-39.849833766067505,76.59102049994193]]]}},{"type":"Feature","properties":{"N03_001":"愛知県","N03_002":null,"N03_003":"名古屋市","N03_004":"天白区","N03_007":"23116"},"geometry":{"type":"Polygon","coordinates":[[[-39.860110756737086,76.5912792155569],[-39.871533945543405,76.58922610301083],[-39.88565822143758,76.58585560583724],[-39.887668923100144,76.5855598459065],[-39.81531678571447,76.58813028276101],[-39.82185738376633,76.58945428059413],[-39.849833766067505,76.59102049994193],[-39.860110756737086,76.5912792155569]]]}},{"type":"Feature","properties":{"N03_001":"愛知県","N03_002":null,"N03_003":null,"N03_004":"豊橋市","N03_007":"23201"},"geometry":{"type":"Polygon","coordinates":[[[-39.6332792781849,76.58449000092207],[-39.635161254477275,76.58914492492931],[-39.642402990833034,76.58816867713526],[-39.661630149048825,76.58345659206294],[-39.660795202980225,76.58002970257527],[-39.686656087300584,76.57911756807385],[-39.698893139323275,76.57880610956228],[-39.69534756513696,76.57891211042147],[-39.696983667874235,76.57934160056341],[-39.70116599127976,76.57933763544042],[-39.71995695691728,76.57626637160811],[-39.72652649290234,76.57521047854694],[-39.706258477382335,76.5768374237508],[-39.70900647312728,76.57591549761744],[-39.64784558712212,76.5795392073079],[-39.64910461622838,76.58054079565672],[-39.65283082982465,76.57973436236686],[-39.65213741588292,76.57941243518904],[-39.64707555159241,76.57944044934482],[-39.64259073157205,76.5815928188288],[-39.6332792781849,76.58449000092207]]]}},{"type":"Feature","properties":{"N03_001":"愛知県","N03_002":null,"N03_003":null,"N03_004":"岡崎市","N03_007":"23202"},"geometry":{"type":"Polygon","coordinates":[[[-39.67305898261936,76.59307267972568],[-39.67636674470433,76.59242396338597],[-39.69376434611612,76.59227224452084],[-39.70370809925135,76.59176598748577],[-39.707416586263115,76.5912666790977],[-39.714378746681874,76.59135141297797],[-39.7212666078452,76.59166775519112],[-39.72079078542522,76.59163874584006],[-39.74202843690238,76.58607592410328],[-39.74176353493989,76.58561231217014],[-39.77392724727528,76.58126950341679],[-39.77018917028866,76.58155792776134],[-39.78513035487191,76.57983983021705],[-39.77078361718305,76.58098715429144],[-39.761020835362864,76.58196976759366],[-39.73459902776521,76.58569196539862],[-39.7261257146585,76.58644248659621],[-39.729325342123374,76.58559398708486],[-39.71201562632254,76.58677141314212],[-39.70535870612555,76.58782104312084],[-39.694965532994864,76.58795515183634],[-39.68020156870436,76.58912008971403],[-39.665810208396266,76.58782148270438],[-39.65465844396863,76.5913892500628],[-39.660348343408664,76.59212518482498],[-39.67156716471323,76.5932006222268],[-39.67305898261936,76.59307267972568]]]}},{"type":"Feature","properties":{"N03_001":"愛知県","N03_002":null,"N03_003":null,"N03_004":"一宮市","N03_007":"23203"},"geometry":{"type":"Polygon","coordinates":[[[-40.07786365507995,76.60299847974704],[-40.04095100629739,76.60457684279119],[-40.02015452890028,76.60584210466418],[-40.01520241455887,76.60550689344632],[-40.0124504729722,76.60550999361948],[-40.0097425064179,76.60589273592407],[-39.95319671017433,76.60942803460631],[-40.008114920326385,76.60672796151731],[-40.00885193814827,76.60774375625392],[-40.02597099770133,76.60672079846515],[-40.03442053502571,76.60678918584273],[-40.04344580109082,76.60574034236963],[-40.06042066344858,76.60469427666389],[-40.07786365507995,76.60299847974704]]]}},{"type":"Feature","properties":{"N03_001":"愛知県","N03_002":null,"N03_003":null,"N03_004":"瀬戸市","N03_007":"23204"},"geometry":{"type":"Polygon","coordinates":[[[-39.79810169323636,76.59952134840199],[-39.80688049885366,76.59981189985791],[-39.82128187917816,76.60133676327109],[-39.80568236992268,76.59945821173592],[-39.783633198277755,76.59567137848101],[-39.794767181095175,76.5961855382801],[-39.7372159859093,76.58513083746509],[-39.721275014654644,76.58377181002524],[-39.718565742523595,76.58194994900731],[-39.74049347355805,76.59108926218627],[-39.77699565321409,76.59730413872113],[-39.79810169323636,76.59952134840199]]]}},{"type":"Feature","properties":{"N03_001":"愛知県","N03_002":null,"N03_003":null,"N03_004":"半田市","N03_007":"23205"},"geometry":{"type":"Polygon","coordinates":[[[-39.95232982377745,76.57784318160556],[-39.95337977418976,76.57528644341534],[-39.90464594243493,76.57407672977624],[-39.88565866374393,76.57567184742297],[-39.88825285033789,76.57746738434786],[-39.90597644679153,76.57830232455088],[-39.91322760045112,76.57707709967298],[-39.95232982377745,76.57784318160556]]]}},{"type":"Feature","properties":{"N03_001":"愛知県","N03_002":null,"N03_003":null,"N03_004":"春日井市","N03_007":"23206"},"geometry":{"type":"Polygon","coordinates":[[[-39.84238497474709,76.60384904081091],[-39.84242014300014,76.60384566629655],[-39.85503307630172,76.6036152503908],[-39.854627677271374,76.60355131611988],[-39.90570220940916,76.60497895330774],[-39.90445110479884,76.60457543389813],[-39.90620449448799,76.60446931203558],[-39.893005760638744,76.6031411316241],[-39.874786020241324,76.60282168339357],[-39.83912063433919,76.60290023186603],[-39.82128187917816,76.60133676327109],[-39.80688049885366,76.59981189985791],[-39.79810169323636,76.59952134840199],[-39.8091032692949,76.60065467262147],[-39.84238497474709,76.60384904081091]]]}},{"type":"Feature","properties":{"N03_001":"愛知県","N03_002":null,"N03_003":null,"N03_004":"豊川市","N03_007":"23207"},"geometry":{"type":"Polygon","coordinates":[[[-39.642402990833034,76.58816867713526],[-39.64665119689255,76.59105925776566],[-39.65465844396863,76.5913892500628],[-39.665810208396266,76.58782148270438],[-39.68020156870436,76.58912008971403],[-39.694965532994864,76.58795515183634],[-39.70535870612555,76.58782104312084],[-39.71201562632254,76.58677141314212],[-39.7123519293574,76.58387164141102],[-39.70177689746775,76.58312678283752],[-39.700611883564015,76.580057656496],[-39.698893139323275,76.57880610956228],[-39.686656087300584,76.57911756807385],[-39.660795202980225,76.58002970257527],[-39.661630149048825,76.58345659206294],[-39.642402990833034,76.58816867713526]]]}},{"type":"Feature","properties":{"N03_001":"愛知県","N03_002":null,"N03_003":null,"N03_004":"津島市","N03_007":"23208"},"geometry":{"type":"Polygon","coordinates":[[[-40.0358308931217,76.5916294389485],[-40.03368497332617,76.59375356270755],[-40.055963331066664,76.59976169755795],[-40.06391141383838,76.59725940881934],[-40.086300087869844,76.59707998424551],[-40.08834098308741,76.59432823949766],[-40.08045647494541,76.59433993552189],[-40.0455432189923,76.59043264511908],[-40.03585063798074,76.59149999455272],[-40.0358308931217,76.5916294389485]]]}},{"type":"Feature","properties":{"N03_001":"愛知県","N03_002":null,"N03_003":null,"N03_004":"碧南市","N03_007":"23209"},"geometry":{"type":"Polygon","coordinates":[[[-39.825148650240315,76.57497435368315],[-39.83569389218606,76.57467862101606],[-39.822010289809896,76.5779678656579],[-39.88012781342703,76.57552333445321],[-39.88422954574227,76.57420714731461],[-39.893695158349,76.57396222576291],[-39.88167541502565,76.57372330314129],[-39.851839226077615,76.5739120332343],[-39.825148650240315,76.57497435368315]]]}},{"type":"Feature","properties":{"N03_001":"愛知県","N03_002":null,"N03_003":null,"N03_004":"刈谷市","N03_007":"23210"},"geometry":{"type":"Polygon","coordinates":[[[-39.78236010080563,76.5832051957263],[-39.80226396864786,76.58586276026352],[-39.80315423327761,76.58580218168586],[-39.84560585787934,76.5815283647766],[-39.8642970796241,76.58138393383416],[-39.87727323724773,76.58042577674122],[-39.8311550969846,76.5808158934594],[-39.812392508310964,76.57905630411747],[-39.835449654553535,76.58126637457542],[-39.81077272232508,76.58405621624604],[-39.78236010080563,76.5832051957263]]]}},{"type":"Feature","properties":{"N03_001":"愛知県","N03_002":null,"N03_003":null,"N03_004":"豊田市","N03_007":"23211"},"geometry":{"type":"Polygon","coordinates":[[[-39.718565742523595,76.58194994900731],[-39.721275014654644,76.58377181002524],[-39.7372159859093,76.58513083746509],[-39.73671997799473,76.58614195973378],[-39.73634587891489,76.58673734122003],[-39.73106275088606,76.58811956355426],[-39.73513984056569,76.58979628208465],[-39.78236010080563,76.5832051957263],[-39.81077272232508,76.58405621624604],[-39.76157099713136,76.58426932512997],[-39.74202843690238,76.58607592410328],[-39.72079078542522,76.59163874584006],[-39.7212666078452,76.59166775519112],[-39.714378746681874,76.59135141297797],[-39.707416586263115,76.5912666790977],[-39.70370809925135,76.59176598748577],[-39.69376434611612,76.59227224452084],[-39.67636674470433,76.59242396338597],[-39.67305898261936,76.59307267972568],[-39.6683916703738,76.59245870724683],[-39.6641667660233,76.59205419907947],[-39.663436331501885,76.5907103340046],[-39.66037040956865,76.5897772084897],[-39.664113232198616,76.58827030891847],[-39.66104177116635,76.58708127806857],[-39.65476006426416,76.58618600074038],[-39.65757100219232,76.58573843784967],[-39.64914492616483,76.5840669296815],[-39.645470042589864,76.58486971515536],[-39.641393113365716,76.58428976188429],[-39.615040660949546,76.58694757343615],[-39.60678734740707,76.58841997077639],[-39.61691605983625,76.58849159577306],[-39.60031799687396,76.5930189233697],[-39.628583816370906,76.58906924516766],[-39.658132920967034,76.58192837954869],[-39.66609590244873,76.5826196253746],[-39.66789669350187,76.58197200908917],[-39.674057350941766,76.58199745125346],[-39.67479042139793,76.58110293717235],[-39.68360875419646,76.58115753376147],[-39.68359485403205,76.58040506367362],[-39.69320567889958,76.58187970322753],[-39.70268276515812,76.58489287368181],[-39.70948087605561,76.58130676088882],[-39.718565742523595,76.58194994900731]]]}},{"type":"Feature","properties":{"N03_001":"愛知県","N03_002":null,"N03_003":null,"N03_004":"安城市","N03_007":"23212"},"geometry":{"type":"Polygon","coordinates":[[[-39.74202843690238,76.58607592410328],[-39.76157099713136,76.58426932512997],[-39.7808215658742,76.58090032793271],[-39.812392508310964,76.57905630411747],[-39.8311550969846,76.5808158934594],[-39.822010289809896,76.5779678656579],[-39.83569389218606,76.57467862101606],[-39.825148650240315,76.57497435368315],[-39.79920961909032,76.57768869435003],[-39.78513035487191,76.57983983021705],[-39.77018917028866,76.58155792776134],[-39.77392724727528,76.58126950341679],[-39.74176353493989,76.58561231217014],[-39.74202843690238,76.58607592410328]]]}},{"type":"Feature","properties":{"N03_001":"愛知県","N03_002":null,"N03_003":null,"N03_004":"西尾市","N03_007":"23213"},"geometry":{"type":"Polygon","coordinates":[[[-39.78513035487191,76.57983983021705],[-39.79920961909032,76.57768869435003],[-39.825148650240315,76.57497435368315],[-39.851839226077615,76.5739120332343],[-39.88167541502565,76.57372330314129],[-39.86047427223361,76.57410830333495],[-39.8464702550778,76.57407298662986],[-39.8191977167851,76.57528803876458],[-39.8146991468412,76.57528410763183],[-39.77625911007652,76.57618918996842],[-39.77567085938007,76.57737852318267],[-39.789751490316014,76.57697560015366],[-39.802991367446104,76.5762066139739],[-39.791224366405295,76.57775238215885],[-39.77078361718305,76.58098715429144],[-39.78513035487191,76.57983983021705]]]}},{"type":"Feature","properties":{"N03_001":"愛知県","N03_002":null,"N03_003":null,"N03_004":"蒲郡市","N03_007":"23214"},"geometry":{"type":"Polygon","coordinates":[[[-39.729325342123374,76.58559398708486],[-39.75633535462476,76.57961206328572],[-39.77567085938007,76.57737852318267],[-39.77625911007652,76.57618918996842],[-39.738954895331425,76.57932988879271],[-39.72012192097291,76.57886674810986],[-39.700611883564015,76.580057656496],[-39.70177689746775,76.58312678283752],[-39.7123519293574,76.58387164141102],[-39.71201562632254,76.58677141314212],[-39.729325342123374,76.58559398708486]]]}},{"type":"Feature","properties":{"N03_001":"愛知県","N03_002":null,"N03_003":null,"N03_004":"犬山市","N03_007":"23215"},"geometry":{"type":"Polygon","coordinates":[[[-39.91707837017943,76.60716589552214],[-39.88553638521369,76.60575850213145],[-39.87418580394542,76.6053660022838],[-39.84242014300014,76.60384566629655],[-39.84238497474709,76.60384904081091],[-39.84502513069231,76.60519348048909],[-39.87462824461683,76.60743660652143],[-39.89263881464313,76.60919684337391],[-39.88577875477944,76.60958518758348],[-39.90472654694875,76.60998196489915],[-39.902446314105454,76.60939032347711],[-39.92585407679707,76.60987622174238],[-39.910934614541056,76.60848348022516],[-39.91707837017943,76.60716589552214]]]}},{"type":"Feature","properties":{"N03_001":"愛知県","N03_002":null,"N03_003":null,"N03_004":"常滑市","N03_007":"23216"},"geometry":{"type":"Polygon","coordinates":[[[-39.95232982377745,76.57784318160556],[-39.951852992565556,76.57826136680622],[-39.97412508886928,76.57837955241807],[-39.9969202396211,76.57904267711521],[-39.99693843327738,76.57661279897789],[-39.967083615453774,76.57459635545548],[-39.95921591316621,76.57409692274526],[-39.962016710435336,76.57366025491595],[-39.94442081967504,76.57357401702086],[-39.95337977418976,76.57528644341534],[-39.95232982377745,76.57784318160556]]]}},{"type":"Feature","properties":{"N03_001":"愛知県","N03_002":null,"N03_003":null,"N03_004":"江南市","N03_007":"23217"},"geometry":{"type":"Polygon","coordinates":[[[-40.00885193814827,76.60774375625392],[-40.008114920326385,76.60672796151731],[-39.95319671017433,76.60942803460631],[-39.940148450640464,76.60816923826157],[-39.93804357368783,76.60790506703546],[-39.932388660413984,76.60884441512768],[-39.94720802227522,76.61115876793548],[-40.00885193814827,76.60774375625392]]]}},{"type":"Feature","properties":{"N03_001":"愛知県","N03_002":null,"N03_003":null,"N03_004":"小牧市","N03_007":"23219"},"geometry":{"type":"Polygon","coordinates":[[[-39.84242014300014,76.60384566629655],[-39.87418580394542,76.6053660022838],[-39.88553638521369,76.60575850213145],[-39.91707837017943,76.60716589552214],[-39.93804357368783,76.60790506703546],[-39.940148450640464,76.60816923826157],[-39.93809930177339,76.60423336213773],[-39.92523726255434,76.60445357701856],[-39.90445110479884,76.60457543389813],[-39.90570220940916,76.60497895330774],[-39.854627677271374,76.60355131611988],[-39.85503307630172,76.6036152503908],[-39.84242014300014,76.60384566629655]]]}},{"type":"Feature","properties":{"N03_001":"愛知県","N03_002":null,"N03_003":null,"N03_004":"稲沢市","N03_007":"23220"},"geometry":{"type":"Polygon","coordinates":[[[-40.09610054024437,76.5996131808031],[-40.08763171531876,76.60042982002619],[-40.071767658126475,76.6002209624967],[-40.07176241070413,76.59860709703871],[-40.056061207262545,76.60011179367106],[-40.02659603848048,76.60192430649246],[-40.014499139692916,76.60443357629698],[-40.01520241455887,76.60550689344632],[-40.02015452890028,76.60584210466418],[-40.04095100629739,76.60457684279119],[-40.07786365507995,76.60299847974704],[-40.09599695751517,76.6004343017363],[-40.09610054024437,76.5996131808031]]]}},{"type":"Feature","properties":{"N03_001":"愛知県","N03_002":null,"N03_003":null,"N03_004":"新城市","N03_007":"23221"},"geometry":{"type":"Polygon","coordinates":[[[-39.66037040956865,76.5897772084897],[-39.663436331501885,76.5907103340046],[-39.6641667660233,76.59205419907947],[-39.6683916703738,76.59245870724683],[-39.67305898261936,76.59307267972568],[-39.67156716471323,76.5932006222268],[-39.660348343408664,76.59212518482498],[-39.65465844396863,76.5913892500628],[-39.64665119689255,76.59105925776566],[-39.642402990833034,76.58816867713526],[-39.635161254477275,76.58914492492931],[-39.6332792781849,76.58449000092207],[-39.62214017579721,76.5878536951539],[-39.610050105714606,76.58984901018898],[-39.60178997433236,76.58855524151059],[-39.601858370825916,76.59006925392512],[-39.58861052843002,76.58918662167011],[-39.58599853283952,76.58840329725626],[-39.57891052352363,76.58796714295134],[-39.554810561555634,76.58643617561825],[-39.552908776134494,76.5866021947243],[-39.55430058667586,76.58673843803784],[-39.59745558071518,76.58681012041326],[-39.60204889055837,76.58748972051214],[-39.60730119388809,76.58793088093601],[-39.62148889516557,76.58772798881151],[-39.63462488367385,76.58855515273956],[-39.636968840858884,76.58914825636585],[-39.64735776762912,76.58930334203528],[-39.65905420155908,76.59056734664178],[-39.66037040956865,76.5897772084897]]]}},{"type":"Feature","properties":{"N03_001":"愛知県","N03_002":null,"N03_003":null,"N03_004":"東海市","N03_007":"23222"},"geometry":{"type":"Polygon","coordinates":[[[-39.96218300792105,76.58315940735228],[-39.98281293996921,76.58200067511994],[-39.97001927922514,76.58152020840843],[-39.945776357501316,76.580088588062],[-39.92747517684887,76.57902577858448],[-39.92141743026812,76.57909216769909],[-39.926088000970466,76.57992293301004],[-39.91547413658698,76.5812019591613],[-39.91392944810962,76.58206322125909],[-39.94454574295791,76.5825981835717],[-39.9484907550715,76.58282525330509],[-39.96218300792105,76.58315940735228]]]}},{"type":"Feature","properties":{"N03_001":"愛知県","N03_002":null,"N03_003":null,"N03_004":"大府市","N03_007":"23223"},"geometry":{"type":"Polygon","coordinates":[[[-39.91392944810962,76.58206322125909],[-39.91547413658698,76.5812019591613],[-39.926088000970466,76.57992293301004],[-39.92141743026812,76.57909216769909],[-39.886806677708826,76.5804108053173],[-39.8642970796241,76.58138393383416],[-39.84560585787934,76.5815283647766],[-39.87087875175365,76.58324123327408],[-39.8815027990523,76.5834013207333],[-39.91392944810962,76.58206322125909]]]}},{"type":"Feature","properties":{"N03_001":"愛知県","N03_002":null,"N03_003":null,"N03_004":"知多市","N03_007":"23224"},"geometry":{"type":"Polygon","coordinates":[[[-39.951852992565556,76.57826136680622],[-39.941183656156255,76.57879082555041],[-39.92483937134163,76.57886648953055],[-39.92747517684887,76.57902577858448],[-39.945776357501316,76.580088588062],[-39.97001927922514,76.58152020840843],[-39.98649228002086,76.58164156462128],[-40.00186394639286,76.58030591757827],[-39.9969202396211,76.57904267711521],[-39.97412508886928,76.57837955241807],[-39.951852992565556,76.57826136680622]]]}},{"type":"Feature","properties":{"N03_001":"愛知県","N03_002":null,"N03_003":null,"N03_004":"知立市","N03_007":"23225"},"geometry":{"type":"Polygon","coordinates":[[[-39.812392508310964,76.57905630411747],[-39.7808215658742,76.58090032793271],[-39.76157099713136,76.58426932512997],[-39.81077272232508,76.58405621624604],[-39.835449654553535,76.58126637457542],[-39.812392508310964,76.57905630411747]]]}},{"type":"Feature","properties":{"N03_001":"愛知県","N03_002":null,"N03_003":null,"N03_004":"尾張旭市","N03_007":"23226"},"geometry":{"type":"Polygon","coordinates":[[[-39.81433784287506,76.59566267736237],[-39.794767181095175,76.5961855382801],[-39.783633198277755,76.59567137848101],[-39.80568236992268,76.59945821173592],[-39.83952588754542,76.60305757237218],[-39.849396433746065,76.59917302601163],[-39.81433784287506,76.59566267736237]]]}},{"type":"Feature","properties":{"N03_001":"愛知県","N03_002":null,"N03_003":null,"N03_004":"高浜市","N03_007":"23227"},"geometry":{"type":"Polygon","coordinates":[[[-39.822010289809896,76.5779678656579],[-39.8311550969846,76.5808158934594],[-39.87727323724773,76.58042577674122],[-39.87737713342415,76.58041142501813],[-39.88012781342703,76.57552333445321],[-39.822010289809896,76.5779678656579]]]}},{"type":"Feature","properties":{"N03_001":"愛知県","N03_002":null,"N03_003":null,"N03_004":"岩倉市","N03_007":"23228"},"geometry":{"type":"Polygon","coordinates":[[[-40.0097425064179,76.60589273592407],[-39.93809930177339,76.60423336213773],[-39.940148450640464,76.60816923826157],[-39.95319671017433,76.60942803460631],[-40.0097425064179,76.60589273592407]]]}},{"type":"Feature","properties":{"N03_001":"愛知県","N03_002":null,"N03_003":null,"N03_004":"豊明市","N03_007":"23229"},"geometry":{"type":"Polygon","coordinates":[[[-39.87087875175365,76.58324123327408],[-39.84560585787934,76.5815283647766],[-39.80315423327761,76.58580218168586],[-39.815320031470094,76.58758119710367],[-39.86155286289777,76.58504507226085],[-39.87087875175365,76.58324123327408]]]}},{"type":"Feature","properties":{"N03_001":"愛知県","N03_002":null,"N03_003":null,"N03_004":"日進市","N03_007":"23230"},"geometry":{"type":"Polygon","coordinates":[[[-39.814580595988,76.58815869522408],[-39.73915785905793,76.58768034459958],[-39.73634587891489,76.58673734122003],[-39.73671997799473,76.58614195973378],[-39.78560775848825,76.59150212569801],[-39.81066515588365,76.59023246334007],[-39.82185738376633,76.58945428059413],[-39.81531678571447,76.58813028276101],[-39.814580595988,76.58815869522408]]]}},{"type":"Feature","properties":{"N03_001":"愛知県","N03_002":null,"N03_003":null,"N03_004":"田原市","N03_007":"23231"},"geometry":{"type":"Polygon","coordinates":[[[-39.71995695691728,76.57626637160811],[-39.703930476812836,76.57912753419328],[-39.714445531318944,76.57813135804497],[-39.764208674251385,76.5718576664886],[-39.76573020756122,76.57236160882121],[-39.77191259028979,76.57240235707441],[-39.78452132188002,76.57282340636468],[-39.79227094126534,76.57259090510274],[-39.79848282805953,76.57307423375569],[-39.80349656775915,76.5729228280245],[-39.81096271205386,76.57217057627321],[-39.830505961262084,76.57172773177541],[-39.86001825719756,76.56952665363299],[-39.85760803407561,76.56885720404095],[-39.81939480576675,76.57158711659248],[-39.792524973480084,76.57447916631003],[-39.781966610091494,76.57414356881621],[-39.70900647312728,76.57591549761744],[-39.706258477382335,76.5768374237508],[-39.72652649290234,76.57521047854694],[-39.71995695691728,76.57626637160811]]]}},{"type":"Feature","properties":{"N03_001":"愛知県","N03_002":null,"N03_003":null,"N03_004":"愛西市","N03_007":"23232"},"geometry":{"type":"Polygon","coordinates":[[[-40.086175938962576,76.59071193835226],[-40.06158967202599,76.5904493944291],[-40.04536701260803,76.58984364557864],[-40.0455432189923,76.59043264511908],[-40.08045647494541,76.59433993552189],[-40.08834098308741,76.59432823949766],[-40.086300087869844,76.59707998424551],[-40.06391141383838,76.59725940881934],[-40.055963331066664,76.59976169755795],[-40.056061207262545,76.60011179367106],[-40.07176241070413,76.59860709703871],[-40.071767658126475,76.6002209624967],[-40.08763171531876,76.60042982002619],[-40.09610054024437,76.5996131808031],[-40.09675853641062,76.59744944429268],[-40.10206135766912,76.5964172724075],[-40.10160127191189,76.59237841684897],[-40.086175938962576,76.59071193835226]]]}},{"type":"Feature","properties":{"N03_001":"愛知県","N03_002":null,"N03_003":null,"N03_004":"清須市","N03_007":"23233"},"geometry":{"type":"Polygon","coordinates":[[[-39.99368372951919,76.60252139141673],[-40.0124504729722,76.60550999361948],[-40.01520241455887,76.60550689344632],[-40.014499139692916,76.60443357629698],[-40.02659603848048,76.60192430649246],[-39.9981277722971,76.59612893194817],[-39.97583726644966,76.59763984261362],[-39.99368372951919,76.60252139141673]]]}},{"type":"Feature","properties":{"N03_001":"愛知県","N03_002":null,"N03_003":null,"N03_004":"北名古屋市","N03_007":"23234"},"geometry":{"type":"Polygon","coordinates":[[[-39.92789382421519,76.60390356606752],[-39.92523726255434,76.60445357701856],[-39.93809930177339,76.60423336213773],[-40.0097425064179,76.60589273592407],[-40.0124504729722,76.60550999361948],[-39.99368372951919,76.60252139141673],[-39.9341327794113,76.60308667177927],[-39.92789382421519,76.60390356606752]]]}},{"type":"Feature","properties":{"N03_001":"愛知県","N03_002":null,"N03_003":null,"N03_004":"弥富市","N03_007":"23235"},"geometry":{"type":"Polygon","coordinates":[[[-40.086175938962576,76.59071193835226],[-40.07850250953903,76.58967800267408],[-40.05507780481942,76.58726778449407],[-40.04927192776232,76.58448937485102],[-40.03492296029698,76.58306079249103],[-40.02010026548575,76.5825349728437],[-40.01440408610929,76.58382337554475],[-40.0380358882097,76.58673869156283],[-40.02493880816274,76.58782721984686],[-40.04536701260803,76.58984364557864],[-40.06158967202599,76.5904493944291],[-40.086175938962576,76.59071193835226]]]}},{"type":"Feature","properties":{"N03_001":"愛知県","N03_002":null,"N03_003":null,"N03_004":"みよし市","N03_007":"23236"},"geometry":{"type":"Polygon","coordinates":[[[-39.78236010080563,76.5832051957263],[-39.73513984056569,76.58979628208465],[-39.73106275088606,76.58811956355426],[-39.73634587891489,76.58673734122003],[-39.73915785905793,76.58768034459958],[-39.73962074899681,76.58898948751018],[-39.796600453659636,76.58840131369959],[-39.80226396864786,76.58586276026352],[-39.78236010080563,76.5832051957263]]]}},{"type":"Feature","properties":{"N03_001":"愛知県","N03_002":null,"N03_003":null,"N03_004":"あま市","N03_007":"23237"},"geometry":{"type":"Polygon","coordinates":[[[-39.9981277722971,76.59612893194817],[-40.02659603848048,76.60192430649246],[-40.056061207262545,76.60011179367106],[-40.055963331066664,76.59976169755795],[-40.03368497332617,76.59375356270755],[-40.0358308931217,76.5916294389485],[-40.028421210234036,76.59114828763519],[-40.023501523247866,76.59293124651454],[-40.00564808731031,76.59488367481104],[-39.9981277722971,76.59612893194817]]]}},{"type":"Feature","properties":{"N03_001":"愛知県","N03_002":null,"N03_003":null,"N03_004":"長久手市","N03_007":"23238"},"geometry":{"type":"Polygon","coordinates":[[[-39.82511175102405,76.59617730031422],[-39.81066515588365,76.59023246334007],[-39.78560775848825,76.59150212569801],[-39.73671997799473,76.58614195973378],[-39.7372159859093,76.58513083746509],[-39.794767181095175,76.5961855382801],[-39.81433784287506,76.59566267736237],[-39.82511175102405,76.59617730031422]]]}}]}