{"type":"FeatureCollection","features":[{"type":"Feature","properties":{"N03_001":"岡山県","N03_002":null,"N03_003":"岡山市","N03_004":"中区","N03_007":"33102"},"geometry":{"type":"Polygon","coordinates":[[[-41.65807082030842,76.5714712211052],[-41.60286290202787,76.56541727302539],[-41.58955795434632,76.56564768919672],[-41.595862473061146,76.5661910162538],[-41.59077160002681,76.5761232702566],[-41.62845896756207,76.58542592044171],[-41.64709186729634,76.58554356853296],[-41.6666931195118,76.5843150058729],[-41.65807082030842,76.5714712211052]]]}},{"type":"Feature","properties":{"N03_001":"岡山県","N03_002":null,"N03_003":"岡山市","N03_004":"北区","N03_007":"33101"},"geometry":{"type":"Polygon","coordinates":[[[-41.62845896756207,76.58542592044171],[-41.622939200845884,76.58525097793647],[-41.63938944573814,76.58543225466363],[-41.631606925463196,76.58530086433959],[-41.645525478810534,76.58571524577094],[-41.63395492102462,76.58594423015666],[-41.62403267601321,76.58852240949354],[-41.64157292941535,76.58813185071615],[-41.645850943190155,76.58917718756958],[-41.65999634505789,76.58868651157388],[-41.66099021012135,76.59029119073031],[-41.66895015137205,76.59111362069305],[-41.6660876566076,76.5923813719861],[-41.70007412455155,76.59199393275368],[-41.69009326866465,76.59031376578626],[-41.69947176276159,76.58904507684305],[-41.699988165852645,76.58707543608797],[-41.728444745094166,76.58671196145846],[-41.73117728269381,76.58634542107029],[-41.74956907646981,76.58658070254485],[-41.73714379382562,76.5856934155933],[-41.720245075580365,76.5845960695069],[-41.71694769376247,76.58129465325823],[-41.721780055253454,76.57830404700408],[-41.71107604335213,76.57981125209398],[-41.71330277223693,76.57447589799621],[-41.71164774111943,76.57353825222354],[-41.700697535714134,76.57614159222493],[-41.690929517805976,76.57545068258511],[-41.68063506019974,76.57630735418782],[-41.65807082030842,76.5714712211052],[-41.6666931195118,76.5843150058729],[-41.64709186729634,76.58554356853296],[-41.62845896756207,76.58542592044171]]]}},{"type":"Feature","properties":{"N03_001":"岡山県","N03_002":null,"N03_003":"岡山市","N03_004":"東区","N03_007":"33103"},"geometry":{"type":"Polygon","coordinates":[[[-41.58955795434632,76.56564768919672],[-41.56272558098127,76.56525603687312],[-41.55562192216792,76.56433432500404],[-41.5378975441229,76.5642295034787],[-41.52096946810095,76.56468177970879],[-41.51753354125455,76.56619278555378],[-41.526907586728086,76.56723355273822],[-41.54505794167622,76.56717364201681],[-41.558541388820224,76.57255327443323],[-41.54792944908492,76.57771336786327],[-41.543957431102186,76.58205901370108],[-41.53316495751343,76.58261342453838],[-41.52308840587439,76.58299936880167],[-41.54459249129595,76.58384285226563],[-41.56433201926643,76.58450243274312],[-41.579079648327195,76.5841314369383],[-41.622939200845884,76.58525097793647],[-41.62845896756207,76.58542592044171],[-41.59077160002681,76.5761232702566],[-41.595862473061146,76.5661910162538],[-41.58955795434632,76.56564768919672]]]}},{"type":"Feature","properties":{"N03_001":"岡山県","N03_002":null,"N03_003":"岡山市","N03_004":"南区","N03_007":"33104"},"geometry":{"type":"Polygon","coordinates":[[[-41.65807082030842,76.5714712211052],[-41.68063506019974,76.57630735418782],[-41.690929517805976,76.57545068258511],[-41.700697535714134,76.57614159222493],[-41.71164774111943,76.57353825222354],[-41.71177411404776,76.57105558994276],[-41.70837167864275,76.56527615401139],[-41.68802698789788,76.56157141926155],[-41.67938390768379,76.5609968850049],[-41.64057987211145,76.56075384068232],[-41.626724086321396,76.56378367782442],[-41.5999509724821,76.56257361267966],[-41.593593044012245,76.56373017747535],[-41.56754014995791,76.56370380886366],[-41.57201714021863,76.56485540208502],[-41.60286290202787,76.56541727302539],[-41.65807082030842,76.5714712211052]]]}},{"type":"Feature","properties":{"N03_001":"岡山県","N03_002":null,"N03_003":null,"N03_004":"倉敷市","N03_007":"33202"},"geometry":{"type":"Polygon","coordinates":[[[-41.721780055253454,76.57830404700408],[-41.725067045173134,76.57556493390308],[-41.740167302135944,76.57540307361187],[-41.75382279222548,76.57357790778697],[-41.76276249430119,76.57669656962608],[-41.78559934737848,76.57784028352732],[-41.810816206765175,76.57768872815743],[-41.79994506785532,76.5755265646984],[-41.803479792053814,76.5750837556467],[-41.779038436017935,76.57098885470695],[-41.790817407026424,76.56114149418354],[-41.812051738830775,76.5585741900685],[-41.769349565250174,76.5631126391201],[-41.755341785586076,76.56494064516227],[-41.757683781539875,76.56110952030414],[-41.73151603115461,76.56068182709976],[-41.71998454933539,76.55889901138002],[-41.70135187869901,76.55823811613892],[-41.70562146651153,76.55955595579528],[-41.69507117613449,76.55986371556818],[-41.67272438712649,76.5590520847463],[-41.66430073955756,76.55850223593023],[-41.67938390768379,76.5609968850049],[-41.68802698789788,76.56157141926155],[-41.70837167864275,76.56527615401139],[-41.71177411404776,76.57105558994276],[-41.72336490012185,76.57124921222409],[-41.71330277223693,76.57447589799621],[-41.71107604335213,76.57981125209398],[-41.721780055253454,76.57830404700408]]]}},{"type":"Feature","properties":{"N03_001":"岡山県","N03_002":null,"N03_003":null,"N03_004":"津山市","N03_007":"33203"},"geometry":{"type":"Polygon","coordinates":[[[-41.71557780443259,76.5958559326862],[-41.72720793518791,76.59631873154204],[-41.72483769566347,76.59646417625811],[-41.689873514878876,76.59553272821678],[-41.685702656460855,76.59427985585693],[-41.67430454579079,76.59396225930814],[-41.65143755060336,76.59511477711074],[-41.626206801313785,76.59562876527897],[-41.61544891661951,76.59625448597467],[-41.600232792945306,76.59579802294787],[-41.58454357234943,76.59624079281983],[-41.5616220704891,76.5955397234698],[-41.5655117163821,76.59614806663066],[-41.55364763711025,76.59582851619284],[-41.552586177702715,76.59583548977668],[-41.54085927232807,76.59547528490943],[-41.533800375733456,76.59570236949551],[-41.52193733025714,76.59573087465428],[-41.53056023359013,76.59621131400601],[-41.521796474271525,76.59740686732029],[-41.53724498684922,76.59746911214538],[-41.52787376930694,76.59848763581066],[-41.53299375032023,76.59932917787997],[-41.54254432099578,76.59920627294974],[-41.56093740903049,76.60014604738906],[-41.57870937286996,76.59927111704982],[-41.59148060599391,76.59947174767372],[-41.59696447832653,76.59743052644365],[-41.60799058563214,76.59652489779992],[-41.602414473119254,76.5961506970226],[-41.610268563688095,76.5960746203669],[-41.61212242968875,76.59619482145864],[-41.623749428062986,76.59603651314893],[-41.62884469189055,76.5961596035604],[-41.65378389214523,76.59607676608952],[-41.71557780443259,76.5958559326862]]]}},{"type":"Feature","properties":{"N03_001":"岡山県","N03_002":null,"N03_003":null,"N03_004":"笠岡市","N03_007":"33205"},"geometry":{"type":"Polygon","coordinates":[[[-41.84435491716563,76.57631386869518],[-41.85878041597249,76.57653982084695],[-41.86921793863938,76.5760635549457],[-41.88169905157299,76.57521115663694],[-41.890946335577496,76.57381210008568],[-41.914628634785664,76.57138027859942],[-41.932637936186914,76.56978772933729],[-41.92913429064471,76.56178908352564],[-41.92971230525638,76.56053145408656],[-41.91785291927962,76.55846328404265],[-41.894208222803776,76.55708023811235],[-41.84453123549647,76.55743398163703],[-41.83623647376034,76.55748964839835],[-41.844350175232314,76.55827863276238],[-41.86987178471778,76.55961707792419],[-41.868816178944776,76.56638540181866],[-41.84435491716563,76.57631386869518]]]}},{"type":"Feature","properties":{"N03_001":"岡山県","N03_002":null,"N03_003":null,"N03_004":"井原市","N03_007":"33207"},"geometry":{"type":"Polygon","coordinates":[[[-41.86921793863938,76.5760635549457],[-41.86906842432541,76.5775179764422],[-41.858065258102236,76.57970237334952],[-41.84848954656803,76.57945604426622],[-41.84613371185067,76.5822935457496],[-41.83617758927222,76.58255753617514],[-41.83145374006026,76.58422145237283],[-41.84422281880304,76.58584636610931],[-41.85378215173186,76.58661194587015],[-41.863078899346434,76.5866261821276],[-41.86594600557538,76.58601490656476],[-41.90261361183861,76.58199895867202],[-41.9214180888144,76.58225406350628],[-41.92497105058212,76.5838038561854],[-41.944863425835315,76.58336989996067],[-41.95061863031853,76.58138439247841],[-41.94875111500111,76.57927508399965],[-41.94051514750238,76.57884164253646],[-41.95590329948786,76.57414890623734],[-41.951300905722476,76.57269932173372],[-41.93867214038251,76.57245209934518],[-41.932637936186914,76.56978772933729],[-41.914628634785664,76.57138027859942],[-41.890946335577496,76.57381210008568],[-41.88169905157299,76.57521115663694],[-41.86921793863938,76.5760635549457]]]}},{"type":"Feature","properties":{"N03_001":"岡山県","N03_002":null,"N03_003":null,"N03_004":"総社市","N03_007":"33208"},"geometry":{"type":"Polygon","coordinates":[[[-41.74956907646981,76.58658070254485],[-41.76536833782458,76.58703145328737],[-41.793170174520526,76.58668274872439],[-41.80731911022127,76.58776668742658],[-41.815540966271556,76.5874879138028],[-41.84422281880304,76.58584636610931],[-41.83145374006026,76.58422145237283],[-41.81740637551518,76.57847640511906],[-41.810816206765175,76.57768872815743],[-41.78559934737848,76.57784028352732],[-41.76276249430119,76.57669656962608],[-41.75382279222548,76.57357790778697],[-41.740167302135944,76.57540307361187],[-41.725067045173134,76.57556493390308],[-41.721780055253454,76.57830404700408],[-41.71694769376247,76.58129465325823],[-41.720245075580365,76.5845960695069],[-41.73714379382562,76.5856934155933],[-41.74956907646981,76.58658070254485]]]}},{"type":"Feature","properties":{"N03_001":"岡山県","N03_002":null,"N03_003":null,"N03_004":"高梁市","N03_007":"33209"},"geometry":{"type":"Polygon","coordinates":[[[-41.84422281880304,76.58584636610931],[-41.815540966271556,76.5874879138028],[-41.80731911022127,76.58776668742658],[-41.81817297934064,76.58861129434837],[-41.80486761350999,76.58965097192656],[-41.77936862817804,76.59079096308935],[-41.771978276572014,76.59159445423047],[-41.77188688768378,76.59449547264865],[-41.80325624160156,76.59273187036457],[-41.809567300559834,76.5913519906785],[-41.82542941419812,76.59095544607786],[-41.83324756517327,76.59254589008032],[-41.84126473632003,76.59205880785062],[-41.85247407431591,76.59056168021942],[-41.85192555116056,76.58990595241677],[-41.869797251119294,76.58971813092059],[-41.883518301525086,76.58995562875775],[-41.892428189228305,76.58967012332793],[-41.90042554857367,76.5897364150711],[-41.915473982624505,76.58874428870813],[-41.938414034467996,76.5882797215271],[-41.951572602249136,76.5871680511324],[-41.95304959133205,76.58701867468899],[-41.92799054793234,76.58652015072181],[-41.94356378832631,76.58440120133427],[-41.944863425835315,76.58336989996067],[-41.92497105058212,76.5838038561854],[-41.9214180888144,76.58225406350628],[-41.90261361183861,76.58199895867202],[-41.86594600557538,76.58601490656476],[-41.863078899346434,76.5866261821276],[-41.85378215173186,76.58661194587015],[-41.84422281880304,76.58584636610931]]]}},{"type":"Feature","properties":{"N03_001":"岡山県","N03_002":null,"N03_003":null,"N03_004":"新見市","N03_007":"33210"},"geometry":{"type":"Polygon","coordinates":[[[-41.951572602249136,76.5871680511324],[-41.938414034467996,76.5882797215271],[-41.915473982624505,76.58874428870813],[-41.90042554857367,76.5897364150711],[-41.892428189228305,76.58967012332793],[-41.883518301525086,76.58995562875775],[-41.869797251119294,76.58971813092059],[-41.85192555116056,76.58990595241677],[-41.85247407431591,76.59056168021942],[-41.84126473632003,76.59205880785062],[-41.83324756517327,76.59254589008032],[-41.821919178159874,76.59365336316928],[-41.83012224634972,76.59379409256384],[-41.82242452306467,76.59472664793151],[-41.82710810645147,76.59439110308666],[-41.81963841732034,76.59428720178543],[-41.82229496723108,76.59368399090792],[-41.815363360933695,76.59362507839148],[-41.822616888580576,76.59330506842603],[-41.83692856569951,76.59283954640705],[-41.84584614530376,76.59286788836272],[-41.883179530532736,76.59193716417867],[-41.905403325005544,76.59293727341264],[-41.91182251710178,76.59261184441566],[-41.90159770496795,76.59082476281192],[-41.91673937317817,76.59071818104306],[-41.92763170785755,76.59066738123094],[-41.964665562409884,76.59138120599775],[-41.95993613099849,76.59080913529121],[-41.9747478841076,76.59090204780651],[-41.9435774082043,76.5905411719979],[-41.94359763179661,76.59051763429535],[-41.958501843921425,76.59000185739058],[-41.96779263030351,76.5878028882486],[-41.951572602249136,76.5871680511324]]]}},{"type":"Feature","properties":{"N03_001":"岡山県","N03_002":null,"N03_003":null,"N03_004":"備前市","N03_007":"33211"},"geometry":{"type":"Polygon","coordinates":[[[-41.46197160198988,76.59201476323207],[-41.47085684610165,76.5919865658025],[-41.474523372786855,76.59049110806268],[-41.488454318645374,76.59000060892795],[-41.49638495582595,76.58856298137283],[-41.481056543756935,76.58811509621326],[-41.47624064492688,76.58674962020754],[-41.4855006706527,76.5843559980743],[-41.47454644254016,76.58170624481083],[-41.503968963498885,76.58242242704675],[-41.51028092443661,76.58307730266219],[-41.52308840587439,76.58299936880167],[-41.53316495751343,76.58261342453838],[-41.51901858460297,76.58096537449417],[-41.50544950454639,76.58115014239382],[-41.47585849761187,76.57553746701777],[-41.45044587629712,76.57662453487116],[-41.430126050633106,76.57631128555693],[-41.42518966017845,76.57717900834416],[-41.402816697252746,76.57620085251871],[-41.405906832902446,76.57768136929063],[-41.400144719826805,76.57969138877421],[-41.40878125699196,76.58198660762348],[-41.42245643095676,76.58358843987372],[-41.44141149553416,76.58472982274927],[-41.452289548836724,76.58735835195596],[-41.446888568639615,76.58863502504914],[-41.43418118340299,76.58896926275047],[-41.46197160198988,76.59201476323207]]]}},{"type":"Feature","properties":{"N03_001":"岡山県","N03_002":null,"N03_003":null,"N03_004":"瀬戸内市","N03_007":"33212"},"geometry":{"type":"Polygon","coordinates":[[[-41.52096946810095,76.56468177970879],[-41.492600343738275,76.56617450823207],[-41.48010290862559,76.56689517203068],[-41.47661858269206,76.57013056529317],[-41.465876714390596,76.5704584709587],[-41.4409953716513,76.57536290375728],[-41.45044587629712,76.57662453487116],[-41.47585849761187,76.57553746701777],[-41.50544950454639,76.58115014239382],[-41.51901858460297,76.58096537449417],[-41.53316495751343,76.58261342453838],[-41.543957431102186,76.58205901370108],[-41.54792944908492,76.57771336786327],[-41.558541388820224,76.57255327443323],[-41.54505794167622,76.56717364201681],[-41.526907586728086,76.56723355273822],[-41.51753354125455,76.56619278555378],[-41.52096946810095,76.56468177970879]]]}},{"type":"Feature","properties":{"N03_001":"岡山県","N03_002":null,"N03_003":null,"N03_004":"赤磐市","N03_007":"33213"},"geometry":{"type":"Polygon","coordinates":[[[-41.622939200845884,76.58525097793647],[-41.579079648327195,76.5841314369383],[-41.56433201926643,76.58450243274312],[-41.54459249129595,76.58384285226563],[-41.52308840587439,76.58299936880167],[-41.51028092443661,76.58307730266219],[-41.509993266448106,76.58401906616402],[-41.527817754855846,76.58488303355466],[-41.54847036115047,76.58673815672229],[-41.57672979244214,76.58781170335281],[-41.58351137819253,76.5886134248289],[-41.54444976296962,76.5905880257599],[-41.54721408093207,76.59247453673306],[-41.556107883062616,76.59318732964758],[-41.601930606005716,76.5932146095998],[-41.61695211647788,76.59141261966404],[-41.645850943190155,76.58917718756958],[-41.64157292941535,76.58813185071615],[-41.62403267601321,76.58852240949354],[-41.63395492102462,76.58594423015666],[-41.645525478810534,76.58571524577094],[-41.631606925463196,76.58530086433959],[-41.63938944573814,76.58543225466363],[-41.622939200845884,76.58525097793647]]]}},{"type":"Feature","properties":{"N03_001":"岡山県","N03_002":null,"N03_003":null,"N03_004":"真庭市","N03_007":"33214"},"geometry":{"type":"Polygon","coordinates":[[[-41.822616888580576,76.59330506842603],[-41.815363360933695,76.59362507839148],[-41.82229496723108,76.59368399090792],[-41.81963841732034,76.59428720178543],[-41.82710810645147,76.59439110308666],[-41.82242452306467,76.59472664793151],[-41.83012224634972,76.59379409256384],[-41.821919178159874,76.59365336316928],[-41.83324756517327,76.59254589008032],[-41.82542941419812,76.59095544607786],[-41.809567300559834,76.5913519906785],[-41.80325624160156,76.59273187036457],[-41.77188688768378,76.59449547264865],[-41.74939330405603,76.59401867883213],[-41.73003514742523,76.59388551422222],[-41.739834436021596,76.59594283420563],[-41.74071989518552,76.59660351361418],[-41.72483769566347,76.59646417625811],[-41.72720793518791,76.59631873154204],[-41.71557780443259,76.5958559326862],[-41.721418885277785,76.59543311776314],[-41.733786461657736,76.59521524899093],[-41.744756760566425,76.59477757771577],[-41.740741908662955,76.59393118802065],[-41.72971947803698,76.5940064228745],[-41.718505793913536,76.59498048718038],[-41.71871025502359,76.59593400930068],[-41.738574079173546,76.59694740079051],[-41.76293163645209,76.59722058620603],[-41.77755844990358,76.59645564142498],[-41.790453166521225,76.59801873214045],[-41.8161855305411,76.59906983666858],[-41.823631815201054,76.59699639461674],[-41.82096560572551,76.59333484845153],[-41.8099562965847,76.59306815579346],[-41.80678036032281,76.59339297385291],[-41.813925248196036,76.59333441064703],[-41.81599193551084,76.59343569936873],[-41.822616888580576,76.59330506842603]]]}},{"type":"Feature","properties":{"N03_001":"岡山県","N03_002":null,"N03_003":null,"N03_004":"美作市","N03_007":"33215"},"geometry":{"type":"Polygon","coordinates":[[[-41.488454318645374,76.59000060892795],[-41.474523372786855,76.59049110806268],[-41.47085684610165,76.5919865658025],[-41.46197160198988,76.59201476323207],[-41.45165036673105,76.59215162662535],[-41.45076265102354,76.59262209293034],[-41.460116368577495,76.59291915916754],[-41.44472596634353,76.59310403463817],[-41.43573350431119,76.59298367845936],[-41.435539772244724,76.59348158912498],[-41.417946049480854,76.59360135819968],[-41.40421193903355,76.59551153497748],[-41.37883649080484,76.59574011594276],[-41.37669555088127,76.59728438170414],[-41.3933423146153,76.59746877476903],[-41.424545320218876,76.59514267130756],[-41.44797486496139,76.59519308426859],[-41.45335906143745,76.59685751731013],[-41.4647578001178,76.59734542717614],[-41.491144081118335,76.59623076376448],[-41.48397684495375,76.59482782432214],[-41.4820447191899,76.59425734672708],[-41.51106066536281,76.59452561457525],[-41.506574242491425,76.5943953536184],[-41.51056308051484,76.5943107163712],[-41.52979626674248,76.59487449479167],[-41.52554755892216,76.59453191376822],[-41.55830768415188,76.59521740262714],[-41.54677740137327,76.59342271370735],[-41.54473439850131,76.59241005466147],[-41.528964659383085,76.59180777385747],[-41.529240142672215,76.59081454385972],[-41.51232703728078,76.59029147832504],[-41.50277116483415,76.59067463252221],[-41.488454318645374,76.59000060892795]]]}},{"type":"Feature","properties":{"N03_001":"岡山県","N03_002":null,"N03_003":null,"N03_004":"浅口市","N03_007":"33216"},"geometry":{"type":"Polygon","coordinates":[[[-41.803479792053814,76.5750837556467],[-41.81192606782261,76.57569339148948],[-41.84435491716563,76.57631386869518],[-41.868816178944776,76.56638540181866],[-41.832903736735894,76.56092406382481],[-41.844350175232314,76.55827863276238],[-41.83623647376034,76.55748964839835],[-41.812051738830775,76.5585741900685],[-41.790817407026424,76.56114149418354],[-41.779038436017935,76.57098885470695],[-41.803479792053814,76.5750837556467]]]}}]}