{"type":"FeatureCollection","features":[{"type":"Feature","properties":{"N03_001":"石川県","N03_002":null,"N03_003":null,"N03_004":"金沢市","N03_007":"17201"},"geometry":{"type":"Polygon","coordinates":[[[-40.16541846110312,76.66658525022027],[-40.143580113117196,76.66924064595501],[-40.06510722379883,76.66579282689712],[-40.111233361022286,76.64922452177096],[-40.1069568849223,76.64980769547418],[-40.10261556879455,76.65137395563019],[-40.10228062632029,76.6525313700999],[-40.095279086684826,76.65429227362341],[-40.081345484952216,76.65627853631139],[-40.07517444567965,76.65660224390214],[-40.07053022891282,76.65598555009005],[-40.0726400523576,76.65382781428154],[-40.07602128187586,76.65248788137848],[-40.071732201248196,76.65205216709954],[-40.053157129882415,76.65123403292387],[-40.034676449681385,76.65237326822844],[-40.01287261960459,76.65614307298002],[-40.018562135239115,76.65831171662195],[-40.017790753709036,76.65919995228654],[-40.016549128259555,76.66157609608506],[-40.05041849893822,76.66432520416107],[-40.075444001149336,76.66812541098103],[-40.10078742951483,76.66899205569224],[-40.11707819425503,76.66958072431972],[-40.13930233438031,76.66923307364759],[-40.16541846110312,76.66658525022027]]]}},{"type":"Feature","properties":{"N03_001":"石川県","N03_002":null,"N03_003":null,"N03_004":"小松市","N03_007":"17203"},"geometry":{"type":"Polygon","coordinates":[[[-40.11924392664161,76.65399532947507],[-40.13043250045363,76.6522773358463],[-40.19823409950973,76.64553764184991],[-40.22356631541746,76.65565512648344],[-40.242059707156635,76.65613120445457],[-40.263257175755335,76.65141400562091],[-40.249523857335,76.64657613857396],[-40.22492327059575,76.64340568461826],[-40.20086656118185,76.64437740780902],[-40.14597320658662,76.65970604717813],[-40.13987546907537,76.66150536678742],[-40.13807577481655,76.65552020757403],[-40.15645029041448,76.64966465750605],[-40.14683297156738,76.6504527041444],[-40.12236309255718,76.65878410916149],[-40.12188679945434,76.66318792087307],[-40.11622752532186,76.6626180055725],[-40.112927571481464,76.66035794997991],[-40.117443283517616,76.65955716490262],[-40.12395119734408,76.6594928921423],[-40.12569191843551,76.65750525331418],[-40.11915396744931,76.6565130411868],[-40.11924392664161,76.65399532947507]]]}},{"type":"Feature","properties":{"N03_001":"石川県","N03_002":null,"N03_003":null,"N03_004":"輪島市","N03_007":"17204"},"geometry":{"type":"Polygon","coordinates":[[[-39.84059575051361,76.7090743165922],[-39.81868539477282,76.71036433153084],[-39.840627024807375,76.71063304210018],[-39.845334588245606,76.71138346772831],[-39.864560404668005,76.71140376862753],[-39.87269370180698,76.71076134592452],[-39.95268150110516,76.70651582740265],[-39.969732302031346,76.70638956251179],[-39.98168144471637,76.7063530549293],[-40.010583395516,76.70651540441818],[-40.04568255531168,76.70613779015657],[-40.040344315729605,76.70514578355176],[-40.062495807778646,76.70333584927783],[-40.06828180285796,76.70207407431953],[-40.041098230309984,76.70129701061221],[-40.012735518464346,76.7037264192156],[-39.99175425380299,76.70671308729439],[-39.98645161315435,76.70655006547383],[-39.97085351318078,76.70659708278676],[-39.94702308920281,76.70656337185645],[-39.93648220568531,76.7065824315465],[-39.93216165071646,76.70652109372496],[-39.93528346452436,76.70646420648451],[-39.92256090245148,76.70654725167579],[-39.890262244799644,76.70735923991715],[-39.84059575051361,76.7090743165922]]]}},{"type":"Feature","properties":{"N03_001":"石川県","N03_002":null,"N03_003":null,"N03_004":"珠洲市","N03_007":"17205"},"geometry":{"type":"Polygon","coordinates":[[[-39.84059575051361,76.7090743165922],[-39.828511528949626,76.7072435561218],[-39.77873980139274,76.7083048557475],[-39.77949825724785,76.70907337517193],[-39.768352268752444,76.71079135695473],[-39.74512880707893,76.7113700538311],[-39.71603697853341,76.71141884232257],[-39.710941502631975,76.71244219261078],[-39.72068173153837,76.71344846692236],[-39.71414097927742,76.71421836464],[-39.727744907113646,76.71550403263154],[-39.75656194384505,76.71546525802219],[-39.7896291406024,76.71401060742838],[-39.809453381731856,76.71347238073997],[-39.82935411814665,76.713319743507],[-39.85867884462633,76.71210152312158],[-39.864560404668005,76.71140376862753],[-39.845334588245606,76.71138346772831],[-39.840627024807375,76.71063304210018],[-39.81868539477282,76.71036433153084],[-39.84059575051361,76.7090743165922]]]}},{"type":"Feature","properties":{"N03_001":"石川県","N03_002":null,"N03_003":null,"N03_004":"加賀市","N03_007":"17206"},"geometry":{"type":"Polygon","coordinates":[[[-40.263257175755335,76.65141400562091],[-40.27319136730147,76.6506920805353],[-40.295191233610545,76.65152914272817],[-40.30311306555652,76.65047183306834],[-40.319980642100575,76.64994654526352],[-40.30336258905883,76.64854455519298],[-40.27907779692716,76.6474619813852],[-40.26005269298154,76.64685615253404],[-40.26056069144731,76.64695371340208],[-40.252926487991736,76.64676996186995],[-40.226956008769,76.64691185790291],[-40.21591394666281,76.64691520548989],[-40.19876674408109,76.6467526702779],[-40.18278609864693,76.64724919789559],[-40.15645029041448,76.64966465750605],[-40.13807577481655,76.65552020757403],[-40.13987546907537,76.66150536678742],[-40.14597320658662,76.65970604717813],[-40.20086656118185,76.64437740780902],[-40.22492327059575,76.64340568461826],[-40.249523857335,76.64657613857396],[-40.263257175755335,76.65141400562091]]]}},{"type":"Feature","properties":{"N03_001":"石川県","N03_002":null,"N03_003":null,"N03_004":"羽咋市","N03_007":"17207"},"geometry":{"type":"Polygon","coordinates":[[[-39.953810035953886,76.68514543458217],[-39.96637018224692,76.68835379904074],[-39.998926245783686,76.69095407333549],[-40.02892734593505,76.69032454229452],[-40.040451459695525,76.69030143630621],[-40.05635135214325,76.6871646148395],[-40.04905346266659,76.68446685873762],[-40.04728911114108,76.6818467359582],[-40.03451589584909,76.68114003314277],[-40.01965692015915,76.68178811440265],[-39.99537241133517,76.68147393757673],[-39.98666267140621,76.67975223718669],[-39.96345961884921,76.68056239536436],[-39.955143648314525,76.6821457676144],[-39.953810035953886,76.68514543458217]]]}},{"type":"Feature","properties":{"N03_001":"石川県","N03_002":null,"N03_003":null,"N03_004":"かほく市","N03_007":"17209"},"geometry":{"type":"Polygon","coordinates":[[[-39.99221124811985,76.67526608383137],[-40.01901915240998,76.67860358779672],[-40.06518015949069,76.68039537668152],[-40.096561965286156,76.67039751678487],[-40.07291592449984,76.6681136492306],[-40.07287106694993,76.66844798515685],[-40.043926680486045,76.66605501026167],[-40.03745551146924,76.66646949227294],[-40.00467839144117,76.67462690284023],[-39.99221124811985,76.67526608383137]]]}},{"type":"Feature","properties":{"N03_001":"石川県","N03_002":null,"N03_003":null,"N03_004":"白山市","N03_007":"17210"},"geometry":{"type":"Polygon","coordinates":[[[-40.07517444567965,76.65660224390214],[-40.081345484952216,76.65627853631139],[-40.095279086684826,76.65429227362341],[-40.10228062632029,76.6525313700999],[-40.10261556879455,76.65137395563019],[-40.1069568849223,76.64980769547418],[-40.111233361022286,76.64922452177096],[-40.11589859689304,76.64896018761006],[-40.143580113117196,76.66924064595501],[-40.16541846110312,76.66658525022027],[-40.209551383591325,76.66041546499318],[-40.19872238532999,76.66038922083357],[-40.186951967684145,76.66006802366402],[-40.13851522087846,76.65360025693516],[-40.13221730266812,76.65236624930715],[-40.113950980116975,76.65104504050676],[-40.107505050462755,76.6520053461813],[-40.11429849023858,76.65398372267333],[-40.11924392664161,76.65399532947507],[-40.11915396744931,76.6565130411868],[-40.12569191843551,76.65750525331418],[-40.12395119734408,76.6594928921423],[-40.117443283517616,76.65955716490262],[-40.112927571481464,76.66035794997991],[-40.11622752532186,76.6626180055725],[-40.12188679945434,76.66318792087307],[-40.12236309255718,76.65878410916149],[-40.10848631728078,76.65538100989747],[-40.10772155915417,76.65176114825296],[-40.09815779631846,76.65082403149728],[-40.09299817400152,76.64758655188808],[-40.08613746131575,76.6474126265874],[-40.068184991083506,76.64877527031169],[-40.05099795616571,76.64859542436183],[-40.04823657577793,76.65031073167843],[-40.04824211193592,76.65397146500558],[-40.06666510543927,76.65997578992227],[-40.05770828606619,76.6593257995086],[-40.05446629715756,76.6596150782326],[-40.055114022972425,76.65952278760359],[-40.06883622164174,76.66026526425632],[-40.073572202472214,76.65868135554324],[-40.07517444567965,76.65660224390214]]]}},{"type":"Feature","properties":{"N03_001":"石川県","N03_002":null,"N03_003":null,"N03_004":"能美市","N03_007":"17211"},"geometry":{"type":"Polygon","coordinates":[[[-40.11924392664161,76.65399532947507],[-40.11429849023858,76.65398372267333],[-40.107505050462755,76.6520053461813],[-40.113950980116975,76.65104504050676],[-40.19872238532999,76.66038922083357],[-40.209551383591325,76.66041546499318],[-40.242059707156635,76.65613120445457],[-40.22356631541746,76.65565512648344],[-40.19823409950973,76.64553764184991],[-40.13043250045363,76.6522773358463],[-40.11924392664161,76.65399532947507]]]}},{"type":"Feature","properties":{"N03_001":"石川県","N03_002":null,"N03_003":null,"N03_004":"野々市市","N03_007":"17212"},"geometry":{"type":"Polygon","coordinates":[[[-40.143580113117196,76.66924064595501],[-40.11589859689304,76.64896018761006],[-40.111233361022286,76.64922452177096],[-40.06510722379883,76.66579282689712],[-40.143580113117196,76.66924064595501]]]}}]}