{"type":"FeatureCollection","features":[{"type":"Feature","properties":{"N03_001":"岐阜県","N03_002":null,"N03_003":null,"N03_004":"岐阜市","N03_007":"21201"},"geometry":{"type":"Polygon","coordinates":[[[-39.999401957577135,76.62735791855752],[-40.00745756730688,76.62510464419348],[-40.06910239638276,76.62659978891483],[-40.08240972681399,76.6272745040015],[-40.09195136948893,76.62615301417495],[-40.08519934070108,76.62515397700349],[-40.0838560621289,76.62350890348289],[-40.06813890048188,76.62004219743731],[-40.05374586502515,76.61212304107197],[-40.07516239320624,76.60947313022898],[-40.08749154938902,76.60898158077578],[-40.04041830380907,76.61012111540367],[-40.02470604377155,76.61007492620251],[-40.0168986940805,76.6120134975354],[-40.00246401257729,76.60931045642968],[-39.99975726525373,76.61871121316936],[-39.95268871359677,76.6229045219481],[-39.95099298917929,76.62326041260484],[-39.97286116105891,76.62385656001183],[-39.97964165590712,76.62528392397036],[-39.999401957577135,76.62735791855752]]]}},{"type":"Feature","properties":{"N03_001":"岐阜県","N03_002":null,"N03_003":null,"N03_004":"高山市","N03_007":"21203"},"geometry":{"type":"Polygon","coordinates":[[[-39.63249083590348,76.64805026506505],[-39.70023184555578,76.63506577643463],[-39.711456397338466,76.63404188259177],[-39.72014293272882,76.6339636506565],[-39.73378061693333,76.63382635717818],[-39.730428607807085,76.63484094058029],[-39.73193926214627,76.63578487979655],[-39.74196398836463,76.63615477550022],[-39.757614137297296,76.63637163107988],[-39.76196827397327,76.63722717181234],[-39.777204160111225,76.638560615755],[-39.7873138819568,76.63992237426453],[-39.79181655592342,76.63982780068642],[-39.801625178677035,76.64100792194816],[-39.81066965377195,76.63980891240732],[-39.814188123051025,76.6404502499023],[-39.82544362806602,76.64079484935219],[-39.84251413024439,76.64100875474465],[-39.847965279924935,76.64080013005784],[-39.85063521410963,76.64302836523727],[-39.84430525459996,76.64353965204698],[-39.85826524938562,76.6444607388297],[-39.88379801865028,76.64352781756229],[-39.91700334268184,76.64308525222941],[-39.944836822379074,76.64291269210005],[-39.98185830483725,76.64366519303313],[-39.988132952684666,76.64326890886791],[-39.98043569410908,76.64268744947988],[-39.95880614612218,76.64198548402415],[-39.945543321317324,76.64070421392273],[-39.92618085186701,76.64046971213247],[-39.89667758843637,76.64186026585597],[-39.881034710840495,76.64239618365637],[-39.871597491738015,76.6429917563751],[-39.86872898078664,76.64375822611665],[-39.85168842095296,76.6448920822255],[-39.821081764654,76.64889128117946],[-39.81687268143599,76.64937557803906],[-39.82135890504379,76.64834557113329],[-39.805049808486395,76.65043049490724],[-39.79737825694176,76.64855822063593],[-39.78167607631757,76.64621777994867],[-39.768385783442966,76.64679545186922],[-39.76107191069145,76.64830979119908],[-39.752230080423416,76.64835775569998],[-39.73867659859713,76.64772033833157],[-39.736329258791216,76.6488887280583],[-39.7303369726115,76.65011186712988],[-39.723059309701085,76.64930136333143],[-39.71392970690345,76.6497456778594],[-39.71251403157222,76.65045983422338],[-39.69446279292186,76.6499357041211],[-39.682350794224746,76.64892930598455],[-39.68128041790067,76.64849191502734],[-39.64724207291351,76.6456730123018],[-39.644725791153874,76.64539127925406],[-39.638812874331286,76.64473346952623],[-39.650779148923675,76.64480285529159],[-39.676426650528356,76.64467586876053],[-39.68304397819953,76.64373689125831],[-39.67740922441544,76.64204654393555],[-39.66776130695377,76.64189140542163],[-39.6628779798376,76.6411674721154],[-39.66649611947387,76.63999809377653],[-39.602600839335764,76.64499465478542],[-39.58748877681071,76.64627520161149],[-39.58062326380778,76.64857562542535],[-39.593021315074154,76.64895532132343],[-39.6102462225238,76.64831852184689],[-39.607457980910155,76.64948509774358],[-39.63249083590348,76.64805026506505]]]}},{"type":"Feature","properties":{"N03_001":"岐阜県","N03_002":null,"N03_003":null,"N03_004":"多治見市","N03_007":"21204"},"geometry":{"type":"Polygon","coordinates":[[[-39.79082134097098,76.61860007403125],[-39.81372555391635,76.6171517262662],[-39.83943263864179,76.61520403502784],[-39.86367495363264,76.61201455565865],[-39.87390524532925,76.60755168717404],[-39.85244522494609,76.59861860454106],[-39.84087886709592,76.59788614540555],[-39.81083000662731,76.59763593941749],[-39.78105587717867,76.59758707231576],[-39.77629286846873,76.59964042442448],[-39.79411430113362,76.6164548997046],[-39.79082134097098,76.61860007403125]]]}},{"type":"Feature","properties":{"N03_001":"岐阜県","N03_002":null,"N03_003":null,"N03_004":"関市","N03_007":"21205"},"geometry":{"type":"Polygon","coordinates":[[[-40.053569423601175,76.6383833823812],[-40.04204051284315,76.63854812097804],[-40.04991860412854,76.63803723089617],[-40.04145885292462,76.63822891903098],[-40.011681462239196,76.63884754471664],[-40.02359048205968,76.63872765834543],[-39.98130613173533,76.63860002131601],[-39.981070299156,76.63914234472361],[-39.966998043126246,76.64013798796293],[-39.98363329687117,76.6403859701301],[-40.002378867293146,76.63723871803076],[-39.99905996434054,76.63064864765033],[-39.999401957577135,76.62735791855752],[-39.97964165590712,76.62528392397036],[-39.97286116105891,76.62385656001183],[-39.95099298917929,76.62326041260484],[-39.95268871359677,76.6229045219481],[-39.93665411914556,76.62231642554589],[-39.90479190374434,76.61748967421433],[-39.90642347614763,76.61913104965934],[-39.91261248612332,76.62212198335452],[-39.90893965192397,76.62689974490361],[-39.87797573495695,76.63473148565024],[-39.86424091208149,76.63776302995693],[-39.84577864316381,76.63700786978053],[-39.83253891601859,76.63696071603373],[-39.849570556834045,76.63853361282449],[-39.84843681639197,76.63946537272349],[-39.83289372631288,76.63935796467301],[-39.83531305273604,76.64171449453588],[-39.86092580570195,76.64345521657187],[-39.85805710632244,76.64140277194373],[-39.87403850605871,76.64038635759759],[-39.8794390867905,76.64097568183335],[-39.89642941304888,76.63999797076372],[-39.89386549949723,76.64011432226539],[-39.89081600892366,76.64008265944423],[-39.909639351093745,76.62745416394031],[-39.938865942743426,76.62519044572088],[-39.94648660558825,76.62494684291926],[-39.97078351615725,76.6257690299001],[-39.97906644698685,76.64045417467668],[-39.9464488952506,76.64132008424805],[-39.932689017330524,76.6403499644813],[-39.944505780668656,76.63877913872734],[-39.93528322073891,76.64075522878389],[-39.94305447736449,76.6404767571235],[-39.94433030404639,76.64048890720922],[-39.957768984468665,76.64001321967545],[-39.95940299904206,76.63998777872837],[-39.97971646036677,76.63938570973582],[-40.003725251221745,76.63918771773233],[-40.01712825490944,76.63903615884158],[-40.053569423601175,76.6383833823812]]]}},{"type":"Feature","properties":{"N03_001":"岐阜県","N03_002":null,"N03_003":null,"N03_004":"中津川市","N03_007":"21206"},"geometry":{"type":"Polygon","coordinates":[[[-39.719830755772094,76.64492541347452],[-39.72665310488705,76.64318000628035],[-39.71842425998356,76.63869474930313],[-39.70805464555739,76.63661930392193],[-39.685084678953565,76.63257391089083],[-39.66457519610521,76.6293843025634],[-39.658105538643284,76.62846704362852],[-39.66401812067046,76.62858811577459],[-39.660748194779664,76.62822699790625],[-39.664399853649684,76.62816658485563],[-39.67702547227768,76.62866632065766],[-39.67846096571089,76.62856655567923],[-39.67335827686397,76.62799897056536],[-39.65710413218677,76.62721530323779],[-39.65415646438932,76.62698195456744],[-39.639732506151574,76.62623190697104],[-39.625886457976286,76.6223874275618],[-39.63302789402165,76.62017941251256],[-39.617552742801195,76.61503148130215],[-39.60762237458168,76.61427750825627],[-39.58968795338118,76.61510556700445],[-39.575182287564026,76.61636331147024],[-39.55299686081849,76.61512803002346],[-39.54582301091569,76.61541634912487],[-39.55823373766537,76.61805778247148],[-39.571367122116335,76.6198565572733],[-39.55750257313291,76.62115726463605],[-39.5628635779734,76.62323483855378],[-39.58195056184211,76.62533065558743],[-39.594908192638094,76.62581172402284],[-39.59739383029059,76.6260938640857],[-39.60814895202252,76.62650228238229],[-39.61890372785779,76.62731537829302],[-39.611090624753054,76.62697318390693],[-39.62678083535715,76.62774320170149],[-39.64023687613653,76.6315587201464],[-39.662978768740295,76.6370849748826],[-39.69748835108765,76.64133247683014],[-39.7060655401351,76.64390125790095],[-39.719830755772094,76.64492541347452]]]}},{"type":"Feature","properties":{"N03_001":"岐阜県","N03_002":null,"N03_003":null,"N03_004":"美濃市","N03_007":"21207"},"geometry":{"type":"Polygon","coordinates":[[[-39.89386549949723,76.64011432226539],[-39.90263145786873,76.6406532645261],[-39.90956624049866,76.64141009006269],[-39.92572571432161,76.64053926683889],[-39.932689017330524,76.6403499644813],[-39.9464488952506,76.64132008424805],[-39.97906644698685,76.64045417467668],[-39.97078351615725,76.6257690299001],[-39.94648660558825,76.62494684291926],[-39.938865942743426,76.62519044572088],[-39.909639351093745,76.62745416394031],[-39.89081600892366,76.64008265944423],[-39.89386549949723,76.64011432226539]]]}},{"type":"Feature","properties":{"N03_001":"岐阜県","N03_002":null,"N03_003":null,"N03_004":"瑞浪市","N03_007":"21208"},"geometry":{"type":"Polygon","coordinates":[[[-39.71853270748143,76.62762571791825],[-39.7459344328443,76.62719355831685],[-39.760787247055454,76.62190734991661],[-39.74774360620823,76.62138388808604],[-39.74267788986863,76.61647783918636],[-39.71505434227197,76.60792096189552],[-39.69500098176948,76.60699793834335],[-39.70537428154434,76.60319114612773],[-39.68871423917538,76.60496019146805],[-39.678321378804775,76.60625708923669],[-39.670132264124206,76.61024477501464],[-39.68294958539376,76.61002361790761],[-39.667502820702985,76.6155933564558],[-39.66339323527783,76.62244133706417],[-39.6732774480338,76.62627748581994],[-39.70491175467536,76.62763182558578],[-39.71853270748143,76.62762571791825]]]}},{"type":"Feature","properties":{"N03_001":"岐阜県","N03_002":null,"N03_003":null,"N03_004":"羽島市","N03_007":"21209"},"geometry":{"type":"Polygon","coordinates":[[[-40.08749154938902,76.60898158077578],[-40.090747734594444,76.60894797051438],[-40.13027651977951,76.60393492757768],[-40.11964998870451,76.60092381609479],[-40.1005738857485,76.597935155289],[-40.110811383937346,76.59920419211963],[-40.07401997307832,76.59556711969903],[-40.057348902489224,76.59475971809358],[-40.02517707472649,76.59924613841173],[-40.02105958001843,76.60762567264852],[-40.04041830380907,76.61012111540367],[-40.08749154938902,76.60898158077578]]]}},{"type":"Feature","properties":{"N03_001":"岐阜県","N03_002":null,"N03_003":null,"N03_004":"恵那市","N03_007":"21210"},"geometry":{"type":"Polygon","coordinates":[[[-39.575182287564026,76.61636331147024],[-39.58968795338118,76.61510556700445],[-39.60762237458168,76.61427750825627],[-39.617552742801195,76.61503148130215],[-39.63302789402165,76.62017941251256],[-39.625886457976286,76.6223874275618],[-39.639732506151574,76.62623190697104],[-39.65415646438932,76.62698195456744],[-39.65710413218677,76.62721530323779],[-39.67335827686397,76.62799897056536],[-39.67846096571089,76.62856655567923],[-39.68411670018923,76.62867044058034],[-39.70790318022423,76.6292766519971],[-39.697780765859065,76.62877671007844],[-39.71853270748143,76.62762571791825],[-39.70491175467536,76.62763182558578],[-39.6732774480338,76.62627748581994],[-39.66339323527783,76.62244133706417],[-39.667502820702985,76.6155933564558],[-39.68294958539376,76.61002361790761],[-39.670132264124206,76.61024477501464],[-39.678321378804775,76.60625708923669],[-39.68871423917538,76.60496019146805],[-39.674423510813774,76.60470179049388],[-39.67739324773034,76.60323607722444],[-39.65737841016648,76.60447452698743],[-39.65809762300217,76.6029271636966],[-39.644231947895385,76.60350053820096],[-39.64143812050274,76.60252728732219],[-39.62261781879683,76.6041401606716],[-39.59754893916702,76.60678195108687],[-39.575097142842296,76.60816045215469],[-39.569882353740795,76.6101877799133],[-39.55746337557031,76.61096373203635],[-39.56223090839896,76.61450196435372],[-39.575182287564026,76.61636331147024]]]}},{"type":"Feature","properties":{"N03_001":"岐阜県","N03_002":null,"N03_003":null,"N03_004":"美濃加茂市","N03_007":"21211"},"geometry":{"type":"Polygon","coordinates":[[[-39.87797573495695,76.63473148565024],[-39.86611901784228,76.62753354309478],[-39.91261248612332,76.62212198335452],[-39.90642347614763,76.61913104965934],[-39.90098341887333,76.61887464372334],[-39.87479279228404,76.61529243300242],[-39.83368898451238,76.61700195135393],[-39.81975183427749,76.61852834143384],[-39.80723345149141,76.6207641446213],[-39.806677580372124,76.62092131033364],[-39.79751651686792,76.62498980621659],[-39.81848312791416,76.62662737426514],[-39.83872860967648,76.63240381430991],[-39.82605516028414,76.63496724893477],[-39.83643552057818,76.63646668439014],[-39.84577864316381,76.63700786978053],[-39.86424091208149,76.63776302995693],[-39.87797573495695,76.63473148565024]]]}},{"type":"Feature","properties":{"N03_001":"岐阜県","N03_002":null,"N03_003":null,"N03_004":"土岐市","N03_007":"21212"},"geometry":{"type":"Polygon","coordinates":[[[-39.78105587717867,76.59758707231576],[-39.77276047785098,76.59739551201022],[-39.7478340502319,76.59838706300928],[-39.70537428154434,76.60319114612773],[-39.69500098176948,76.60699793834335],[-39.71505434227197,76.60792096189552],[-39.74267788986863,76.61647783918636],[-39.74774360620823,76.62138388808604],[-39.760787247055454,76.62190734991661],[-39.779045351394714,76.62040625927082],[-39.79082134097098,76.61860007403125],[-39.79411430113362,76.6164548997046],[-39.77629286846873,76.59964042442448],[-39.78105587717867,76.59758707231576]]]}},{"type":"Feature","properties":{"N03_001":"岐阜県","N03_002":null,"N03_003":null,"N03_004":"各務原市","N03_007":"21213"},"geometry":{"type":"Polygon","coordinates":[[[-40.00246401257729,76.60931045642968],[-39.997890998120376,76.60819122738624],[-40.005879766933454,76.60764533256847],[-39.982461195216324,76.60486330737136],[-39.94157692462154,76.605735505796],[-39.918960665587065,76.60715869945356],[-39.8950976841667,76.61277903046634],[-39.89533855176235,76.6149080650191],[-39.90479190374434,76.61748967421433],[-39.93665411914556,76.62231642554589],[-39.95268871359677,76.6229045219481],[-39.99975726525373,76.61871121316936],[-40.00246401257729,76.60931045642968]]]}},{"type":"Feature","properties":{"N03_001":"岐阜県","N03_002":null,"N03_003":null,"N03_004":"山県市","N03_007":"21215"},"geometry":{"type":"Polygon","coordinates":[[[-39.999401957577135,76.62735791855752],[-39.99905996434054,76.63064864765033],[-40.002378867293146,76.63723871803076],[-39.98363329687117,76.6403859701301],[-39.966998043126246,76.64013798796293],[-39.981070299156,76.63914234472361],[-39.98130613173533,76.63860002131601],[-40.02359048205968,76.63872765834543],[-40.011681462239196,76.63884754471664],[-40.04145885292462,76.63822891903098],[-40.06534745884038,76.63626271868127],[-40.092305527570666,76.63256893646582],[-40.09786818182991,76.63053798461635],[-40.08907179775669,76.62911440724076],[-40.08240972681399,76.6272745040015],[-40.06910239638276,76.62659978891483],[-40.00745756730688,76.62510464419348],[-39.999401957577135,76.62735791855752]]]}},{"type":"Feature","properties":{"N03_001":"岐阜県","N03_002":null,"N03_003":null,"N03_004":"瑞穂市","N03_007":"21216"},"geometry":{"type":"Polygon","coordinates":[[[-40.06813890048188,76.62004219743731],[-40.09069128341736,76.6235515826582],[-40.14345020470191,76.62098756499852],[-40.155159114853845,76.61642352815613],[-40.15468322847823,76.61042224160832],[-40.14289349680745,76.60766445230814],[-40.11067194001233,76.60682391162382],[-40.07516239320624,76.60947313022898],[-40.05374586502515,76.61212304107197],[-40.06813890048188,76.62004219743731]]]}},{"type":"Feature","properties":{"N03_001":"岐阜県","N03_002":null,"N03_003":null,"N03_004":"飛騨市","N03_007":"21217"},"geometry":{"type":"Polygon","coordinates":[[[-39.847965279924935,76.64080013005784],[-39.84251413024439,76.64100875474465],[-39.82544362806602,76.64079484935219],[-39.814188123051025,76.6404502499023],[-39.81066965377195,76.63980891240732],[-39.801625178677035,76.64100792194816],[-39.79181655592342,76.63982780068642],[-39.7873138819568,76.63992237426453],[-39.777204160111225,76.638560615755],[-39.76196827397327,76.63722717181234],[-39.757614137297296,76.63637163107988],[-39.74196398836463,76.63615477550022],[-39.73193926214627,76.63578487979655],[-39.730428607807085,76.63484094058029],[-39.73378061693333,76.63382635717818],[-39.72014293272882,76.6339636506565],[-39.711456397338466,76.63404188259177],[-39.70023184555578,76.63506577643463],[-39.63249083590348,76.64805026506505],[-39.64307504870584,76.64962378297335],[-39.66114642200478,76.64875889122047],[-39.66747221415777,76.6470165941323],[-39.68862215585132,76.64722269310874],[-39.69729537678493,76.64999140408172],[-39.71327798666934,76.64928445429828],[-39.71581355054092,76.64712613663318],[-39.74329286001625,76.63714105964436],[-39.735834515443415,76.64963453661848],[-39.755137656827664,76.64936985825855],[-39.76829668190677,76.64729732255324],[-39.788205290496755,76.64354440812741],[-39.80686162758455,76.64770736182761],[-39.82547064065579,76.64259533631869],[-39.818372798451854,76.63621287390198],[-39.83048649748801,76.63770790608709],[-39.822669006440925,76.63608043143066],[-39.830895969096545,76.63709995392117],[-39.83522881214032,76.63791012887114],[-39.84459040929595,76.63896206506014],[-39.85050865688052,76.64021547501963],[-39.847965279924935,76.64080013005784]]]}},{"type":"Feature","properties":{"N03_001":"岐阜県","N03_002":null,"N03_003":null,"N03_004":"本巣市","N03_007":"21218"},"geometry":{"type":"Polygon","coordinates":[[[-40.14345020470191,76.62098756499852],[-40.09069128341736,76.6235515826582],[-40.09892677795053,76.6238044427321],[-40.0838560621289,76.62350890348289],[-40.08519934070108,76.62515397700349],[-40.09195136948893,76.62615301417495],[-40.08240972681399,76.6272745040015],[-40.08907179775669,76.62911440724076],[-40.09786818182991,76.63053798461635],[-40.092305527570666,76.63256893646582],[-40.06534745884038,76.63626271868127],[-40.04145885292462,76.63822891903098],[-40.04991860412854,76.63803723089617],[-40.04204051284315,76.63854812097804],[-40.053569423601175,76.6383833823812],[-40.06236287328655,76.63831202128334],[-40.09395935615546,76.63712620620277],[-40.10131474088771,76.63708784528403],[-40.1218762150523,76.63578231800344],[-40.150952004848854,76.63517741835327],[-40.160546281265404,76.63400524424846],[-40.151698615566254,76.63384742583386],[-40.153568393386585,76.63202228011697],[-40.168864710928894,76.63061028542499],[-40.16074626796445,76.62969090260192],[-40.14943296167516,76.62947739891739],[-40.152569264179306,76.6273641602262],[-40.119114453508196,76.62803378900949],[-40.11023054073752,76.62543982050043],[-40.10804945197723,76.62494767336598],[-40.14345020470191,76.62098756499852]]]}},{"type":"Feature","properties":{"N03_001":"岐阜県","N03_002":null,"N03_003":null,"N03_004":"郡上市","N03_007":"21219"},"geometry":{"type":"Polygon","coordinates":[[[-39.95940299904206,76.63998777872837],[-39.957768984468665,76.64001321967545],[-39.94433030404639,76.64048890720922],[-39.94305447736449,76.6404767571235],[-39.93528322073891,76.64075522878389],[-39.944505780668656,76.63877913872734],[-39.932689017330524,76.6403499644813],[-39.92572571432161,76.64053926683889],[-39.90956624049866,76.64141009006269],[-39.90263145786873,76.6406532645261],[-39.89386549949723,76.64011432226539],[-39.89642941304888,76.63999797076372],[-39.8794390867905,76.64097568183335],[-39.87403850605871,76.64038635759759],[-39.85805710632244,76.64140277194373],[-39.86092580570195,76.64345521657187],[-39.85264066217069,76.64444575148491],[-39.818508352438926,76.64537247909941],[-39.819449713219676,76.64700558665879],[-39.81971560595961,76.64746710590127],[-39.792552845616825,76.65130134645945],[-39.805049808486395,76.65043049490724],[-39.82135890504379,76.64834557113329],[-39.81687268143599,76.64937557803906],[-39.821081764654,76.64889128117946],[-39.85168842095296,76.6448920822255],[-39.86872898078664,76.64375822611665],[-39.871597491738015,76.6429917563751],[-39.881034710840495,76.64239618365637],[-39.89667758843637,76.64186026585597],[-39.92618085186701,76.64046971213247],[-39.945543321317324,76.64070421392273],[-39.95880614612218,76.64198548402415],[-39.98043569410908,76.64268744947988],[-39.99909680915946,76.6424579489469],[-40.00226468220477,76.64129415843091],[-39.9860619072155,76.64093264134958],[-39.981303424802896,76.64020122105063],[-39.955640812542505,76.63962358518542],[-39.95796838734415,76.63956056278073],[-39.944271582002074,76.63990248408163],[-39.93966060346728,76.64040815155353],[-39.9518660742982,76.64008746057145],[-39.95940299904206,76.63998777872837]]]}},{"type":"Feature","properties":{"N03_001":"岐阜県","N03_002":null,"N03_003":null,"N03_004":"下呂市","N03_007":"21220"},"geometry":{"type":"Polygon","coordinates":[[[-39.69446279292186,76.6499357041211],[-39.71251403157222,76.65045983422338],[-39.71392970690345,76.6497456778594],[-39.723059309701085,76.64930136333143],[-39.7303369726115,76.65011186712988],[-39.736329258791216,76.6488887280583],[-39.73867659859713,76.64772033833157],[-39.752230080423416,76.64835775569998],[-39.76107191069145,76.64830979119908],[-39.768385783442966,76.64679545186922],[-39.78167607631757,76.64621777994867],[-39.79737825694176,76.64855822063593],[-39.805049808486395,76.65043049490724],[-39.792552845616825,76.65130134645945],[-39.81971560595961,76.64746710590127],[-39.819449713219676,76.64700558665879],[-39.818508352438926,76.64537247909941],[-39.85264066217069,76.64444575148491],[-39.86092580570195,76.64345521657187],[-39.83531305273604,76.64171449453588],[-39.83289372631288,76.63935796467301],[-39.81814261768765,76.63838473346696],[-39.80233632705794,76.63792055377773],[-39.7758659125752,76.63848337862079],[-39.76902431121225,76.63982394233307],[-39.75493477231007,76.63866376918567],[-39.74691959362417,76.63998093724203],[-39.73719757226594,76.63876128355525],[-39.71842425998356,76.63869474930313],[-39.72665310488705,76.64318000628035],[-39.719830755772094,76.64492541347452],[-39.735686508406694,76.6473668682646],[-39.7380239386384,76.65056513453416],[-39.72981855859838,76.64990261455681],[-39.72999273203581,76.65204680642184],[-39.712999993578826,76.65140873887012],[-39.688735763224784,76.64819076333124],[-39.69446279292186,76.6499357041211]]]}},{"type":"Feature","properties":{"N03_001":"岐阜県","N03_002":null,"N03_003":null,"N03_004":"海津市","N03_007":"21221"},"geometry":{"type":"Polygon","coordinates":[[[-40.11964998870451,76.60092381609479],[-40.14234737044098,76.60205273063065],[-40.154027889944246,76.59889753425264],[-40.178777953344934,76.60224457722512],[-40.19587021192293,76.60107827256824],[-40.18551631670832,76.5963494794281],[-40.157327475273014,76.59102444901163],[-40.12961759816289,76.58818414511269],[-40.1028442465451,76.5882856677478],[-40.08423996852405,76.58864684544986],[-40.074279890211216,76.5910032305366],[-40.06605658061679,76.59228640696179],[-40.06881256822561,76.59472969796875],[-40.07401997307832,76.59556711969903],[-40.110811383937346,76.59920419211963],[-40.1005738857485,76.597935155289],[-40.11964998870451,76.60092381609479]]]}}]}