{"type":"FeatureCollection","features":[{"type":"Feature","properties":{"N03_001":"山梨県","N03_002":null,"N03_003":null,"N03_004":"甲府市","N03_007":"19201"},"geometry":{"type":"Polygon","coordinates":[[[-38.999544299529106,76.63117802719249],[-39.025114730829024,76.63139876391529],[-39.04721479958143,76.63213747389226],[-39.051118690785266,76.63262836149363],[-39.04360034594109,76.6327704061787],[-39.014609947646164,76.6288828519203],[-39.023476204196754,76.6268821024011],[-39.04187811435481,76.62703858908247],[-39.03069826312902,76.62425287849801],[-39.03234466254314,76.62483821855358],[-39.01996845909945,76.62532144330291],[-39.00559994889595,76.61398987038372],[-39.006065211884355,76.61254171431675],[-39.00320344893238,76.61206338675689],[-38.992740926604256,76.6123174977295],[-38.97501852289328,76.61375618430341],[-38.988610347454724,76.6151707266997],[-38.984885210928596,76.61801977509674],[-38.99729195039063,76.62439955008364],[-38.98282019378312,76.62472468865212],[-38.991875421284384,76.62587710191637],[-38.98958748071925,76.62648610941046],[-38.99999909626256,76.62714803887476],[-39.001427135967255,76.62826456806772],[-38.98788968451136,76.62935233010435],[-38.988451311619144,76.63027727340793],[-38.97579325404277,76.63053929149365],[-38.978073269494665,76.63068091981363],[-38.999544299529106,76.63117802719249]]]}},{"type":"Feature","properties":{"N03_001":"山梨県","N03_002":null,"N03_003":null,"N03_004":"富士吉田市","N03_007":"19202"},"geometry":{"type":"Polygon","coordinates":[[[-38.85291357901058,76.61303590609319],[-38.861134864826276,76.61470608350061],[-38.88261342724205,76.61693751259803],[-38.88898617282415,76.61693344353588],[-38.910632626707915,76.61482174154166],[-38.92755468444023,76.60994059645698],[-38.94169344431901,76.60799040020747],[-38.93528017023715,76.60446779519154],[-38.892917283193334,76.60455450816578],[-38.87860179018859,76.60468674806789],[-38.85344473501064,76.6060626742143],[-38.871188621794865,76.60689519762825],[-38.867454044231074,76.60865443506329],[-38.88637173620854,76.60974081457765],[-38.88778217781888,76.61142719440798],[-38.880377105971654,76.61374162342454],[-38.86164084647812,76.61265359251585],[-38.85291357901058,76.61303590609319]]]}},{"type":"Feature","properties":{"N03_001":"山梨県","N03_002":null,"N03_003":null,"N03_004":"都留市","N03_007":"19204"},"geometry":{"type":"Polygon","coordinates":[[[-38.85291357901058,76.61303590609319],[-38.83129573819667,76.6102491639388],[-38.81937173104416,76.61060102890704],[-38.816722921895206,76.61207054157059],[-38.7952920470222,76.61339815565074],[-38.766773050645945,76.61567803904244],[-38.78183485717329,76.61823377369332],[-38.8073358473309,76.61918258537673],[-38.81870161268681,76.6207470644175],[-38.83949077361199,76.6205535284702],[-38.85735568256267,76.6202043078749],[-38.87005918681062,76.62037986332268],[-38.891316284846596,76.61931937110724],[-38.886485619102004,76.6180585636691],[-38.867412256373974,76.61790442207436],[-38.861134864826276,76.61470608350061],[-38.85291357901058,76.61303590609319]]]}},{"type":"Feature","properties":{"N03_001":"山梨県","N03_002":null,"N03_003":null,"N03_004":"山梨市","N03_007":"19205"},"geometry":{"type":"Polygon","coordinates":[[[-38.97579325404277,76.63053929149365],[-38.988451311619144,76.63027727340793],[-38.98788968451136,76.62935233010435],[-39.001427135967255,76.62826456806772],[-38.99999909626256,76.62714803887476],[-38.98958748071925,76.62648610941046],[-38.96729080463853,76.62502225632245],[-38.94236393209069,76.62484060308746],[-38.93857982223358,76.6256442728169],[-38.946794543218274,76.62666745178448],[-38.93768442908905,76.62716637767271],[-38.92947068661867,76.62720765632045],[-38.930580646402326,76.62758336487448],[-38.9108609386883,76.62739082635017],[-38.91162571595381,76.62832638710019],[-38.89422404914086,76.63003597341479],[-38.9071303503443,76.6314051270637],[-38.940031014022274,76.63200938151088],[-38.95157135681207,76.63203343381429],[-38.97579325404277,76.63053929149365]]]}},{"type":"Feature","properties":{"N03_001":"山梨県","N03_002":null,"N03_003":null,"N03_004":"大月市","N03_007":"19206"},"geometry":{"type":"Polygon","coordinates":[[[-38.78183485717329,76.61823377369332],[-38.745671322311054,76.6173482946869],[-38.7489530120292,76.61938786837747],[-38.77476129899457,76.6199377021365],[-38.78423616191907,76.6210943317963],[-38.777341465195384,76.62168783937295],[-38.792257075585454,76.62229685434204],[-38.80619511726597,76.6234715213352],[-38.831868444635845,76.624826506418],[-38.85315974775829,76.62503924524134],[-38.86669587112061,76.62503473333952],[-38.86289864680009,76.62367577413171],[-38.86808499434193,76.62347162582222],[-38.86445236421398,76.6227153461368],[-38.87357708019444,76.62224429217362],[-38.90784263905795,76.62121798067739],[-38.894712402328494,76.61913090847874],[-38.891316284846596,76.61931937110724],[-38.87005918681062,76.62037986332268],[-38.85735568256267,76.6202043078749],[-38.83949077361199,76.6205535284702],[-38.81870161268681,76.6207470644175],[-38.8073358473309,76.61918258537673],[-38.78183485717329,76.61823377369332]]]}},{"type":"Feature","properties":{"N03_001":"山梨県","N03_002":null,"N03_003":null,"N03_004":"韮崎市","N03_007":"19207"},"geometry":{"type":"Polygon","coordinates":[[[-39.084323721731586,76.63440592561439],[-39.10589645522058,76.63486112367048],[-39.11251992755818,76.63424087633592],[-39.12536099906189,76.63394810249335],[-39.13934184637234,76.63393408964134],[-39.173291711601394,76.6265383247371],[-39.18089394764514,76.62600684082675],[-39.17295464681174,76.62364380572006],[-39.164520146544604,76.62316405062283],[-39.15101445453007,76.62330256662945],[-39.119173348232984,76.62180802482442],[-39.0823771949045,76.62280807603184],[-39.100701826929516,76.62747561209007],[-39.07166187903949,76.63384222033844],[-39.07435581827421,76.63426174313182],[-39.084323721731586,76.63440592561439]]]}},{"type":"Feature","properties":{"N03_001":"山梨県","N03_002":null,"N03_003":null,"N03_004":"南アルプス市","N03_007":"19208"},"geometry":{"type":"Polygon","coordinates":[[[-39.18089394764514,76.62600684082675],[-39.20647106194749,76.62742186310354],[-39.206875087166885,76.62833715689872],[-39.23697783443546,76.62493280889038],[-39.23149613826347,76.62293646567862],[-39.21813304990008,76.62167535566064],[-39.21249726812013,76.62181252996207],[-39.17418309004978,76.62185429180228],[-39.165715115201074,76.62057664775058],[-39.156502950814726,76.61983285984745],[-39.13041382418354,76.61977504301868],[-39.12329437343269,76.61862404647363],[-39.10270904222424,76.61751674806374],[-39.09415682317811,76.6154892135632],[-39.088966943776484,76.61587447735768],[-39.08354040595232,76.62123288886896],[-39.06921396210347,76.62336860930327],[-39.06652145684828,76.62351480360095],[-39.07236604910249,76.62300634221323],[-39.0823771949045,76.62280807603184],[-39.119173348232984,76.62180802482442],[-39.15101445453007,76.62330256662945],[-39.164520146544604,76.62316405062283],[-39.17295464681174,76.62364380572006],[-39.18089394764514,76.62600684082675]]]}},{"type":"Feature","properties":{"N03_001":"山梨県","N03_002":null,"N03_003":null,"N03_004":"北杜市","N03_007":"19209"},"geometry":{"type":"Polygon","coordinates":[[[-38.999544299529106,76.63117802719249],[-39.020422239068,76.6327769712986],[-39.04644227607461,76.63239752281808],[-39.0858017663179,76.63047067897563],[-39.08927327911178,76.6307521542476],[-39.10175258396024,76.63065186913877],[-39.10145410097938,76.62987146077185],[-39.1115058377854,76.62983833419379],[-39.131511834532105,76.63073545907442],[-39.13443615704325,76.62971580773979],[-39.147035671751986,76.63047731302777],[-39.16187515144016,76.63126030548801],[-39.177494622021115,76.63080124223023],[-39.225947542734325,76.62936845454972],[-39.221284168488566,76.62888243094562],[-39.206875087166885,76.62833715689872],[-39.20647106194749,76.62742186310354],[-39.18089394764514,76.62600684082675],[-39.173291711601394,76.6265383247371],[-39.13934184637234,76.63393408964134],[-39.12536099906189,76.63394810249335],[-39.11251992755818,76.63424087633592],[-39.10589645522058,76.63486112367048],[-39.084323721731586,76.63440592561439],[-39.07915783331307,76.63344836529716],[-39.051118690785266,76.63262836149363],[-39.04721479958143,76.63213747389226],[-39.025114730829024,76.63139876391529],[-38.999544299529106,76.63117802719249]]]}},{"type":"Feature","properties":{"N03_001":"山梨県","N03_002":null,"N03_003":null,"N03_004":"甲斐市","N03_007":"19210"},"geometry":{"type":"Polygon","coordinates":[[[-39.051118690785266,76.63262836149363],[-39.07915783331307,76.63344836529716],[-39.084323721731586,76.63440592561439],[-39.07435581827421,76.63426174313182],[-39.07166187903949,76.63384222033844],[-39.100701826929516,76.62747561209007],[-39.0823771949045,76.62280807603184],[-39.07236604910249,76.62300634221323],[-39.06652145684828,76.62351480360095],[-39.03234466254314,76.62483821855358],[-39.03069826312902,76.62425287849801],[-39.04187811435481,76.62703858908247],[-39.023476204196754,76.6268821024011],[-39.014609947646164,76.6288828519203],[-39.04360034594109,76.6327704061787],[-39.051118690785266,76.63262836149363]]]}},{"type":"Feature","properties":{"N03_001":"山梨県","N03_002":null,"N03_003":null,"N03_004":"笛吹市","N03_007":"19211"},"geometry":{"type":"Polygon","coordinates":[[[-38.97501852289328,76.61375618430341],[-38.894712402328494,76.61913090847874],[-38.90784263905795,76.62121798067739],[-38.93251777922887,76.6235283164607],[-38.94236393209069,76.62484060308746],[-38.96729080463853,76.62502225632245],[-38.98958748071925,76.62648610941046],[-38.991875421284384,76.62587710191637],[-38.98282019378312,76.62472468865212],[-38.99729195039063,76.62439955008364],[-38.984885210928596,76.61801977509674],[-38.988610347454724,76.6151707266997],[-38.97501852289328,76.61375618430341]]]}},{"type":"Feature","properties":{"N03_001":"山梨県","N03_002":null,"N03_003":null,"N03_004":"上野原市","N03_007":"19212"},"geometry":{"type":"Polygon","coordinates":[[[-38.80619511726597,76.6234715213352],[-38.792257075585454,76.62229685434204],[-38.777341465195384,76.62168783937295],[-38.78423616191907,76.6210943317963],[-38.77476129899457,76.6199377021365],[-38.7489530120292,76.61938786837747],[-38.745671322311054,76.6173482946869],[-38.78183485717329,76.61823377369332],[-38.766773050645945,76.61567803904244],[-38.71752402713413,76.6153198987688],[-38.70824260641706,76.61594051470857],[-38.70473661667094,76.61877788284431],[-38.71568618487187,76.62130197979745],[-38.70793660142281,76.62217238400684],[-38.72438059970891,76.62335414393043],[-38.745797802723715,76.62371963215314],[-38.77623721673515,76.62444342357507],[-38.78170909117337,76.6250785499924],[-38.78194004586707,76.6250898393349],[-38.794631974452074,76.6239038149459],[-38.80619511726597,76.6234715213352]]]}},{"type":"Feature","properties":{"N03_001":"山梨県","N03_002":null,"N03_003":null,"N03_004":"甲州市","N03_007":"19213"},"geometry":{"type":"Polygon","coordinates":[[[-38.89422404914086,76.63003597341479],[-38.91162571595381,76.62832638710019],[-38.9108609386883,76.62739082635017],[-38.930580646402326,76.62758336487448],[-38.92947068661867,76.62720765632045],[-38.93768442908905,76.62716637767271],[-38.946794543218274,76.62666745178448],[-38.93857982223358,76.6256442728169],[-38.94236393209069,76.62484060308746],[-38.93251777922887,76.6235283164607],[-38.90784263905795,76.62121798067739],[-38.87357708019444,76.62224429217362],[-38.86445236421398,76.6227153461368],[-38.86808499434193,76.62347162582222],[-38.86289864680009,76.62367577413171],[-38.86669587112061,76.62503473333952],[-38.871279976369955,76.62547563708003],[-38.88492270594976,76.62621841531606],[-38.892341985791596,76.62682253846737],[-38.864625211785906,76.62669306215302],[-38.868536924376016,76.62811651873714],[-38.86605318019494,76.63011257926183],[-38.875757680387515,76.63044482738027],[-38.89422404914086,76.63003597341479]]]}},{"type":"Feature","properties":{"N03_001":"山梨県","N03_002":null,"N03_003":null,"N03_004":"中央市","N03_007":"19214"},"geometry":{"type":"Polygon","coordinates":[[[-39.01996845909945,76.62532144330291],[-39.06627669694236,76.6237439934203],[-39.06921396210347,76.62336860930327],[-39.08354040595232,76.62123288886896],[-39.088966943776484,76.61587447735768],[-39.03620218988987,76.61480755119584],[-39.04571876507826,76.61142412961213],[-39.00559994889595,76.61398987038372],[-39.01996845909945,76.62532144330291]]]}}]}