{"type":"FeatureCollection","features":[{"type":"Feature","properties":{"N03_001":"富山県","N03_002":null,"N03_003":null,"N03_004":"富山市","N03_007":"16201"},"geometry":{"type":"Polygon","coordinates":[[[-39.750903484425706,76.66759856276585],[-39.772288095474565,76.66924312219896],[-39.7942934540118,76.6690555870421],[-39.809064656265605,76.6646710305611],[-39.794965434398314,76.66056419511948],[-39.80757665146039,76.66219264060082],[-39.80186705213645,76.66015004475962],[-39.81949758070806,76.66166989376],[-39.80403985272157,76.65877479728748],[-39.82204595845382,76.65819227761216],[-39.84545901643473,76.6571594622415],[-39.85660799194588,76.65696800147467],[-39.84370989875253,76.65778695622113],[-39.84394203358103,76.65837761964575],[-39.85910460549464,76.65781162219876],[-39.83081799924097,76.65880118591015],[-39.810023850519364,76.66042614894985],[-39.769797723286736,76.66280323137808],[-39.753973793524125,76.66340034784879],[-39.74163429544218,76.66282156774488],[-39.73549245123093,76.66223836424957],[-39.72315626144435,76.66223165021962],[-39.72221205581084,76.66359690708805],[-39.71010992659328,76.66314693904042],[-39.708792278083145,76.66264371867486],[-39.69804627263281,76.66255734138488],[-39.69388895083046,76.6636645127636],[-39.67729927663206,76.66400157530238],[-39.67311997912248,76.66368071197672],[-39.657466991405144,76.66330658001594],[-39.631850580974785,76.66111017111898],[-39.59976087944671,76.65943492387866],[-39.588444753427325,76.65990086205167],[-39.57282235975608,76.65975255593096],[-39.55983617106524,76.66051278941981],[-39.56234676841329,76.66126163957838],[-39.55060564207659,76.66185930058305],[-39.52714983494791,76.66263509450415],[-39.55920854057963,76.66202762152645],[-39.59933850882923,76.66172273025488],[-39.62552225235332,76.66099910032611],[-39.656708012966156,76.66052810988818],[-39.66771972783413,76.6597682953743],[-39.68231476819679,76.65912233231563],[-39.70588307530786,76.65971951932636],[-39.7169065014408,76.6597822855634],[-39.73361397563373,76.6580372018526],[-39.737871423835045,76.65608064689364],[-39.73384869528051,76.65578179293958],[-39.7274431431352,76.655429301494],[-39.726371380184915,76.65554630274647],[-39.750903484425706,76.66759856276585]]]}},{"type":"Feature","properties":{"N03_001":"富山県","N03_002":null,"N03_003":null,"N03_004":"高岡市","N03_007":"16202"},"geometry":{"type":"Polygon","coordinates":[[[-39.878010551471085,76.67888937154125],[-39.87745878431042,76.67684579183492],[-39.897092021267234,76.67733661220302],[-39.94566932162846,76.67635848095453],[-39.996050125307704,76.67755316803601],[-39.99923993126749,76.67620312240695],[-40.00653715689902,76.67567835353732],[-39.99134545366719,76.67536098622277],[-39.962147983134464,76.6729314548253],[-39.93213497509942,76.66940577390324],[-39.9150621834019,76.66846371043405],[-39.90516851595683,76.66746954075822],[-39.82995522013775,76.66372220294727],[-39.84570554207244,76.66681693801053],[-39.866100805991756,76.6685331011373],[-39.85260196985225,76.67026625181751],[-39.85162045166866,76.67418300462803],[-39.83802117825405,76.67240148797774],[-39.82778144590055,76.67250725487307],[-39.83326940262701,76.67303135143372],[-39.847534652595606,76.67566053733849],[-39.878010551471085,76.67888937154125]]]}},{"type":"Feature","properties":{"N03_001":"富山県","N03_002":null,"N03_003":null,"N03_004":"魚津市","N03_007":"16204"},"geometry":{"type":"Polygon","coordinates":[[[-39.575329656856624,76.66666019461665],[-39.57256474541342,76.66787986095022],[-39.55766228646056,76.67013094445136],[-39.56501698473892,76.67205418395518],[-39.595741813695106,76.67433992948679],[-39.60923117755166,76.67780846891665],[-39.607504534816016,76.6792144169548],[-39.64114579814022,76.68048322203933],[-39.67177566857696,76.68135245710361],[-39.68425859124645,76.67939553855888],[-39.69199997537268,76.67915361618152],[-39.646270670789654,76.66421446750066],[-39.669964468329894,76.65595404574864],[-39.659212939268414,76.65704847446138],[-39.63062656174552,76.66233012118431],[-39.61914471459055,76.66245778899604],[-39.63210870070056,76.66024396527845],[-39.602107058839316,76.66352861543025],[-39.575329656856624,76.66666019461665]]]}},{"type":"Feature","properties":{"N03_001":"富山県","N03_002":null,"N03_003":null,"N03_004":"氷見市","N03_007":"16205"},"geometry":{"type":"Polygon","coordinates":[[[-39.878010551471085,76.67888937154125],[-39.9033548653016,76.6822546400407],[-39.876706601798524,76.68554833066412],[-39.8815037963133,76.68648749496433],[-39.86908488536738,76.68716169560992],[-39.87757031789604,76.68772863479232],[-39.908392518335475,76.68824334992205],[-39.94542619469565,76.68792161523115],[-39.97486024385772,76.6859594256267],[-39.97599169585761,76.68386106580384],[-39.984712095764436,76.68242874915995],[-39.99793844535701,76.67883577365627],[-39.996050125307704,76.67755316803601],[-39.94566932162846,76.67635848095453],[-39.897092021267234,76.67733661220302],[-39.87745878431042,76.67684579183492],[-39.878010551471085,76.67888937154125]]]}},{"type":"Feature","properties":{"N03_001":"富山県","N03_002":null,"N03_003":null,"N03_004":"滑川市","N03_007":"16206"},"geometry":{"type":"Polygon","coordinates":[[[-39.726371380184915,76.65554630274647],[-39.69747668995575,76.65462610055025],[-39.67565245900116,76.6554762029175],[-39.669964468329894,76.65595404574864],[-39.646270670789654,76.66421446750066],[-39.69199997537268,76.67915361618152],[-39.750903484425706,76.66759856276585],[-39.726371380184915,76.65554630274647]]]}},{"type":"Feature","properties":{"N03_001":"富山県","N03_002":null,"N03_003":null,"N03_004":"黒部市","N03_007":"16207"},"geometry":{"type":"Polygon","coordinates":[[[-39.575329656856624,76.66666019461665],[-39.563425264792606,76.66548756511997],[-39.536218230731635,76.66662923510908],[-39.52551411100614,76.66740233053802],[-39.51287491803341,76.66689543715964],[-39.49560205530366,76.66715915789945],[-39.48586702191912,76.66931940030025],[-39.49055100712791,76.67139991176282],[-39.48740841965312,76.67388177347058],[-39.491194609918054,76.6744712539759],[-39.53849417923797,76.67752079882219],[-39.55659675735042,76.67931045212693],[-39.56861493478668,76.67937933978988],[-39.582894419548026,76.68061865095649],[-39.59254865236785,76.6804575755023],[-39.61815600942754,76.68221863875078],[-39.646182172099,76.68312631114749],[-39.661848852618384,76.68406179381056],[-39.67127330380898,76.68297558887949],[-39.66592447448758,76.68217623505136],[-39.67177566857696,76.68135245710361],[-39.64114579814022,76.68048322203933],[-39.607504534816016,76.6792144169548],[-39.60923117755166,76.67780846891665],[-39.595741813695106,76.67433992948679],[-39.56501698473892,76.67205418395518],[-39.55766228646056,76.67013094445136],[-39.57256474541342,76.66787986095022],[-39.575329656856624,76.66666019461665]]]}},{"type":"Feature","properties":{"N03_001":"富山県","N03_002":null,"N03_003":null,"N03_004":"砺波市","N03_007":"16208"},"geometry":{"type":"Polygon","coordinates":[[[-39.81949758070806,76.66166989376],[-39.82995522013775,76.66372220294727],[-39.90516851595683,76.66746954075822],[-39.9150621834019,76.66846371043405],[-39.93213497509942,76.66940577390324],[-39.936006469855215,76.6670075630447],[-39.93754508240563,76.6625666455493],[-39.94590451992747,76.65991066611714],[-39.90699644197639,76.65534118091908],[-39.88017186429852,76.65556304823167],[-39.84545901643473,76.6571594622415],[-39.82204595845382,76.65819227761216],[-39.80403985272157,76.65877479728748],[-39.81949758070806,76.66166989376]]]}},{"type":"Feature","properties":{"N03_001":"富山県","N03_002":null,"N03_003":null,"N03_004":"小矢部市","N03_007":"16209"},"geometry":{"type":"Polygon","coordinates":[[[-40.00653715689902,76.67567835353732],[-40.0345074063909,76.6739045265203],[-40.02312399434491,76.6737023764319],[-40.01878033222162,76.67139343780286],[-40.02415558276126,76.66766814632524],[-40.037476122024955,76.6639887280671],[-40.02765468588971,76.66156484654732],[-40.00178020407576,76.65937127932055],[-39.982841144924464,76.6580262814227],[-39.97049079542682,76.65797562737642],[-39.9504982634501,76.65755881042679],[-39.94590451992747,76.65991066611714],[-39.93754508240563,76.6625666455493],[-39.936006469855215,76.6670075630447],[-39.93213497509942,76.66940577390324],[-39.962147983134464,76.6729314548253],[-39.99134545366719,76.67536098622277],[-40.00653715689902,76.67567835353732]]]}},{"type":"Feature","properties":{"N03_001":"富山県","N03_002":null,"N03_003":null,"N03_004":"南砺市","N03_007":"16210"},"geometry":{"type":"Polygon","coordinates":[[[-39.84545901643473,76.6571594622415],[-39.88017186429852,76.65556304823167],[-39.90699644197639,76.65534118091908],[-39.94590451992747,76.65991066611714],[-39.9504982634501,76.65755881042679],[-39.97049079542682,76.65797562737642],[-39.982841144924464,76.6580262814227],[-40.00178020407576,76.65937127932055],[-40.02765468588971,76.66156484654732],[-40.024679132965474,76.6608515751015],[-39.99437220542976,76.65787881206718],[-40.00139121633681,76.6575336273704],[-39.99438836891709,76.6571641654011],[-39.99686588047603,76.65704322054002],[-40.006948393614366,76.6570124915654],[-39.99697159578739,76.65677272036255],[-39.99407152487186,76.6559498966998],[-40.00921546055006,76.65504255617034],[-40.00799062573128,76.65332446224717],[-39.987674092169044,76.65395745145463],[-39.97504179399582,76.6558325318408],[-39.97643556562117,76.65626709415855],[-39.949790245483165,76.65662608029233],[-39.940958790116476,76.65674145958525],[-39.91810491691704,76.65684980249532],[-39.91023058657893,76.65618732691283],[-39.917402361179064,76.65396213673912],[-39.908235059383095,76.65383962545857],[-39.89308437543989,76.65460678618045],[-39.882502388262,76.65574999110575],[-39.863939975045916,76.65663045551706],[-39.85910460549464,76.65781162219876],[-39.84394203358103,76.65837761964575],[-39.84370989875253,76.65778695622113],[-39.85660799194588,76.65696800147467],[-39.84545901643473,76.6571594622415]]]}}]}