{"type":"FeatureCollection","features":[{"type":"Feature","properties":{"N03_001":"栃木県","N03_002":null,"N03_003":null,"N03_004":"宇都宮市","N03_007":"09201"},"geometry":{"type":"Polygon","coordinates":[[[-38.32118209179197,76.67839252144152],[-38.358721171893784,76.6805499697314],[-38.361509308377556,76.68030907003087],[-38.38217125390344,76.68237997884454],[-38.39648246255016,76.68335639303238],[-38.3743323681149,76.67907403594303],[-38.397190622476984,76.6795594967024],[-38.38318283448477,76.67754869673304],[-38.36579144370764,76.67654508365682],[-38.36088326284598,76.67564107832487],[-38.33803534573238,76.67367527461585],[-38.34342142726145,76.67335650070564],[-38.33044909334865,76.67255092276964],[-38.307030579674674,76.67164956501568],[-38.28541050128083,76.67143153271601],[-38.24941165872118,76.66941590895965],[-38.24631031481969,76.67021225255283],[-38.22527496080017,76.6693282058371],[-38.224293652980975,76.6699956544025],[-38.24566195319727,76.67202519973172],[-38.261885771399776,76.6726209892465],[-38.27648930656458,76.67354324357525],[-38.28261395732756,76.67418096302941],[-38.29765244466331,76.67576812558013],[-38.32118209179197,76.67839252144152]]]}},{"type":"Feature","properties":{"N03_001":"栃木県","N03_002":null,"N03_003":null,"N03_004":"足利市","N03_007":"09202"},"geometry":{"type":"Polygon","coordinates":[[[-38.48633779637333,76.65260061149564],[-38.49522730040878,76.65310079339017],[-38.48047426519885,76.65518852876741],[-38.47634644734087,76.65763344405705],[-38.49261263904338,76.65674070706632],[-38.499306204366164,76.66505466692448],[-38.5151491745057,76.66763244985121],[-38.529897193725546,76.66834489197632],[-38.5426715766692,76.66776031599105],[-38.55611569013055,76.66772905506959],[-38.59178931739169,76.6620847615104],[-38.589591190775195,76.66034358749391],[-38.55657991994171,76.65609399902277],[-38.56132929666399,76.65406141738895],[-38.540788968682136,76.65216317990856],[-38.52806551827921,76.65150094719236],[-38.506563879144295,76.65190652106745],[-38.48633779637333,76.65260061149564]]]}},{"type":"Feature","properties":{"N03_001":"栃木県","N03_002":null,"N03_003":null,"N03_004":"栃木市","N03_007":"09203"},"geometry":{"type":"Polygon","coordinates":[[[-38.40140310803613,76.64792445871807],[-38.403579364567385,76.64961682963008],[-38.391031747143465,76.65224405827874],[-38.39737501404295,76.6543296073663],[-38.38637466733319,76.65612235073378],[-38.38929596424454,76.65873256057846],[-38.36971342092342,76.66242002969454],[-38.364936678743305,76.66479492812375],[-38.37102491191753,76.6656719368496],[-38.37792162419522,76.66923449424519],[-38.38109522667143,76.67090532701046],[-38.38580415758766,76.67173289791157],[-38.40221785655773,76.67179565509805],[-38.424483980761714,76.67267166823919],[-38.44138050617424,76.67214134919863],[-38.449323294478965,76.67033520036036],[-38.45332632530713,76.67065809288911],[-38.46097824974883,76.67222289025514],[-38.47135311305866,76.67232706475974],[-38.46398368270283,76.67048914394427],[-38.440485923730314,76.66789049455383],[-38.436004482077564,76.66610647970751],[-38.44219060343081,76.6628690525713],[-38.45079001189127,76.66186996915282],[-38.44668241564799,76.65686515615889],[-38.44579831197547,76.65226069494875],[-38.42202082935223,76.64895925086302],[-38.41735794418022,76.64746704694954],[-38.40366978006652,76.64677841193023],[-38.403325806408944,76.6468903271887],[-38.40140310803613,76.64792445871807]]]}},{"type":"Feature","properties":{"N03_001":"栃木県","N03_002":null,"N03_003":null,"N03_004":"佐野市","N03_007":"09204"},"geometry":{"type":"Polygon","coordinates":[[[-38.48633779637333,76.65260061149564],[-38.47389539213744,76.65181106710571],[-38.45932396235497,76.65194582232574],[-38.44579831197547,76.65226069494875],[-38.44668241564799,76.65686515615889],[-38.45079001189127,76.66186996915282],[-38.44219060343081,76.6628690525713],[-38.436004482077564,76.66610647970751],[-38.440485923730314,76.66789049455383],[-38.46398368270283,76.67048914394427],[-38.47135311305866,76.67232706475974],[-38.48345881680033,76.67363607470158],[-38.490760482274645,76.67703980194649],[-38.504272844508584,76.67764918599029],[-38.52319411465806,76.67465717509694],[-38.545399486967455,76.67048296165983],[-38.537009384858884,76.6691387007342],[-38.55611569013055,76.66772905506959],[-38.5426715766692,76.66776031599105],[-38.529897193725546,76.66834489197632],[-38.5151491745057,76.66763244985121],[-38.499306204366164,76.66505466692448],[-38.49261263904338,76.65674070706632],[-38.47634644734087,76.65763344405705],[-38.48047426519885,76.65518852876741],[-38.49522730040878,76.65310079339017],[-38.48633779637333,76.65260061149564]]]}},{"type":"Feature","properties":{"N03_001":"栃木県","N03_002":null,"N03_003":null,"N03_004":"鹿沼市","N03_007":"09205"},"geometry":{"type":"Polygon","coordinates":[[[-38.397190622476984,76.6795594967024],[-38.4131054227964,76.68143425415018],[-38.41377507571035,76.68293587872769],[-38.42218672801054,76.68440527891286],[-38.43237283694155,76.68465202238455],[-38.44163881985454,76.68476882550415],[-38.453368764108326,76.68499561881899],[-38.46081579057276,76.68476354327107],[-38.46693555952633,76.6835187701847],[-38.47807657118536,76.68382868364125],[-38.47719756958154,76.68450949647945],[-38.484687459820584,76.68485399863803],[-38.48345130153175,76.68438758241066],[-38.50838682632477,76.67975322852209],[-38.504272844508584,76.67764918599029],[-38.490760482274645,76.67703980194649],[-38.48345881680033,76.67363607470158],[-38.47135311305866,76.67232706475974],[-38.46097824974883,76.67222289025514],[-38.45332632530713,76.67065809288911],[-38.449323294478965,76.67033520036036],[-38.44138050617424,76.67214134919863],[-38.424483980761714,76.67267166823919],[-38.40221785655773,76.67179565509805],[-38.38580415758766,76.67173289791157],[-38.38109522667143,76.67090532701046],[-38.37384928467118,76.67216908203777],[-38.34342142726145,76.67335650070564],[-38.33803534573238,76.67367527461585],[-38.36088326284598,76.67564107832487],[-38.36579144370764,76.67654508365682],[-38.38318283448477,76.67754869673304],[-38.397190622476984,76.6795594967024]]]}},{"type":"Feature","properties":{"N03_001":"栃木県","N03_002":null,"N03_003":null,"N03_004":"日光市","N03_007":"09206"},"geometry":{"type":"Polygon","coordinates":[[[-38.50838682632477,76.67975322852209],[-38.48345130153175,76.68438758241066],[-38.484687459820584,76.68485399863803],[-38.47719756958154,76.68450949647945],[-38.47807657118536,76.68382868364125],[-38.46693555952633,76.6835187701847],[-38.46081579057276,76.68476354327107],[-38.453368764108326,76.68499561881899],[-38.44163881985454,76.68476882550415],[-38.43237283694155,76.68465202238455],[-38.42218672801054,76.68440527891286],[-38.41377507571035,76.68293587872769],[-38.4131054227964,76.68143425415018],[-38.397190622476984,76.6795594967024],[-38.3743323681149,76.67907403594303],[-38.39648246255016,76.68335639303238],[-38.38217125390344,76.68237997884454],[-38.361509308377556,76.68030907003087],[-38.358721171893784,76.6805499697314],[-38.41324360817117,76.68271688605876],[-38.41455938767276,76.68228987903828],[-38.412405860020655,76.68188526838883],[-38.402854755722316,76.68167150697295],[-38.39882553416891,76.68115870300247],[-38.3976319424312,76.68113462791037],[-38.405570668006746,76.68039539291061],[-38.39091045824356,76.68357921826767],[-38.37634179297261,76.68541517491008],[-38.36642945738351,76.68698805343213],[-38.346658805193556,76.68775525153374],[-38.32848484508228,76.68907686287105],[-38.35175871203902,76.68909422024694],[-38.36704003148437,76.68815200138646],[-38.391244041405024,76.6874074556495],[-38.41103126076338,76.6858790270416],[-38.41947139144975,76.68418060748829],[-38.4345578412823,76.68232496941287],[-38.44692722876735,76.67915557969488],[-38.458110021483705,76.67834468862101],[-38.48499259341618,76.67844657554473],[-38.496030868941446,76.67854711855502],[-38.496722396197384,76.67871185685571],[-38.51694352517785,76.67961383250261],[-38.52947121053779,76.6804641769819],[-38.53124198157172,76.68088928135776],[-38.512611699021065,76.68134543498277],[-38.521481306665244,76.68181076374],[-38.52293741071896,76.68223201320266],[-38.53228621704744,76.68226873272262],[-38.52610333883337,76.68288578089373],[-38.544948931427,76.68151965062415],[-38.5628026019738,76.67993365814242],[-38.57915347758591,76.6767700077451],[-38.567867445222404,76.67645488916347],[-38.535462941358325,76.67795249293255],[-38.528976169154454,76.67791445728062],[-38.50838682632477,76.67975322852209]]]}},{"type":"Feature","properties":{"N03_001":"栃木県","N03_002":null,"N03_003":null,"N03_004":"小山市","N03_007":"09208"},"geometry":{"type":"Polygon","coordinates":[[[-38.260757769751045,76.652855720431],[-38.260773072426204,76.65440216289721],[-38.2727126365762,76.65423756085166],[-38.311047335768805,76.6540498696803],[-38.32014094708363,76.6546040005663],[-38.35707464916118,76.65878824805166],[-38.36971342092342,76.66242002969454],[-38.38929596424454,76.65873256057846],[-38.38637466733319,76.65612235073378],[-38.39737501404295,76.6543296073663],[-38.391031747143465,76.65224405827874],[-38.403579364567385,76.64961682963008],[-38.40140310803613,76.64792445871807],[-38.386154492277875,76.6485718772054],[-38.36168405674113,76.64724986312983],[-38.34606816066813,76.64642020032878],[-38.32113281308774,76.64661011175953],[-38.3051395232717,76.64880795474983],[-38.29990168881914,76.65160379067278],[-38.26979914722806,76.65141600821305],[-38.2666765749814,76.65077613313306],[-38.260757769751045,76.652855720431]]]}},{"type":"Feature","properties":{"N03_001":"栃木県","N03_002":null,"N03_003":null,"N03_004":"真岡市","N03_007":"09209"},"geometry":{"type":"Polygon","coordinates":[[[-38.22527496080017,76.6693282058371],[-38.24631031481969,76.67021225255283],[-38.24941165872118,76.66941590895965],[-38.257702648158464,76.66540968031126],[-38.25630494771582,76.657935305738],[-38.260773072426204,76.65440216289721],[-38.260757769751045,76.652855720431],[-38.23206817981062,76.65359207614141],[-38.23244048655444,76.65432739919147],[-38.20097861703436,76.65490063633571],[-38.18246029484332,76.65532962616953],[-38.1690756741046,76.6563688820653],[-38.164883639580616,76.65831813015632],[-38.16626755851118,76.65926060221558],[-38.17348701909679,76.66655788900344],[-38.19210364938784,76.66808501230241],[-38.1971320779446,76.6678991414643],[-38.22527496080017,76.6693282058371]]]}},{"type":"Feature","properties":{"N03_001":"栃木県","N03_002":null,"N03_003":null,"N03_004":"大田原市","N03_007":"09210"},"geometry":{"type":"Polygon","coordinates":[[[-38.17633762655047,76.68818339532797],[-38.19984586285566,76.68830954563026],[-38.21896857518774,76.68902170565251],[-38.223434156422684,76.68876635654007],[-38.24107226096429,76.68918614197233],[-38.22853971774281,76.68828125302124],[-38.24160812051312,76.68832025982216],[-38.23899128618808,76.68755811773627],[-38.256799664852274,76.68818866411821],[-38.27582000188082,76.69000226810938],[-38.289669332048696,76.69009761364877],[-38.27564410640959,76.68805660994323],[-38.24006417907928,76.68581267204273],[-38.22892166413302,76.68551154536735],[-38.20139258934526,76.68456909090311],[-38.17648483343234,76.6844050370026],[-38.14915508852969,76.68325649060662],[-38.10614237862611,76.68428641799281],[-38.09729805522157,76.68390058962282],[-38.09307501396232,76.68234411476845],[-38.0794174951354,76.68116816384143],[-38.072618763270945,76.68134684124549],[-38.075654742631755,76.68310525416668],[-38.08560138961306,76.68426228807984],[-38.08350098588994,76.68505083885586],[-38.089714682487255,76.68651121633569],[-38.08080026997349,76.68741337782413],[-38.0939084895296,76.68788259775287],[-38.13011438404516,76.68815736227025],[-38.1596088602924,76.68797503025888],[-38.17633762655047,76.68818339532797]]]}},{"type":"Feature","properties":{"N03_001":"栃木県","N03_002":null,"N03_003":null,"N03_004":"矢板市","N03_007":"09211"},"geometry":{"type":"Polygon","coordinates":[[[-38.289669332048696,76.69009761364877],[-38.33853651884614,76.68797272037338],[-38.34214831953454,76.68758365449294],[-38.39225574273934,76.68169039099548],[-38.383812617034444,76.68251218670594],[-38.372520396197324,76.68320350086434],[-38.350974314777794,76.68198050249607],[-38.362567739124835,76.68153733024],[-38.32717640238726,76.67967466290082],[-38.31604197978096,76.6787765882853],[-38.30367815285489,76.67836700478276],[-38.25129213563699,76.68460603433297],[-38.24006417907928,76.68581267204273],[-38.27564410640959,76.68805660994323],[-38.289669332048696,76.69009761364877]]]}},{"type":"Feature","properties":{"N03_001":"栃木県","N03_002":null,"N03_003":null,"N03_004":"那須塩原市","N03_007":"09213"},"geometry":{"type":"Polygon","coordinates":[[[-38.32848484508228,76.68907686287105],[-38.346658805193556,76.68775525153374],[-38.36642945738351,76.68698805343213],[-38.37634179297261,76.68541517491008],[-38.39091045824356,76.68357921826767],[-38.405570668006746,76.68039539291061],[-38.3976319424312,76.68113462791037],[-38.39882553416891,76.68115870300247],[-38.39225574273934,76.68169039099548],[-38.34214831953454,76.68758365449294],[-38.33853651884614,76.68797272037338],[-38.289669332048696,76.69009761364877],[-38.27582000188082,76.69000226810938],[-38.256799664852274,76.68818866411821],[-38.23899128618808,76.68755811773627],[-38.24160812051312,76.68832025982216],[-38.22853971774281,76.68828125302124],[-38.24107226096429,76.68918614197233],[-38.223434156422684,76.68876635654007],[-38.21896857518774,76.68902170565251],[-38.19984586285566,76.68830954563026],[-38.17633762655047,76.68818339532797],[-38.16873964479464,76.68839486736421],[-38.17173343255478,76.68929012841708],[-38.200534655841444,76.68933469017658],[-38.229833039194126,76.68978595433444],[-38.23945592558321,76.68994592523366],[-38.26977800907865,76.68989224396185],[-38.27501937563087,76.69060130852581],[-38.269365191371364,76.69283487004034],[-38.25241249271236,76.69396902405205],[-38.25526984194657,76.69421047797874],[-38.30540021509892,76.69273909544252],[-38.32332350677504,76.69166747934143],[-38.33179711409498,76.6905142571477],[-38.32848484508228,76.68907686287105]]]}},{"type":"Feature","properties":{"N03_001":"栃木県","N03_002":null,"N03_003":null,"N03_004":"さくら市","N03_007":"09214"},"geometry":{"type":"Polygon","coordinates":[[[-38.27648930656458,76.67354324357525],[-38.27165717424715,76.6734747469513],[-38.241397705854524,76.67260049397356],[-38.22005695191884,76.67322635202582],[-38.17703043410928,76.68208238401608],[-38.177522474667036,76.68305115308344],[-38.20139258934526,76.68456909090311],[-38.22892166413302,76.68551154536735],[-38.24006417907928,76.68581267204273],[-38.25129213563699,76.68460603433297],[-38.30367815285489,76.67836700478276],[-38.32118209179197,76.67839252144152],[-38.29765244466331,76.67576812558013],[-38.28261395732756,76.67418096302941],[-38.27648930656458,76.67354324357525]]]}},{"type":"Feature","properties":{"N03_001":"栃木県","N03_002":null,"N03_003":null,"N03_004":"那須烏山市","N03_007":"09215"},"geometry":{"type":"Polygon","coordinates":[[[-38.17703043410928,76.68208238401608],[-38.22005695191884,76.67322635202582],[-38.20105854759621,76.67229174847812],[-38.1993133977452,76.67101816887553],[-38.18869802995288,76.6706525510762],[-38.18162917805945,76.66980601075367],[-38.167809803080544,76.67046699123748],[-38.14057570311737,76.66917352017799],[-38.1190059767739,76.66925741787276],[-38.11028074644698,76.66868192552461],[-38.08001010896614,76.67105439626317],[-38.0762761661291,76.67299203029759],[-38.08625180286709,76.67497450450199],[-38.11248251972119,76.67624101049088],[-38.136498338312066,76.68065108713603],[-38.15469401724384,76.68049096918139],[-38.17703043410928,76.68208238401608]]]}},{"type":"Feature","properties":{"N03_001":"栃木県","N03_002":null,"N03_003":null,"N03_004":"下野市","N03_007":"09216"},"geometry":{"type":"Polygon","coordinates":[[[-38.33044909334865,76.67255092276964],[-38.34582731844567,76.67010470428016],[-38.364936678743305,76.66479492812375],[-38.36971342092342,76.66242002969454],[-38.35707464916118,76.65878824805166],[-38.32014094708363,76.6546040005663],[-38.311047335768805,76.6540498696803],[-38.2727126365762,76.65423756085166],[-38.260773072426204,76.65440216289721],[-38.25630494771582,76.657935305738],[-38.307029014410624,76.66641317543399],[-38.307030579674674,76.67164956501568],[-38.33044909334865,76.67255092276964]]]}}]}