{"type":"FeatureCollection","features":[{"type":"Feature","properties":{"N03_001":"香川県","N03_002":null,"N03_003":null,"N03_004":"高松市","N03_007":"37201"},"geometry":{"type":"Polygon","coordinates":[[[-41.521407352166065,76.5506929492164],[-41.51233775972692,76.55173424116018],[-41.51509047755613,76.55229622058934],[-41.50640748495526,76.55459963465998],[-41.523907531583276,76.55458794013852],[-41.54974492059549,76.55056412355522],[-41.56114894092955,76.5508155957502],[-41.580524731985875,76.55189568266366],[-41.599871082025764,76.55431732576126],[-41.62516091633802,76.55705472325124],[-41.613671782304976,76.55491656601924],[-41.59744246230872,76.55171403194619],[-41.611556360151326,76.55147705678563],[-41.598064746772145,76.55011691538448],[-41.58098351384526,76.55035389699707],[-41.583708886300336,76.5503663005257],[-41.57404858443127,76.55052325725872],[-41.569428058963474,76.55032688501467],[-41.57397071877563,76.5473368431287],[-41.56272576570831,76.54581178007255],[-41.526707563125534,76.54568160861534],[-41.51882518149565,76.54648961807078],[-41.522474391205755,76.54772435310444],[-41.53884404260396,76.55054973654023],[-41.54055025322719,76.55059763809646],[-41.53371433533719,76.55041725299961],[-41.521407352166065,76.5506929492164]]]}},{"type":"Feature","properties":{"N03_001":"香川県","N03_002":null,"N03_003":null,"N03_004":"坂出市","N03_007":"37203"},"geometry":{"type":"Polygon","coordinates":[[[-41.62516091633802,76.55705472325124],[-41.64998036810909,76.55737054844842],[-41.64324293078727,76.55630718541039],[-41.670535091360804,76.55448379485597],[-41.67105899166176,76.55671392700116],[-41.69308263774639,76.55606066009122],[-41.6931466165581,76.5553941610248],[-41.68935303240365,76.55472890075391],[-41.68839964639001,76.55455981832029],[-41.67888344180017,76.55315154938371],[-41.67924461629014,76.55226789187596],[-41.67094220933428,76.55120943820413],[-41.638835544519196,76.55045048765244],[-41.62703605296083,76.5496783985993],[-41.598064746772145,76.55011691538448],[-41.611556360151326,76.55147705678563],[-41.59744246230872,76.55171403194619],[-41.613671782304976,76.55491656601924],[-41.62516091633802,76.55705472325124]]]}},{"type":"Feature","properties":{"N03_001":"香川県","N03_002":null,"N03_003":null,"N03_004":"善通寺市","N03_007":"37204"},"geometry":{"type":"Polygon","coordinates":[[[-41.75610371426557,76.54903312056774],[-41.738014575828494,76.54446750470996],[-41.700043999688916,76.54381587209772],[-41.68429677835279,76.54510906348035],[-41.67734650968687,76.5480784135957],[-41.67413956930822,76.54849586351189],[-41.701502114202164,76.55296934461478],[-41.7196519682477,76.55335747016645],[-41.75610371426557,76.54903312056774]]]}},{"type":"Feature","properties":{"N03_001":"香川県","N03_002":null,"N03_003":null,"N03_004":"観音寺市","N03_007":"37205"},"geometry":{"type":"Polygon","coordinates":[[[-41.73359000335356,76.5401443205086],[-41.740903332415925,76.54329641781469],[-41.7474248025503,76.54367377737175],[-41.75479334263891,76.544671429833],[-41.7768481698156,76.54540928458933],[-41.79139852835114,76.54596697781056],[-41.80743579216398,76.53991059406512],[-41.82261174708136,76.53964240854943],[-41.81394895017177,76.5388797279867],[-41.78203965803717,76.53797374529321],[-41.772746394517384,76.53749442748882],[-41.7463926460259,76.53827578220407],[-41.73359000335356,76.5401443205086]]]}},{"type":"Feature","properties":{"N03_001":"香川県","N03_002":null,"N03_003":null,"N03_004":"さぬき市","N03_007":"37206"},"geometry":{"type":"Polygon","coordinates":[[[-41.48354643768085,76.54754795151267],[-41.48583731124207,76.54865417280345],[-41.458490858177235,76.54897066352655],[-41.44702652272264,76.5487138431441],[-41.44384532627537,76.5506536126643],[-41.43727605414,76.55128943106557],[-41.46215015639115,76.55240284568944],[-41.45068009769541,76.55311787619355],[-41.454442356732635,76.55417351079402],[-41.477385746637886,76.55403012619442],[-41.51233775972692,76.55173424116018],[-41.521407352166065,76.5506929492164],[-41.51599923487452,76.5504392335509],[-41.5110227982556,76.5489196782416],[-41.513590162797385,76.54823921751252],[-41.5047436226682,76.54828250077871],[-41.48354643768085,76.54754795151267]]]}},{"type":"Feature","properties":{"N03_001":"香川県","N03_002":null,"N03_003":null,"N03_004":"三豊市","N03_007":"37208"},"geometry":{"type":"Polygon","coordinates":[[[-41.700043999688916,76.54381587209772],[-41.738014575828494,76.54446750470996],[-41.75610371426557,76.54903312056774],[-41.764109938991425,76.54967012676265],[-41.77699236636153,76.5490773453375],[-41.80780299932056,76.54942461303973],[-41.790911755377536,76.54667472659247],[-41.79139852835114,76.54596697781056],[-41.7768481698156,76.54540928458933],[-41.75479334263891,76.544671429833],[-41.7474248025503,76.54367377737175],[-41.740903332415925,76.54329641781469],[-41.73359000335356,76.5401443205086],[-41.710497727699874,76.54200502646276],[-41.690696037128696,76.54156963175664],[-41.68961275785873,76.542356584045],[-41.69551140816164,76.54407096710109],[-41.700043999688916,76.54381587209772]]]}},{"type":"Feature","properties":{"N03_001":"香川県","N03_002":null,"N03_003":null,"N03_004":"東かがわ市","N03_007":"37207"},"geometry":{"type":"Polygon","coordinates":[[[-41.43727605414,76.55128943106557],[-41.44384532627537,76.5506536126643],[-41.44702652272264,76.5487138431441],[-41.458490858177235,76.54897066352655],[-41.48583731124207,76.54865417280345],[-41.48354643768085,76.54754795151267],[-41.45335311404208,76.54743245177652],[-41.404122669486725,76.54663080765062],[-41.38595692853314,76.54654315178074],[-41.36456564736498,76.54580548608975],[-41.35270987948954,76.54637948120421],[-41.34993767547998,76.54737999998689],[-41.34924898851645,76.54818107146832],[-41.366574402083195,76.54891428776651],[-41.378064009664016,76.55040577332635],[-41.40307893461387,76.55030910697678],[-41.42687336303994,76.55144759703964],[-41.43727605414,76.55128943106557]]]}}]}