{"type":"FeatureCollection","features":[{"type":"Feature","properties":{"N03_001":"青森県","N03_002":null,"N03_003":null,"N03_004":"青森市","N03_007":"02201"},"geometry":{"type":"Polygon","coordinates":[[[-37.88413056305876,76.89262175093627],[-37.84707821571034,76.89531232252935],[-37.833129079875384,76.89516097034713],[-37.795828672236105,76.89583080143078],[-37.77593175755822,76.89535011670888],[-37.754099946296996,76.89316919576919],[-37.72649637956047,76.88708480791098],[-37.71775683396666,76.88692889082193],[-37.70568690913697,76.88926946312117],[-37.67802976240418,76.88672710459863],[-37.675503207932465,76.8899076200392],[-37.693878681326076,76.8923037572797],[-37.72528640503845,76.89454424489999],[-37.722461624472125,76.89486635505565],[-37.69644832185143,76.89475015704897],[-37.68491071316905,76.89605761056218],[-37.70040281901899,76.89650243086967],[-37.71087755305294,76.8977216851719],[-37.72694293183953,76.8982436876773],[-37.73152214793501,76.89960729789134],[-37.742744526304094,76.89918782990124],[-37.74398507754922,76.89807358497517],[-37.76896234654509,76.89690596507762],[-37.796161273220804,76.8970332302205],[-37.81504271655931,76.89703128139196],[-37.82163770326423,76.89769913021846],[-37.83422722056988,76.90248175322236],[-37.89216265875074,76.90498141280956],[-37.89016946900446,76.90407598384459],[-37.87141124159864,76.90230565002439],[-37.87585050619847,76.90049884586794],[-37.86238169556508,76.89801120396133],[-37.86660697778827,76.89695774669414],[-37.870923176314385,76.8955139174119],[-37.86829786837657,76.89535847335897],[-37.912810938172115,76.89268073478284],[-37.91351680832069,76.89234124348629],[-37.90101031303175,76.89189412260767],[-37.88413056305876,76.89262175093627]]]}},{"type":"Feature","properties":{"N03_001":"青森県","N03_002":null,"N03_003":null,"N03_004":"弘前市","N03_007":"02202"},"geometry":{"type":"Polygon","coordinates":[[[-38.022018251464644,76.89076486789187],[-38.02842866300935,76.89069075821644],[-38.05274908049409,76.88953242543617],[-38.05207333865619,76.88863152443587],[-38.02387563935262,76.88810591125738],[-38.05610786790739,76.8861802536786],[-38.090410696917864,76.88568654209882],[-38.09927512579684,76.88417658470274],[-38.12268913347355,76.88304662007991],[-38.12391156906938,76.8814549405577],[-38.10384098657698,76.88152067562147],[-38.09592507888744,76.88283422066725],[-38.08006353615843,76.88397150647468],[-38.062122170271095,76.88452865123635],[-38.04182887428165,76.88364163707546],[-38.04101813629349,76.88179851798184],[-38.04576928791688,76.88056772721055],[-38.03492362630019,76.87967398824117],[-38.03302610756241,76.87801921866729],[-38.02277602283753,76.8770994722146],[-38.00176768189612,76.87845099108151],[-37.991648719475165,76.87760668479915],[-37.975231221598506,76.877784564086],[-37.9635738248398,76.8778350484182],[-37.96226505709866,76.87937748706672],[-37.951511512812665,76.88029552661199],[-37.924947832491675,76.88081681196174],[-37.91577532623224,76.88211920697061],[-37.89284924477646,76.88157894605042],[-37.902362204445865,76.88318772958836],[-37.92275190840052,76.88270924971685],[-37.929716699316174,76.88397190381095],[-37.92791217941413,76.8858485577861],[-37.933923068523704,76.88607280187082],[-37.940208549021555,76.88732562361851],[-37.954525421113175,76.88817953899914],[-37.95529645642504,76.88883210630094],[-37.9712373718761,76.89004196259303],[-37.97333648114896,76.89066784921825],[-38.022018251464644,76.89076486789187]]]}},{"type":"Feature","properties":{"N03_001":"青森県","N03_002":null,"N03_003":null,"N03_004":"八戸市","N03_007":"02203"},"geometry":{"type":"Polygon","coordinates":[[[-37.284998631806594,76.87619570482897],[-37.32454139634464,76.8810842363201],[-37.34907448612476,76.88053855043916],[-37.37170131602046,76.88165122319822],[-37.397485023553685,76.88334635150773],[-37.43578533482355,76.8819940416101],[-37.42893704808179,76.88164442572733],[-37.45791747844219,76.87949664317617],[-37.47553366156247,76.87892450337264],[-37.4708545160356,76.87764691378095],[-37.40834101875652,76.87380009675412],[-37.41847127253621,76.87197800465869],[-37.444411888927924,76.87190846338905],[-37.45056147860868,76.87123063730996],[-37.449370381064526,76.8694147430221],[-37.442838720669236,76.86886533232877],[-37.434247328248034,76.86853765327979],[-37.41399166173032,76.8689490780058],[-37.3887094003713,76.86870329443475],[-37.36684521131666,76.86792157294757],[-37.34311716442703,76.86836966638644],[-37.36134589003273,76.86998350940839],[-37.36236775263716,76.87443836545101],[-37.33770457069048,76.87432295185945],[-37.33389013449207,76.87594911980517],[-37.31666583620807,76.87617341913487],[-37.30643833560321,76.87523023028022],[-37.284998631806594,76.87619570482897]]]}},{"type":"Feature","properties":{"N03_001":"青森県","N03_002":null,"N03_003":null,"N03_004":"黒石市","N03_007":"02204"},"geometry":{"type":"Polygon","coordinates":[[[-37.88413056305876,76.89262175093627],[-37.892245073404034,76.89139703880038],[-37.895424318966676,76.88861176098361],[-37.88623829722453,76.88750125207798],[-37.86175347855145,76.88640835677492],[-37.84703112377485,76.88179689903842],[-37.81330991173557,76.87969225565841],[-37.783659892108865,76.88045441757664],[-37.762895881754275,76.8838200705564],[-37.7398189329632,76.88448082503426],[-37.73448531630514,76.88669398956107],[-37.72649637956047,76.88708480791098],[-37.754099946296996,76.89316919576919],[-37.77593175755822,76.89535011670888],[-37.795828672236105,76.89583080143078],[-37.833129079875384,76.89516097034713],[-37.84707821571034,76.89531232252935],[-37.88413056305876,76.89262175093627]]]}},{"type":"Feature","properties":{"N03_001":"青森県","N03_002":null,"N03_003":null,"N03_004":"十和田市","N03_007":"02206"},"geometry":{"type":"Polygon","coordinates":[[[-37.71775683396666,76.88692889082193],[-37.71447753118161,76.88240407575503],[-37.706046682090886,76.88098438086125],[-37.72415384060048,76.87598972708298],[-37.70907454785646,76.87534424058127],[-37.69112112953661,76.87569760599676],[-37.661315684560265,76.87695713911772],[-37.65236981847845,76.87931280339974],[-37.63951224261865,76.88010652634718],[-37.602163685645024,76.88042749078934],[-37.57288298855857,76.88002177582813],[-37.554489104057915,76.88073700013207],[-37.523747903171724,76.88024669122397],[-37.50713515805563,76.8812169134994],[-37.53765129237502,76.8837586554579],[-37.53277074518817,76.88526950492526],[-37.538066606903165,76.8875340342208],[-37.584213086967445,76.8866304649096],[-37.58534081611983,76.88581731975503],[-37.60432081425527,76.88474228353714],[-37.62143209423556,76.88492541347594],[-37.63162233053924,76.88532106935752],[-37.63980788816121,76.88611876340485],[-37.65874722878566,76.88699687724856],[-37.675503207932465,76.8899076200392],[-37.67802976240418,76.88672710459863],[-37.70568690913697,76.88926946312117],[-37.71775683396666,76.88692889082193]]]}},{"type":"Feature","properties":{"N03_001":"青森県","N03_002":null,"N03_003":null,"N03_004":"三沢市","N03_007":"02207"},"geometry":{"type":"Polygon","coordinates":[[[-37.40542451149477,76.88485353574045],[-37.40198216375616,76.89242975133894],[-37.44225442883529,76.90460837565502],[-37.45087351738031,76.90450047814493],[-37.46005273636933,76.90330001018737],[-37.48084675435328,76.90224993836469],[-37.48171763869664,76.89932359894618],[-37.49269685214856,76.88675785529543],[-37.51548458043015,76.88847484397299],[-37.506141645787864,76.8857670177232],[-37.49437729537289,76.8842793384717],[-37.47494031700854,76.88348224307056],[-37.40542451149477,76.88485353574045]]]}},{"type":"Feature","properties":{"N03_001":"青森県","N03_002":null,"N03_003":null,"N03_004":"むつ市","N03_007":"02208"},"geometry":{"type":"Polygon","coordinates":[[[-37.53809358398623,76.92497004118243],[-37.56770093912718,76.92471781403292],[-37.59863586637034,76.92795829375086],[-37.62569294387563,76.92617500757902],[-37.64002521171717,76.92412666787605],[-37.654584384001254,76.92582648628344],[-37.66686640459503,76.925757731257],[-37.67801660723716,76.92502822051216],[-37.67861781076106,76.92364993526462],[-37.70260452141736,76.92294811823737],[-37.70473141733108,76.92277915685274],[-37.72257947674484,76.92260699929366],[-37.72469745748145,76.92211089439272],[-37.7423130803995,76.92073656178286],[-37.76418035380153,76.91946559952717],[-37.77364955840067,76.91860856978354],[-37.776543011581275,76.91609160118787],[-37.76693871122187,76.91532370816107],[-37.75145798275285,76.91544904684177],[-37.737538020313316,76.91714060148553],[-37.687082581369,76.92088045888714],[-37.67465774287279,76.92114288401753],[-37.6593084130299,76.92155258206334],[-37.628965579362024,76.9215077968844],[-37.6221007219472,76.92160073678416],[-37.60620753597582,76.92181870472831],[-37.593685365219436,76.92210247188285],[-37.59554046143142,76.9221911728238],[-37.58701213154868,76.92255964816466],[-37.57167545708157,76.92252602865645],[-37.55189410962568,76.92194794299078],[-37.531189210928844,76.92042265210173],[-37.51675095121794,76.91770593273505],[-37.489147488682846,76.91745887567329],[-37.481763912029784,76.92012650035566],[-37.49091394123556,76.9211828166097],[-37.50511755879237,76.92164282596977],[-37.543655482803274,76.92198993608447],[-37.538798642053,76.92293617741588],[-37.557168382653195,76.92307271426158],[-37.53809358398623,76.92497004118243]]]}},{"type":"Feature","properties":{"N03_001":"青森県","N03_002":null,"N03_003":null,"N03_004":"つがる市","N03_007":"02209"},"geometry":{"type":"Polygon","coordinates":[[[-38.022018251464644,76.89076486789187],[-37.99816255237744,76.89162332921106],[-37.972410370740214,76.89236864714604],[-37.956179782873996,76.89353858130745],[-37.95328317415018,76.8945742809288],[-37.97475117937852,76.89728128298236],[-37.9756465023273,76.89902049182385],[-37.95608624699599,76.9017764099364],[-37.963222268961374,76.90430146122084],[-37.97017654337019,76.90532132535334],[-37.9957281361393,76.90661274112291],[-37.98744310825947,76.907308344214],[-38.00340661264266,76.90889817054311],[-38.03325747200862,76.90836899340009],[-38.05273729376647,76.90324497937472],[-38.07302220520979,76.8952284223236],[-38.08017470503056,76.89366827320636],[-38.06840669444845,76.89326457412518],[-38.05271797240908,76.89159830673383],[-38.02842866300935,76.89069075821644],[-38.022018251464644,76.89076486789187]]]}},{"type":"Feature","properties":{"N03_001":"青森県","N03_002":null,"N03_003":null,"N03_004":"平川市","N03_007":"02210"},"geometry":{"type":"Polygon","coordinates":[[[-37.72649637956047,76.88708480791098],[-37.73448531630514,76.88669398956107],[-37.7398189329632,76.88448082503426],[-37.762895881754275,76.8838200705564],[-37.783659892108865,76.88045441757664],[-37.81330991173557,76.87969225565841],[-37.84703112377485,76.88179689903842],[-37.86175347855145,76.88640835677492],[-37.88623829722453,76.88750125207798],[-37.895424318966676,76.88861176098361],[-37.920138037558054,76.88738118701632],[-37.933923068523704,76.88607280187082],[-37.92791217941413,76.8858485577861],[-37.929716699316174,76.88397190381095],[-37.92275190840052,76.88270924971685],[-37.902362204445865,76.88318772958836],[-37.89284924477646,76.88157894605042],[-37.847791054285274,76.87970208515765],[-37.835299292068406,76.87848350033164],[-37.85774467250029,76.8772540036696],[-37.87685784318469,76.87771896264987],[-37.88892171768121,76.87631624438797],[-37.89066479219922,76.87405326189798],[-37.870197867258064,76.87306186217674],[-37.856228110782226,76.87189067448091],[-37.83762978917683,76.87216923099778],[-37.83036855893247,76.87266408810154],[-37.81165434379211,76.87276603773519],[-37.77937225002598,76.87458039652354],[-37.75180683164809,76.87601971243181],[-37.746289790781674,76.87809060888954],[-37.72557349548961,76.88019735980996],[-37.706046682090886,76.88098438086125],[-37.71447753118161,76.88240407575503],[-37.71775683396666,76.88692889082193],[-37.72649637956047,76.88708480791098]]]}}]}