{"type":"FeatureCollection","features":[{"type":"Feature","properties":{"N03_001":"徳島県","N03_002":null,"N03_003":null,"N03_004":"徳島市","N03_007":"36201"},"geometry":{"type":"Polygon","coordinates":[[[-41.28720894554827,76.53116462735439],[-41.28537145258705,76.53496633794258],[-41.3044833294223,76.53708344987886],[-41.29146176941669,76.54103645502424],[-41.254504890636525,76.54208762567556],[-41.2672387505705,76.54247400429475],[-41.25339127799101,76.54398383127081],[-41.27296395491182,76.54514706066558],[-41.29381684310145,76.54429324231204],[-41.29956472564669,76.54477027682319],[-41.323618702081106,76.54375194210998],[-41.34002034058363,76.54387730486371],[-41.33533661799858,76.54144217690128],[-41.35828233206899,76.54070518981737],[-41.35871777152077,76.53913247028274],[-41.34765602383655,76.53807211669715],[-41.33049051787936,76.5392610709527],[-41.32469100325703,76.53742847883798],[-41.329641504818895,76.53522960913541],[-41.30279237151059,76.53269023410925],[-41.28720894554827,76.53116462735439]]]}},{"type":"Feature","properties":{"N03_001":"徳島県","N03_002":null,"N03_003":null,"N03_004":"小松島市","N03_007":"36203"},"geometry":{"type":"Polygon","coordinates":[[[-41.28720894554827,76.53116462735439],[-41.28317159315707,76.53039313407115],[-41.24497238310866,76.53015103700068],[-41.21516512098977,76.53648908645992],[-41.23626563160102,76.53848903480221],[-41.254504890636525,76.54208762567556],[-41.29146176941669,76.54103645502424],[-41.3044833294223,76.53708344987886],[-41.28537145258705,76.53496633794258],[-41.28720894554827,76.53116462735439]]]}},{"type":"Feature","properties":{"N03_001":"徳島県","N03_002":null,"N03_003":null,"N03_004":"阿南市","N03_007":"36204"},"geometry":{"type":"Polygon","coordinates":[[[-41.28317159315707,76.53039313407115],[-41.29772825862024,76.53088497758112],[-41.32095062411201,76.53171301475979],[-41.333954068847355,76.53135424210373],[-41.333244156350425,76.53050197744889],[-41.314543596365404,76.53014672515386],[-41.29945278850408,76.53017023043384],[-41.28154377626993,76.52987339354185],[-41.30667538767225,76.52885242607437],[-41.29658543910247,76.52825990251762],[-41.284484993025245,76.5285844125334],[-41.269822277998045,76.52783751509475],[-41.219235715061075,76.52900043389998],[-41.21610537565604,76.52842329266662],[-41.17573246027894,76.52924186469076],[-41.20453100058687,76.52947551940494],[-41.20041118220226,76.52990983407868],[-41.23367701819503,76.52968300787934],[-41.22783103118363,76.53012263113462],[-41.20516158490435,76.5312937911214],[-41.196340813367556,76.53254428048992],[-41.198376946529244,76.53390584264791],[-41.21168130112602,76.53422220146415],[-41.21516512098977,76.53648908645992],[-41.24497238310866,76.53015103700068],[-41.28317159315707,76.53039313407115]]]}},{"type":"Feature","properties":{"N03_001":"徳島県","N03_002":null,"N03_003":null,"N03_004":"吉野川市","N03_007":"36205"},"geometry":{"type":"Polygon","coordinates":[[[-41.374855228289576,76.54295932228366],[-41.40965106933789,76.54330890498879],[-41.42685223277652,76.54265320997862],[-41.4890146103338,76.53928232525658],[-41.506753470429175,76.53888768357321],[-41.50195449020345,76.53849540721565],[-41.50642713690269,76.53824863220692],[-41.499095763519016,76.53794936606592],[-41.47962635907125,76.53714179189635],[-41.44154583310593,76.53605919024359],[-41.41178789927345,76.5366549547927],[-41.40666891885927,76.53840865613826],[-41.369973479028175,76.54060848726813],[-41.373902178753276,76.54267443701406],[-41.374855228289576,76.54295932228366]]]}},{"type":"Feature","properties":{"N03_001":"徳島県","N03_002":null,"N03_003":null,"N03_004":"阿波市","N03_007":"36206"},"geometry":{"type":"Polygon","coordinates":[[[-41.374855228289576,76.54295932228366],[-41.39177337049465,76.54599164108889],[-41.38721878148397,76.54670163553303],[-41.40560044089863,76.54669434494413],[-41.4548355670393,76.54661321409661],[-41.48443341462403,76.54545881524015],[-41.47879828781077,76.54504785081738],[-41.492951784372124,76.54126027305007],[-41.50926385372814,76.53886206664778],[-41.506753470429175,76.53888768357321],[-41.4890146103338,76.53928232525658],[-41.42685223277652,76.54265320997862],[-41.40965106933789,76.54330890498879],[-41.374855228289576,76.54295932228366]]]}},{"type":"Feature","properties":{"N03_001":"徳島県","N03_002":null,"N03_003":null,"N03_004":"美馬市","N03_007":"36207"},"geometry":{"type":"Polygon","coordinates":[[[-41.506753470429175,76.53888768357321],[-41.50926385372814,76.53886206664778],[-41.492951784372124,76.54126027305007],[-41.47879828781077,76.54504785081738],[-41.48443341462403,76.54545881524015],[-41.50325104875887,76.54505827191147],[-41.51276145105349,76.54426375951373],[-41.52323843935482,76.5429566124166],[-41.521949268194874,76.5413985404368],[-41.52902072798447,76.53969703412389],[-41.562491750615614,76.54115659128055],[-41.573859137121275,76.54003719619034],[-41.586405078395245,76.54015670838777],[-41.582970982687556,76.5390279549069],[-41.54764603597651,76.53861822874829],[-41.54159184819678,76.53866616408274],[-41.53202455831094,76.5384931254409],[-41.534665011656756,76.53829674278163],[-41.536634770883325,76.5379023526283],[-41.526555432692746,76.53790067865522],[-41.52853781131542,76.53499624927143],[-41.54430961014228,76.53375104513663],[-41.54154688131634,76.53250250131669],[-41.53407550713702,76.53237440673172],[-41.51530191120757,76.5333906843788],[-41.50672297437311,76.53300989889958],[-41.49491694136713,76.5340206383084],[-41.46928848730225,76.53345910236402],[-41.475623452189076,76.53452156369472],[-41.4874322069316,76.53733443226393],[-41.47865037688655,76.5367681506553],[-41.47962635907125,76.53714179189635],[-41.499095763519016,76.53794936606592],[-41.50642713690269,76.53824863220692],[-41.50195449020345,76.53849540721565],[-41.506753470429175,76.53888768357321]]]}}]}