{"type":"FeatureCollection","features":[{"type":"Feature","properties":{"N03_001":"神奈川県","N03_002":null,"N03_003":"横浜市","N03_004":"鶴見区","N03_007":"14101"},"geometry":{"type":"Polygon","coordinates":[[[-38.4196026627439,76.61397985944137],[-38.424792332975514,76.61282907208486],[-38.40060603389339,76.61043663109689],[-38.3738890559396,76.61047999586752],[-38.386301058348394,76.61236571484476],[-38.39746990708909,76.6134087438375],[-38.4196026627439,76.61397985944137]]]}},{"type":"Feature","properties":{"N03_001":"神奈川県","N03_002":null,"N03_003":"横浜市","N03_004":"神奈川区","N03_007":"14102"},"geometry":{"type":"Polygon","coordinates":[[[-38.424792332975514,76.61282907208486],[-38.43306019087232,76.61246772455097],[-38.46626063855303,76.61266881280322],[-38.476970427636076,76.6119950009321],[-38.47194613671172,76.6115774094626],[-38.454040960470536,76.61142998225736],[-38.41729214959317,76.61059824390819],[-38.40060603389339,76.61043663109689],[-38.424792332975514,76.61282907208486]]]}},{"type":"Feature","properties":{"N03_001":"神奈川県","N03_002":null,"N03_003":"横浜市","N03_004":"西区","N03_007":"14103"},"geometry":{"type":"Polygon","coordinates":[[[-38.454040960470536,76.61142998225736],[-38.451724469597146,76.60843861015029],[-38.428152034434305,76.6065914183994],[-38.41426663453784,76.60929382400414],[-38.41729214959317,76.61059824390819],[-38.454040960470536,76.61142998225736]]]}},{"type":"Feature","properties":{"N03_001":"神奈川県","N03_002":null,"N03_003":"横浜市","N03_004":"中区","N03_007":"14104"},"geometry":{"type":"Polygon","coordinates":[[[-38.428152034434305,76.6065914183994],[-38.42474053363314,76.60593848244672],[-38.41503357673815,76.60476801679086],[-38.39848736417386,76.60449881235539],[-38.38409882868549,76.60764075231484],[-38.39559644407472,76.60884945901088],[-38.41426663453784,76.60929382400414],[-38.428152034434305,76.6065914183994]]]}},{"type":"Feature","properties":{"N03_001":"神奈川県","N03_002":null,"N03_003":"横浜市","N03_004":"南区","N03_007":"14105"},"geometry":{"type":"Polygon","coordinates":[[[-38.451724469597146,76.60843861015029],[-38.47693108859511,76.6071789157831],[-38.477303533761244,76.60661306587248],[-38.444947543878556,76.6044097822391],[-38.42474053363314,76.60593848244672],[-38.428152034434305,76.6065914183994],[-38.451724469597146,76.60843861015029]]]}},{"type":"Feature","properties":{"N03_001":"神奈川県","N03_002":null,"N03_003":"横浜市","N03_004":"保土ケ谷区","N03_007":"14106"},"geometry":{"type":"Polygon","coordinates":[[[-38.476970427636076,76.6119950009321],[-38.486623473788455,76.6114001741841],[-38.48142026730532,76.61017982201814],[-38.49217705628444,76.60894044283583],[-38.47693108859511,76.6071789157831],[-38.451724469597146,76.60843861015029],[-38.454040960470536,76.61142998225736],[-38.47194613671172,76.6115774094626],[-38.476970427636076,76.6119950009321]]]}},{"type":"Feature","properties":{"N03_001":"神奈川県","N03_002":null,"N03_003":"横浜市","N03_004":"磯子区","N03_007":"14107"},"geometry":{"type":"Polygon","coordinates":[[[-38.42474053363314,76.60593848244672],[-38.444947543878556,76.6044097822391],[-38.458012409929864,76.60265686502491],[-38.45509845861723,76.60192864815232],[-38.45576077440284,76.60162904993298],[-38.43907714443125,76.60161366562502],[-38.42305752824497,76.6028906532989],[-38.41503357673815,76.60476801679086],[-38.42474053363314,76.60593848244672]]]}},{"type":"Feature","properties":{"N03_001":"神奈川県","N03_002":null,"N03_003":"横浜市","N03_004":"金沢区","N03_007":"14108"},"geometry":{"type":"Polygon","coordinates":[[[-38.45576077440284,76.60162904993298],[-38.45807252031565,76.60124620943317],[-38.45220512067734,76.60127849385928],[-38.434892594631684,76.59976296147202],[-38.42404011334447,76.5997789112567],[-38.40944727633211,76.60090742260283],[-38.412422828260155,76.60362472744758],[-38.42305752824497,76.6028906532989],[-38.43907714443125,76.60161366562502],[-38.45576077440284,76.60162904993298]]]}},{"type":"Feature","properties":{"N03_001":"神奈川県","N03_002":null,"N03_003":"横浜市","N03_004":"港北区","N03_007":"14109"},"geometry":{"type":"Polygon","coordinates":[[[-38.4196026627439,76.61397985944137],[-38.417083906044425,76.61533292133323],[-38.43280839727762,76.61514784954574],[-38.444440715391515,76.61522232413625],[-38.46367868292653,76.61300904011037],[-38.46626063855303,76.61266881280322],[-38.43306019087232,76.61246772455097],[-38.424792332975514,76.61282907208486],[-38.4196026627439,76.61397985944137]]]}},{"type":"Feature","properties":{"N03_001":"神奈川県","N03_002":null,"N03_003":"横浜市","N03_004":"戸塚区","N03_007":"14110"},"geometry":{"type":"Polygon","coordinates":[[[-38.47693108859511,76.6071789157831],[-38.49217705628444,76.60894044283583],[-38.49882032805693,76.60913517838706],[-38.49973803880861,76.60729991970962],[-38.52261121203714,76.60373266197186],[-38.53311218141835,76.6038160681021],[-38.52694040551312,76.60360304449809],[-38.512856332904036,76.60294554588464],[-38.5049955740319,76.60393109522526],[-38.49058858104195,76.6046263704164],[-38.48781772413121,76.60625832999291],[-38.477303533761244,76.60661306587248],[-38.47693108859511,76.6071789157831]]]}},{"type":"Feature","properties":{"N03_001":"神奈川県","N03_002":null,"N03_003":"横浜市","N03_004":"港南区","N03_007":"14111"},"geometry":{"type":"Polygon","coordinates":[[[-38.477303533761244,76.60661306587248],[-38.48781772413121,76.60625832999291],[-38.49058858104195,76.6046263704164],[-38.45509845861723,76.60192864815232],[-38.458012409929864,76.60265686502491],[-38.444947543878556,76.6044097822391],[-38.477303533761244,76.60661306587248]]]}},{"type":"Feature","properties":{"N03_001":"神奈川県","N03_002":null,"N03_003":"横浜市","N03_004":"旭区","N03_007":"14112"},"geometry":{"type":"Polygon","coordinates":[[[-38.486623473788455,76.6114001741841],[-38.52186499610357,76.6134291670516],[-38.53084217676374,76.61366468120026],[-38.50842416472659,76.60843972060154],[-38.49882032805693,76.60913517838706],[-38.49217705628444,76.60894044283583],[-38.48142026730532,76.61017982201814],[-38.486623473788455,76.6114001741841]]]}},{"type":"Feature","properties":{"N03_001":"神奈川県","N03_002":null,"N03_003":"横浜市","N03_004":"緑区","N03_007":"14113"},"geometry":{"type":"Polygon","coordinates":[[[-38.533607720397754,76.61370679505276],[-38.53084217676374,76.61366468120026],[-38.52186499610357,76.6134291670516],[-38.486623473788455,76.6114001741841],[-38.476970427636076,76.6119950009321],[-38.46626063855303,76.61266881280322],[-38.46367868292653,76.61300904011037],[-38.48355093182849,76.61235929594555],[-38.49298536168113,76.61522081434133],[-38.5166097955213,76.61497229152035],[-38.532151781240636,76.61474799795795],[-38.533607720397754,76.61370679505276]]]}},{"type":"Feature","properties":{"N03_001":"神奈川県","N03_002":null,"N03_003":"横浜市","N03_004":"瀬谷区","N03_007":"14114"},"geometry":{"type":"Polygon","coordinates":[[[-38.5454208450527,76.61343088593574],[-38.535217431106815,76.60729457569482],[-38.50842416472659,76.60843972060154],[-38.53084217676374,76.61366468120026],[-38.533607720397754,76.61370679505276],[-38.5454208450527,76.61343088593574]]]}},{"type":"Feature","properties":{"N03_001":"神奈川県","N03_002":null,"N03_003":"横浜市","N03_004":"栄区","N03_007":"14115"},"geometry":{"type":"Polygon","coordinates":[[[-38.45509845861723,76.60192864815232],[-38.49058858104195,76.6046263704164],[-38.5049955740319,76.60393109522526],[-38.512856332904036,76.60294554588464],[-38.493103098302555,76.60128813988237],[-38.45807252031565,76.60124620943317],[-38.45576077440284,76.60162904993298],[-38.45509845861723,76.60192864815232]]]}},{"type":"Feature","properties":{"N03_001":"神奈川県","N03_002":null,"N03_003":"横浜市","N03_004":"泉区","N03_007":"14116"},"geometry":{"type":"Polygon","coordinates":[[[-38.49882032805693,76.60913517838706],[-38.50842416472659,76.60843972060154],[-38.535217431106815,76.60729457569482],[-38.540587016422315,76.60537320658341],[-38.53311218141835,76.6038160681021],[-38.52261121203714,76.60373266197186],[-38.49973803880861,76.60729991970962],[-38.49882032805693,76.60913517838706]]]}},{"type":"Feature","properties":{"N03_001":"神奈川県","N03_002":null,"N03_003":"横浜市","N03_004":"青葉区","N03_007":"14117"},"geometry":{"type":"Polygon","coordinates":[[[-38.532151781240636,76.61474799795795],[-38.5166097955213,76.61497229152035],[-38.49298536168113,76.61522081434133],[-38.477850816650175,76.61613858562961],[-38.486082819601734,76.61724643666132],[-38.50135075691333,76.61714488706407],[-38.51628031154259,76.61599122920829],[-38.5335178082922,76.61580062569506],[-38.5418828694046,76.61577214098823],[-38.532151781240636,76.61474799795795]]]}},{"type":"Feature","properties":{"N03_001":"神奈川県","N03_002":null,"N03_003":"横浜市","N03_004":"都筑区","N03_007":"14118"},"geometry":{"type":"Polygon","coordinates":[[[-38.444440715391515,76.61522232413625],[-38.44665365488665,76.61537958064847],[-38.477850816650175,76.61613858562961],[-38.49298536168113,76.61522081434133],[-38.48355093182849,76.61235929594555],[-38.46367868292653,76.61300904011037],[-38.444440715391515,76.61522232413625]]]}},{"type":"Feature","properties":{"N03_001":"神奈川県","N03_002":null,"N03_003":"川崎市","N03_004":"川崎区","N03_007":"14131"},"geometry":{"type":"Polygon","coordinates":[[[-38.374556943757156,76.61411701122688],[-38.386301058348394,76.61236571484476],[-38.3738890559396,76.61047999586752],[-38.33039949210485,76.61335678187798],[-38.34063863094964,76.61459488431902],[-38.36299058153284,76.61531192198578],[-38.374556943757156,76.61411701122688]]]}},{"type":"Feature","properties":{"N03_001":"神奈川県","N03_002":null,"N03_003":"川崎市","N03_004":"幸区","N03_007":"14132"},"geometry":{"type":"Polygon","coordinates":[[[-38.39038936238859,76.61807439146385],[-38.417083906044425,76.61533292133323],[-38.4196026627439,76.61397985944137],[-38.39746990708909,76.6134087438375],[-38.386301058348394,76.61236571484476],[-38.374556943757156,76.61411701122688],[-38.39038936238859,76.61807439146385]]]}},{"type":"Feature","properties":{"N03_001":"神奈川県","N03_002":null,"N03_003":"川崎市","N03_004":"中原区","N03_007":"14133"},"geometry":{"type":"Polygon","coordinates":[[[-38.41777667148872,76.62041360406789],[-38.42819033616037,76.6198385699122],[-38.43280839727762,76.61514784954574],[-38.417083906044425,76.61533292133323],[-38.39038936238859,76.61807439146385],[-38.4092461786223,76.62003283144149],[-38.41777667148872,76.62041360406789]]]}},{"type":"Feature","properties":{"N03_001":"神奈川県","N03_002":null,"N03_003":"川崎市","N03_004":"高津区","N03_007":"14134"},"geometry":{"type":"Polygon","coordinates":[[[-38.45264161497041,76.62129394280078],[-38.45968898177349,76.62051668762302],[-38.44685488270051,76.61634180151846],[-38.44665365488665,76.61537958064847],[-38.444440715391515,76.61522232413625],[-38.43280839727762,76.61514784954574],[-38.42819033616037,76.6198385699122],[-38.41777667148872,76.62041360406789],[-38.45264161497041,76.62129394280078]]]}},{"type":"Feature","properties":{"N03_001":"神奈川県","N03_002":null,"N03_003":"川崎市","N03_004":"多摩区","N03_007":"14135"},"geometry":{"type":"Polygon","coordinates":[[[-38.50858201037788,76.62052264245291],[-38.49868765553795,76.61753789549483],[-38.45968898177349,76.62051668762302],[-38.45264161497041,76.62129394280078],[-38.45670767314982,76.62116971386722],[-38.47386907341885,76.62175246751744],[-38.50060504981554,76.62157507320791],[-38.50858201037788,76.62052264245291]]]}},{"type":"Feature","properties":{"N03_001":"神奈川県","N03_002":null,"N03_003":"川崎市","N03_004":"宮前区","N03_007":"14136"},"geometry":{"type":"Polygon","coordinates":[[[-38.477850816650175,76.61613858562961],[-38.44665365488665,76.61537958064847],[-38.44685488270051,76.61634180151846],[-38.45968898177349,76.62051668762302],[-38.49868765553795,76.61753789549483],[-38.50135075691333,76.61714488706407],[-38.486082819601734,76.61724643666132],[-38.477850816650175,76.61613858562961]]]}},{"type":"Feature","properties":{"N03_001":"神奈川県","N03_002":null,"N03_003":"川崎市","N03_004":"麻生区","N03_007":"14137"},"geometry":{"type":"Polygon","coordinates":[[[-38.51628031154259,76.61599122920829],[-38.50135075691333,76.61714488706407],[-38.49868765553795,76.61753789549483],[-38.50858201037788,76.62052264245291],[-38.522735855187044,76.61988337726623],[-38.542762409581165,76.61922754062121],[-38.55261654339049,76.61794763144154],[-38.545484656336875,76.61804060182402],[-38.51628031154259,76.61599122920829]]]}},{"type":"Feature","properties":{"N03_001":"神奈川県","N03_002":null,"N03_003":"相模原市","N03_004":"緑区","N03_007":"14151"},"geometry":{"type":"Polygon","coordinates":[[[-38.63457787375246,76.61400826502309],[-38.638323021897556,76.61418797984945],[-38.60506339524191,76.61571000539644],[-38.65937658134938,76.61270225918331],[-38.663371306540995,76.61298999109651],[-38.6716368975654,76.6121531304113],[-38.672773065197354,76.61155387548429],[-38.68220296230658,76.61153942398272],[-38.69024904974251,76.61499876111145],[-38.70408093570937,76.61624969069635],[-38.70786571451959,76.61508441034668],[-38.693831245903844,76.61252544052759],[-38.6957465828585,76.61423723788036],[-38.6996453326598,76.6146507868504],[-38.699019344808356,76.61500753722436],[-38.71509843286851,76.6143062295958],[-38.72881527802499,76.61334651705829],[-38.7129816247923,76.61265524070708],[-38.694253888819354,76.61502429950598],[-38.68756675752059,76.61352856561389],[-38.67857036160549,76.61607638942314],[-38.668854962375335,76.61494619020772],[-38.6642541396185,76.61479435751596],[-38.65278710322226,76.61439897119429],[-38.63457787375246,76.61400826502309]]]}},{"type":"Feature","properties":{"N03_001":"神奈川県","N03_002":null,"N03_003":"相模原市","N03_004":"中央区","N03_007":"14152"},"geometry":{"type":"Polygon","coordinates":[[[-38.60506339524191,76.61571000539644],[-38.638323021897556,76.61418797984945],[-38.63457787375246,76.61400826502309],[-38.61592562924624,76.61320438074192],[-38.6156229155934,76.61318652185314],[-38.58278976970949,76.61464437381318],[-38.57380568463893,76.61501022215107],[-38.578157499141795,76.61548492680755],[-38.60506339524191,76.61571000539644]]]}},{"type":"Feature","properties":{"N03_001":"神奈川県","N03_002":null,"N03_003":"相模原市","N03_004":"南区","N03_007":"14153"},"geometry":{"type":"Polygon","coordinates":[[[-38.57380568463893,76.61501022215107],[-38.58278976970949,76.61464437381318],[-38.6156229155934,76.61318652185314],[-38.604918159706216,76.61337299463155],[-38.61292167662708,76.61106603389776],[-38.56820218737433,76.61395487067836],[-38.552107599413056,76.61403056518063],[-38.550389958418634,76.61429822978423],[-38.57380568463893,76.61501022215107]]]}},{"type":"Feature","properties":{"N03_001":"神奈川県","N03_002":null,"N03_003":null,"N03_004":"横須賀市","N03_007":"14201"},"geometry":{"type":"Polygon","coordinates":[[[-38.434892594631684,76.59976296147202],[-38.42529357357546,76.59757833643819],[-38.42452424883447,76.59789852876803],[-38.45839461177999,76.59761032810651],[-38.4392697730368,76.59786292316525],[-38.43768583272208,76.59733047146398],[-38.42316184115448,76.59864932806518],[-38.40936060828194,76.59852488255663],[-38.39886235571407,76.59856212325701],[-38.38032681484929,76.597662544269],[-38.37171948168845,76.59863115833234],[-38.399254887003345,76.59802424140236],[-38.405376245954805,76.59777825885935],[-38.41471580630961,76.59768218383645],[-38.42158482077662,76.5996254431701],[-38.42404011334447,76.5997789112567],[-38.434892594631684,76.59976296147202]]]}},{"type":"Feature","properties":{"N03_001":"神奈川県","N03_002":null,"N03_003":null,"N03_004":"小田原市","N03_007":"14206"},"geometry":{"type":"Polygon","coordinates":[[[-38.70753347603251,76.60151354250256],[-38.707260491861824,76.60187066502613],[-38.71122283159191,76.60205291101998],[-38.73254842998533,76.60255875525131],[-38.72940214311748,76.6022704692214],[-38.713580895809564,76.60256411937948],[-38.732438698557594,76.60044861717931],[-38.72089315364322,76.60002383035577],[-38.70558345253689,76.5996244330571],[-38.70131746070041,76.60234797159622],[-38.682546598103166,76.60197815929185],[-38.66599097473896,76.60276059269314],[-38.663052300980524,76.60464043923373],[-38.67941022785553,76.60317994073382],[-38.68468450794803,76.6037420482122],[-38.703055991820285,76.60221509231064],[-38.70753347603251,76.60151354250256]]]}},{"type":"Feature","properties":{"N03_001":"神奈川県","N03_002":null,"N03_003":null,"N03_004":"茅ヶ崎市","N03_007":"14207"},"geometry":{"type":"Polygon","coordinates":[[[-38.59140201665256,76.6032610803193],[-38.54916703009729,76.60309464996995],[-38.546546320384756,76.60407166167846],[-38.55708384060332,76.60474565077378],[-38.572974732667035,76.60548965634139],[-38.58075825002325,76.60493882455236],[-38.59905049970999,76.6050606848439],[-38.59140201665256,76.6032610803193]]]}},{"type":"Feature","properties":{"N03_001":"神奈川県","N03_002":null,"N03_003":null,"N03_004":"平塚市","N03_007":"14203"},"geometry":{"type":"Polygon","coordinates":[[[-38.59905049970999,76.6050606848439],[-38.59882774491976,76.60613393493442],[-38.609147605829584,76.60642247049775],[-38.61208488219716,76.60583195874973],[-38.63809583856618,76.6070693706247],[-38.64637757945284,76.60660692621134],[-38.65513487965792,76.60704733622444],[-38.65429048449915,76.60544597212092],[-38.653471418116425,76.60538491460235],[-38.63584908358334,76.60551338355852],[-38.615108641627714,76.60458340216653],[-38.59140201665256,76.6032610803193],[-38.59905049970999,76.6050606848439]]]}},{"type":"Feature","properties":{"N03_001":"神奈川県","N03_002":null,"N03_003":null,"N03_004":"鎌倉市","N03_007":"14204"},"geometry":{"type":"Polygon","coordinates":[[[-38.45807252031565,76.60124620943317],[-38.493103098302555,76.60128813988237],[-38.512856332904036,76.60294554588464],[-38.52694040551312,76.60360304449809],[-38.51664848266429,76.60220530849249],[-38.52139499181677,76.6015335464863],[-38.48500073451754,76.60019731511008],[-38.45220512067734,76.60127849385928],[-38.45807252031565,76.60124620943317]]]}},{"type":"Feature","properties":{"N03_001":"神奈川県","N03_002":null,"N03_003":null,"N03_004":"藤沢市","N03_007":"14205"},"geometry":{"type":"Polygon","coordinates":[[[-38.53311218141835,76.6038160681021],[-38.540587016422315,76.60537320658341],[-38.5513715358393,76.60561684598568],[-38.577059514101045,76.60569409853927],[-38.58467135069254,76.60585779650147],[-38.572974732667035,76.60548965634139],[-38.55708384060332,76.60474565077378],[-38.546546320384756,76.60407166167846],[-38.54916703009729,76.60309464996995],[-38.52139499181677,76.6015335464863],[-38.51664848266429,76.60220530849249],[-38.52694040551312,76.60360304449809],[-38.53311218141835,76.6038160681021]]]}},{"type":"Feature","properties":{"N03_001":"神奈川県","N03_002":null,"N03_003":null,"N03_004":"逗子市","N03_007":"14208"},"geometry":{"type":"Polygon","coordinates":[[[-38.45220512067734,76.60127849385928],[-38.48500073451754,76.60019731511008],[-38.47173674084386,76.59847408041475],[-38.43665896548657,76.59775973445225],[-38.42529357357546,76.59757833643819],[-38.434892594631684,76.59976296147202],[-38.45220512067734,76.60127849385928]]]}},{"type":"Feature","properties":{"N03_001":"神奈川県","N03_002":null,"N03_003":null,"N03_004":"三浦市","N03_007":"14210"},"geometry":{"type":"Polygon","coordinates":[[[-38.43768583272208,76.59733047146398],[-38.44008085874835,76.59360179543076],[-38.40651360361137,76.5938738431475],[-38.413031255107335,76.5975145118783],[-38.40936060828194,76.59852488255663],[-38.42316184115448,76.59864932806518],[-38.43768583272208,76.59733047146398]]]}},{"type":"Feature","properties":{"N03_001":"神奈川県","N03_002":null,"N03_003":null,"N03_004":"秦野市","N03_007":"14211"},"geometry":{"type":"Polygon","coordinates":[[[-38.63809583856618,76.6070693706247],[-38.65711548194802,76.60823790659133],[-38.65749123996942,76.60855547479913],[-38.66378235521116,76.60904870306166],[-38.66268998594785,76.61026924181688],[-38.68740739854914,76.61066760387376],[-38.696227983230905,76.60989336227529],[-38.69131862104164,76.60654569409188],[-38.680090494826814,76.60724297184062],[-38.65513487965792,76.60704733622444],[-38.64637757945284,76.60660692621134],[-38.63809583856618,76.6070693706247]]]}},{"type":"Feature","properties":{"N03_001":"神奈川県","N03_002":null,"N03_003":null,"N03_004":"厚木市","N03_007":"14212"},"geometry":{"type":"Polygon","coordinates":[[[-38.61592562924624,76.61320438074192],[-38.62251881712975,76.61098781262235],[-38.640823057201324,76.61371312137739],[-38.65315583051859,76.61456605956421],[-38.63705623940824,76.61101526548018],[-38.658170513439636,76.6110001203592],[-38.66268998594785,76.61026924181688],[-38.66378235521116,76.60904870306166],[-38.650503435384124,76.61060224878078],[-38.638626180317125,76.61075982283305],[-38.62935347790096,76.61067058178575],[-38.61742457620217,76.60937262667645],[-38.609147605829584,76.60642247049775],[-38.59882774491976,76.60613393493442],[-38.600703014719734,76.60644332411208],[-38.61064021202606,76.61069772265732],[-38.61292167662708,76.61106603389776],[-38.604918159706216,76.61337299463155],[-38.6156229155934,76.61318652185314],[-38.61592562924624,76.61320438074192]]]}},{"type":"Feature","properties":{"N03_001":"神奈川県","N03_002":null,"N03_003":null,"N03_004":"大和市","N03_007":"14213"},"geometry":{"type":"Polygon","coordinates":[[[-38.552107599413056,76.61403056518063],[-38.56820218737433,76.61395487067836],[-38.56078423915788,76.61099810039345],[-38.56084217414856,76.61041390701025],[-38.551382056392654,76.60894259029503],[-38.5513715358393,76.60561684598568],[-38.540587016422315,76.60537320658341],[-38.535217431106815,76.60729457569482],[-38.5454208450527,76.61343088593574],[-38.552107599413056,76.61403056518063]]]}},{"type":"Feature","properties":{"N03_001":"神奈川県","N03_002":null,"N03_003":null,"N03_004":"伊勢原市","N03_007":"14214"},"geometry":{"type":"Polygon","coordinates":[[[-38.609147605829584,76.60642247049775],[-38.61742457620217,76.60937262667645],[-38.62935347790096,76.61067058178575],[-38.638626180317125,76.61075982283305],[-38.650503435384124,76.61060224878078],[-38.66378235521116,76.60904870306166],[-38.65749123996942,76.60855547479913],[-38.65711548194802,76.60823790659133],[-38.63809583856618,76.6070693706247],[-38.61208488219716,76.60583195874973],[-38.609147605829584,76.60642247049775]]]}},{"type":"Feature","properties":{"N03_001":"神奈川県","N03_002":null,"N03_003":null,"N03_004":"海老名市","N03_007":"14215"},"geometry":{"type":"Polygon","coordinates":[[[-38.577059514101045,76.60569409853927],[-38.58576806452072,76.6095420105149],[-38.56084217414856,76.61041390701025],[-38.56078423915788,76.61099810039345],[-38.568129134733326,76.61002426961065],[-38.61064021202606,76.61069772265732],[-38.600703014719734,76.60644332411208],[-38.58467135069254,76.60585779650147],[-38.577059514101045,76.60569409853927]]]}},{"type":"Feature","properties":{"N03_001":"神奈川県","N03_002":null,"N03_003":null,"N03_004":"座間市","N03_007":"14216"},"geometry":{"type":"Polygon","coordinates":[[[-38.61292167662708,76.61106603389776],[-38.61064021202606,76.61069772265732],[-38.568129134733326,76.61002426961065],[-38.56078423915788,76.61099810039345],[-38.56820218737433,76.61395487067836],[-38.61292167662708,76.61106603389776]]]}},{"type":"Feature","properties":{"N03_001":"神奈川県","N03_002":null,"N03_003":null,"N03_004":"南足柄市","N03_007":"14217"},"geometry":{"type":"Polygon","coordinates":[[[-38.70753347603251,76.60151354250256],[-38.714948244332504,76.60451645637285],[-38.73876851921808,76.60406508374032],[-38.758248934257544,76.60383812385969],[-38.76674662146975,76.60283285457497],[-38.73254842998533,76.60255875525131],[-38.71122283159191,76.60205291101998],[-38.707260491861824,76.60187066502613],[-38.70753347603251,76.60151354250256]]]}},{"type":"Feature","properties":{"N03_001":"神奈川県","N03_002":null,"N03_003":null,"N03_004":"綾瀬市","N03_007":"14218"},"geometry":{"type":"Polygon","coordinates":[[[-38.5513715358393,76.60561684598568],[-38.551382056392654,76.60894259029503],[-38.56084217414856,76.61041390701025],[-38.58576806452072,76.6095420105149],[-38.577059514101045,76.60569409853927],[-38.5513715358393,76.60561684598568]]]}}]}