{"type":"FeatureCollection","features":[{"type":"Feature","properties":{"N03_001":"茨城県","N03_002":null,"N03_003":null,"N03_004":"水戸市","N03_007":"08201"},"geometry":{"type":"Polygon","coordinates":[[[-37.991855344114015,76.66354384374375],[-37.99930289802147,76.66131712967135],[-38.02661795011917,76.66077503649842],[-38.018046877681456,76.65919499312741],[-38.03406862282722,76.65896636961355],[-38.02557398816823,76.65844620474836],[-38.030213150881856,76.65811726812106],[-38.02536316633729,76.6578198002996],[-38.010712625033385,76.65752690015789],[-37.99059091757983,76.65792431383029],[-37.98200989441616,76.65734889536608],[-37.94922992198839,76.65666878212505],[-37.938963483700974,76.65524723370316],[-37.92571176949868,76.65503423728528],[-37.89256104268776,76.65590249859964],[-37.92277977156161,76.65706577001744],[-37.9571716282437,76.65892552190383],[-37.957724636020444,76.6594860942639],[-37.971344913293635,76.65985722469166],[-37.97420703112349,76.66219381827655],[-37.991855344114015,76.66354384374375]]]}},{"type":"Feature","properties":{"N03_001":"茨城県","N03_002":null,"N03_003":null,"N03_004":"日立市","N03_007":"08202"},"geometry":{"type":"Polygon","coordinates":[[[-37.83169757803295,76.67343012027864],[-37.89492545064593,76.67232889233702],[-37.91398976253422,76.6715075145424],[-37.92109818467718,76.67122948656389],[-37.92721500352772,76.67151119367104],[-37.92314016256757,76.67197241892897],[-37.93605188995767,76.67166350636278],[-37.92925045893545,76.67212310512689],[-37.91461727782098,76.6725702338197],[-37.916951063266666,76.67302247686337],[-37.89250024669492,76.66835758713333],[-37.90979784579615,76.66761699336264],[-37.90639222846122,76.66744632814958],[-37.87933128606126,76.66578926210435],[-37.87129204960585,76.66701126822038],[-37.86853977710326,76.6703048696132],[-37.84566222287789,76.67219777130249],[-37.83179873847124,76.67243647418185],[-37.83169757803295,76.67343012027864]]]}},{"type":"Feature","properties":{"N03_001":"茨城県","N03_002":null,"N03_003":null,"N03_004":"土浦市","N03_007":"08203"},"geometry":{"type":"Polygon","coordinates":[[[-38.11114751540437,76.65147198851429],[-38.13317775782016,76.64998979881238],[-38.13434924601416,76.64918095391528],[-38.14168616638913,76.64862270129439],[-38.12960673555441,76.64845647143639],[-38.1341459353558,76.64609043007738],[-38.12496682361155,76.64542843076441],[-38.10318586193973,76.64517041658854],[-38.08696599694219,76.64526545206964],[-38.055580580717915,76.64416974348241],[-38.055434012120514,76.64623131911404],[-38.04936452156492,76.64764049668814],[-38.076415037972474,76.64947063949141],[-38.09749083364164,76.6507914024096],[-38.11114751540437,76.65147198851429]]]}},{"type":"Feature","properties":{"N03_001":"茨城県","N03_002":null,"N03_003":null,"N03_004":"古河市","N03_007":"08204"},"geometry":{"type":"Polygon","coordinates":[[[-38.29823229568383,76.64941464704381],[-38.32318113485548,76.65037018418356],[-38.32338869655283,76.6516641646857],[-38.341871138372625,76.65151290419041],[-38.37632750728635,76.64996406351649],[-38.39735597739897,76.64942924566391],[-38.39791178563715,76.6492802558951],[-38.39024674248023,76.64598102623881],[-38.38623495070675,76.64544823456772],[-38.358163145819454,76.6448014847721],[-38.330659966315075,76.64676606255478],[-38.31434790114913,76.64617062707973],[-38.29799386885891,76.64681877618239],[-38.30041295189558,76.6474262620385],[-38.29034577350431,76.64880288077227],[-38.29823229568383,76.64941464704381]]]}},{"type":"Feature","properties":{"N03_001":"茨城県","N03_002":null,"N03_003":null,"N03_004":"石岡市","N03_007":"08205"},"geometry":{"type":"Polygon","coordinates":[[[-38.11114751540437,76.65147198851429],[-38.09435998037794,76.6522476759657],[-38.09252533704878,76.65274302349506],[-38.07933000617218,76.6527671779456],[-38.057324373817394,76.65133568127074],[-38.061424310658154,76.64978340603483],[-38.021618274821066,76.64789942979077],[-38.01321820517616,76.64786852548563],[-38.037789517242445,76.65007349168302],[-38.037351815195095,76.65148983470102],[-38.02604230761735,76.65140305748992],[-38.061558221020796,76.65347426534278],[-38.0588730181698,76.65458237919842],[-38.046290899870655,76.6557422920013],[-38.06814693603336,76.65522816558978],[-38.08198131027103,76.65611576840818],[-38.086368713452785,76.65691381328728],[-38.10274587183419,76.65677652454347],[-38.11748889653701,76.6563989711968],[-38.11879858967178,76.65528488052145],[-38.13129296030455,76.65358214000052],[-38.140722295324764,76.65301934750885],[-38.13432669998655,76.65236309860961],[-38.13317775782016,76.64998979881238],[-38.11114751540437,76.65147198851429]]]}},{"type":"Feature","properties":{"N03_001":"茨城県","N03_002":null,"N03_003":null,"N03_004":"結城市","N03_007":"08207"},"geometry":{"type":"Polygon","coordinates":[[[-38.29823229568383,76.64941464704381],[-38.27145297426942,76.65007740783369],[-38.254113682088864,76.6526262635781],[-38.26421998064653,76.65394331289185],[-38.24651870102872,76.65639093993667],[-38.252707153283964,76.65709681676014],[-38.259142994509276,76.65753784598235],[-38.2957861785976,76.65795507563125],[-38.30813720266468,76.6561700616031],[-38.32338869655283,76.6516641646857],[-38.32318113485548,76.65037018418356],[-38.29823229568383,76.64941464704381]]]}},{"type":"Feature","properties":{"N03_001":"茨城県","N03_002":null,"N03_003":null,"N03_004":"龍ケ崎市","N03_007":"08208"},"geometry":{"type":"Polygon","coordinates":[[[-38.151055842959956,76.64144201990892],[-38.16098772221766,76.64165972770331],[-38.15808578267558,76.63834452884981],[-38.148814976199716,76.6370592568623],[-38.134017196084244,76.63292608527615],[-38.120556271368095,76.6306065396597],[-38.13528083480334,76.62874319002202],[-38.10015533028219,76.62958856150402],[-38.090906052120616,76.62950547530887],[-38.05871380467936,76.63284714776651],[-38.05036933509878,76.63550848701743],[-38.083168602191925,76.63790986500639],[-38.12692991129709,76.63476630838807],[-38.15071561533299,76.63914914610046],[-38.151055842959956,76.64144201990892]]]}},{"type":"Feature","properties":{"N03_001":"茨城県","N03_002":null,"N03_003":null,"N03_004":"下妻市","N03_007":"08210"},"geometry":{"type":"Polygon","coordinates":[[[-38.17545416826959,76.65091189366356],[-38.19308571418288,76.65293251471195],[-38.19929489273941,76.65481195597452],[-38.2281648328264,76.65488838873692],[-38.232364270635,76.65503084078773],[-38.25600351755489,76.65217962089893],[-38.256647157410036,76.65006358261323],[-38.246492168157815,76.64996532472607],[-38.24461234564432,76.64720968960293],[-38.259551589239,76.64722032471057],[-38.195538204716385,76.64710394550212],[-38.187248737132684,76.64797752044811],[-38.17545416826959,76.65091189366356]]]}},{"type":"Feature","properties":{"N03_001":"茨城県","N03_002":null,"N03_003":null,"N03_004":"常総市","N03_007":"08211"},"geometry":{"type":"Polygon","coordinates":[[[-38.259551589239,76.64722032471057],[-38.27526168786649,76.64631660716059],[-38.25221294848812,76.64558210356614],[-38.25065958447715,76.64429863486244],[-38.235711651018306,76.6440009030513],[-38.24372872278741,76.64243497329858],[-38.269034956294135,76.64076111944128],[-38.275914158567204,76.63789032711806],[-38.27123607349712,76.63815616389317],[-38.241541723737456,76.64089024388682],[-38.236269901114945,76.64133591355927],[-38.18812624517532,76.64583167060586],[-38.18706781063168,76.6464301940532],[-38.19754017238429,76.64700132829081],[-38.195538204716385,76.64710394550212],[-38.259551589239,76.64722032471057]]]}},{"type":"Feature","properties":{"N03_001":"茨城県","N03_002":null,"N03_003":null,"N03_004":"常陸太田市","N03_007":"08212"},"geometry":{"type":"Polygon","coordinates":[[[-37.96025875731212,76.67034283877348],[-37.95790077366166,76.67060799217754],[-37.96165230745058,76.67112715430214],[-37.97150877766345,76.67130188843782],[-37.966247030360385,76.67209643263136],[-37.96957506534675,76.67261894824331],[-37.969039042815965,76.67187743261536],[-37.96359212939861,76.67061064980601],[-37.94731716284925,76.6688574599637],[-37.93329521009454,76.66969954389357],[-37.90979784579615,76.66761699336264],[-37.89250024669492,76.66835758713333],[-37.916951063266666,76.67302247686337],[-37.91461727782098,76.6725702338197],[-37.92925045893545,76.67212310512689],[-37.93605188995767,76.67166350636278],[-37.92314016256757,76.67197241892897],[-37.92721500352772,76.67151119367104],[-37.92109818467718,76.67122948656389],[-37.91714252097639,76.67109855213401],[-37.91885756143803,76.67175050776238],[-37.9153460835834,76.6748705495981],[-37.89947145280403,76.67862049953051],[-37.91528780571291,76.67829756037061],[-37.92062603529451,76.6773235278607],[-37.92690905646615,76.67616319975934],[-37.95307311369837,76.6734374711465],[-37.94910794747558,76.67050933502028],[-37.969315967637506,76.67014061514641],[-37.96025875731212,76.67034283877348]]]}},{"type":"Feature","properties":{"N03_001":"茨城県","N03_002":null,"N03_003":null,"N03_004":"高萩市","N03_007":"08214"},"geometry":{"type":"Polygon","coordinates":[[[-37.89947145280403,76.67862049953051],[-37.9153460835834,76.6748705495981],[-37.91885756143803,76.67175050776238],[-37.91714252097639,76.67109855213401],[-37.92109818467718,76.67122948656389],[-37.91398976253422,76.6715075145424],[-37.89492545064593,76.67232889233702],[-37.83169757803295,76.67343012027864],[-37.82350314076041,76.67430091638754],[-37.82057348203433,76.67555147108592],[-37.85289199603993,76.67537081267741],[-37.85630757459049,76.67633623717825],[-37.84950019069496,76.67708581700144],[-37.879483753909064,76.67832141267368],[-37.88609337658002,76.67920400617706],[-37.89947145280403,76.67862049953051]]]}},{"type":"Feature","properties":{"N03_001":"茨城県","N03_002":null,"N03_003":null,"N03_004":"北茨城市","N03_007":"08215"},"geometry":{"type":"Polygon","coordinates":[[[-37.88609337658002,76.67920400617706],[-37.879483753909064,76.67832141267368],[-37.84950019069496,76.67708581700144],[-37.85630757459049,76.67633623717825],[-37.85289199603993,76.67537081267741],[-37.82057348203433,76.67555147108592],[-37.798837901312694,76.67845550446673],[-37.7775047178371,76.67943502756647],[-37.783486105046535,76.6801569083021],[-37.85725965094773,76.68072695269862],[-37.8741801292385,76.68099803171118],[-37.88955209594792,76.68352944838098],[-37.89915041164044,76.68305348294412],[-37.90041897116343,76.68178953567339],[-37.88609337658002,76.67920400617706]]]}},{"type":"Feature","properties":{"N03_001":"茨城県","N03_002":null,"N03_003":null,"N03_004":"笠間市","N03_007":"08216"},"geometry":{"type":"Polygon","coordinates":[[[-38.02661795011917,76.66077503649842],[-38.03511593748503,76.66152757445178],[-38.073361211436094,76.6603337130438],[-38.091453390543734,76.66068280615038],[-38.098769653122794,76.65897989676085],[-38.09601462735329,76.6585166777015],[-38.11186970606109,76.65737701865719],[-38.10274587183419,76.65677652454347],[-38.086368713452785,76.65691381328728],[-38.08198131027103,76.65611576840818],[-38.06814693603336,76.65522816558978],[-38.046290899870655,76.6557422920013],[-38.024963892692995,76.65537677460847],[-38.010712625033385,76.65752690015789],[-38.02536316633729,76.6578198002996],[-38.030213150881856,76.65811726812106],[-38.02557398816823,76.65844620474836],[-38.03406862282722,76.65896636961355],[-38.018046877681456,76.65919499312741],[-38.02661795011917,76.66077503649842]]]}},{"type":"Feature","properties":{"N03_001":"茨城県","N03_002":null,"N03_003":null,"N03_004":"取手市","N03_007":"08217"},"geometry":{"type":"Polygon","coordinates":[[[-38.148814976199716,76.6370592568623],[-38.19205839996793,76.63440305377986],[-38.19992995300961,76.63701822095092],[-38.206226390468856,76.63264524081904],[-38.22475521306817,76.62961684876872],[-38.205628672587686,76.62956460798796],[-38.18495319269309,76.62822817797395],[-38.13676622097675,76.62817214802985],[-38.13528083480334,76.62874319002202],[-38.120556271368095,76.6306065396597],[-38.134017196084244,76.63292608527615],[-38.148814976199716,76.6370592568623]]]}},{"type":"Feature","properties":{"N03_001":"茨城県","N03_002":null,"N03_003":null,"N03_004":"牛久市","N03_007":"08219"},"geometry":{"type":"Polygon","coordinates":[[[-38.1341459353558,76.64609043007738],[-38.139165472693506,76.64327214483221],[-38.151055842959956,76.64144201990892],[-38.15071561533299,76.63914914610046],[-38.12692991129709,76.63476630838807],[-38.083168602191925,76.63790986500639],[-38.05036933509878,76.63550848701743],[-38.041672452081045,76.63615814051585],[-38.04882103486342,76.63907572772673],[-38.07036159168258,76.63864190910823],[-38.10579291384966,76.64342660969506],[-38.12496682361155,76.64542843076441],[-38.1341459353558,76.64609043007738]]]}},{"type":"Feature","properties":{"N03_001":"茨城県","N03_002":null,"N03_003":null,"N03_004":"つくば市","N03_007":"08220"},"geometry":{"type":"Polygon","coordinates":[[[-38.13317775782016,76.64998979881238],[-38.13432669998655,76.65236309860961],[-38.140722295324764,76.65301934750885],[-38.16767291454038,76.65358239162272],[-38.1662959332632,76.65193283091077],[-38.17545416826959,76.65091189366356],[-38.187248737132684,76.64797752044811],[-38.195538204716385,76.64710394550212],[-38.19754017238429,76.64700132829081],[-38.18706781063168,76.6464301940532],[-38.17719144480011,76.64651105613586],[-38.16098772221766,76.64165972770331],[-38.151055842959956,76.64144201990892],[-38.139165472693506,76.64327214483221],[-38.1341459353558,76.64609043007738],[-38.12960673555441,76.64845647143639],[-38.14168616638913,76.64862270129439],[-38.13434924601416,76.64918095391528],[-38.13317775782016,76.64998979881238]]]}},{"type":"Feature","properties":{"N03_001":"茨城県","N03_002":null,"N03_003":null,"N03_004":"ひたちなか市","N03_007":"08221"},"geometry":{"type":"Polygon","coordinates":[[[-37.89256104268776,76.65590249859964],[-37.88794693184308,76.65593767138179],[-37.870772496377796,76.65735163396813],[-37.87633185704398,76.6626103510336],[-37.91064116321449,76.66388448222838],[-37.915892330375925,76.66500259851044],[-37.93098560803519,76.6637062629454],[-37.942377384230966,76.6611087185148],[-37.957724636020444,76.6594860942639],[-37.9571716282437,76.65892552190383],[-37.92277977156161,76.65706577001744],[-37.89256104268776,76.65590249859964]]]}},{"type":"Feature","properties":{"N03_001":"茨城県","N03_002":null,"N03_003":null,"N03_004":"鹿嶋市","N03_007":"08222"},"geometry":{"type":"Polygon","coordinates":[[[-37.87768655556813,76.64570219916969],[-37.9130306140366,76.64500682064872],[-37.90621164830097,76.64302657525351],[-37.87847930685837,76.63937465123765],[-37.86217459930768,76.63413288423007],[-37.843949245725085,76.63414337331889],[-37.8426321695478,76.63421586724799],[-37.821426828146855,76.63479500786123],[-37.819305711973314,76.63491387845386],[-37.82474389322201,76.63663863604692],[-37.83819850941441,76.63892752914742],[-37.87768655556813,76.64570219916969]]]}},{"type":"Feature","properties":{"N03_001":"茨城県","N03_002":null,"N03_003":null,"N03_004":"潮来市","N03_007":"08223"},"geometry":{"type":"Polygon","coordinates":[[[-37.90621164830097,76.64302657525351],[-37.9363876873223,76.6420756599905],[-37.940357179200966,76.63943075943773],[-37.95005064910261,76.63859506190177],[-37.938625387767665,76.63740024691536],[-37.920056643625465,76.63460813413684],[-37.87705109357057,76.63244525747065],[-37.86217459930768,76.63413288423007],[-37.87847930685837,76.63937465123765],[-37.90621164830097,76.64302657525351]]]}},{"type":"Feature","properties":{"N03_001":"茨城県","N03_002":null,"N03_003":null,"N03_004":"守谷市","N03_007":"08224"},"geometry":{"type":"Polygon","coordinates":[[[-38.27123607349712,76.63815616389317],[-38.27592996718597,76.6356635386962],[-38.2654648726695,76.63241634598661],[-38.22475521306817,76.62961684876872],[-38.206226390468856,76.63264524081904],[-38.19992995300961,76.63701822095092],[-38.241541723737456,76.64089024388682],[-38.27123607349712,76.63815616389317]]]}},{"type":"Feature","properties":{"N03_001":"茨城県","N03_002":null,"N03_003":null,"N03_004":"常陸大宮市","N03_007":"08225"},"geometry":{"type":"Polygon","coordinates":[[[-37.96025875731212,76.67034283877348],[-37.96600244188294,76.67038488095949],[-37.97929768793909,76.67002269251601],[-37.99860333625174,76.66987670992376],[-38.03528121459661,76.67105600632001],[-38.068187913603104,76.67168637886931],[-38.07288329848402,76.6708946104662],[-38.0575702261967,76.66994815444276],[-38.060510706652224,76.66973103940009],[-38.053629257747005,76.66971255642382],[-38.05728305432485,76.66946119777344],[-38.06018104456268,76.66704580856383],[-38.04738515641093,76.66763715734258],[-38.028077915033315,76.66960998437813],[-38.02273211350094,76.66997337281182],[-38.00626038930259,76.67015793933285],[-37.998499817449115,76.66704464117117],[-37.98907361933787,76.66942671746341],[-37.96359212939861,76.67061064980601],[-37.969039042815965,76.67187743261536],[-37.96957506534675,76.67261894824331],[-37.966247030360385,76.67209643263136],[-37.97150877766345,76.67130188843782],[-37.96165230745058,76.67112715430214],[-37.95790077366166,76.67060799217754],[-37.96025875731212,76.67034283877348]]]}},{"type":"Feature","properties":{"N03_001":"茨城県","N03_002":null,"N03_003":null,"N03_004":"那珂市","N03_007":"08226"},"geometry":{"type":"Polygon","coordinates":[[[-37.957724636020444,76.6594860942639],[-37.942377384230966,76.6611087185148],[-37.93098560803519,76.6637062629454],[-37.915892330375925,76.66500259851044],[-37.91351877602651,76.667080896974],[-37.90639222846122,76.66744632814958],[-37.90979784579615,76.66761699336264],[-37.93329521009454,76.66969954389357],[-37.94731716284925,76.6688574599637],[-37.96359212939861,76.67061064980601],[-37.98907361933787,76.66942671746341],[-37.998499817449115,76.66704464117117],[-37.991855344114015,76.66354384374375],[-37.97420703112349,76.66219381827655],[-37.971344913293635,76.65985722469166],[-37.957724636020444,76.6594860942639]]]}},{"type":"Feature","properties":{"N03_001":"茨城県","N03_002":null,"N03_003":null,"N03_004":"筑西市","N03_007":"08227"},"geometry":{"type":"Polygon","coordinates":[[[-38.254113682088864,76.6526262635781],[-38.25600351755489,76.65217962089893],[-38.232364270635,76.65503084078773],[-38.2281648328264,76.65488838873692],[-38.19929489273941,76.65481195597452],[-38.19308571418288,76.65293251471195],[-38.17545416826959,76.65091189366356],[-38.1662959332632,76.65193283091077],[-38.16767291454038,76.65358239162272],[-38.16689769171612,76.6553663835671],[-38.17643036439639,76.6556213221511],[-38.17463072051726,76.6562370323828],[-38.1813198793376,76.65707768295802],[-38.18042276532501,76.65822728145965],[-38.196605235825785,76.65833835519086],[-38.22250030147389,76.65819836632078],[-38.2217457770937,76.65739916107009],[-38.25077131095548,76.65779651964873],[-38.252707153283964,76.65709681676014],[-38.24651870102872,76.65639093993667],[-38.26421998064653,76.65394331289185],[-38.254113682088864,76.6526262635781]]]}},{"type":"Feature","properties":{"N03_001":"茨城県","N03_002":null,"N03_003":null,"N03_004":"坂東市","N03_007":"08228"},"geometry":{"type":"Polygon","coordinates":[[[-38.31434790114913,76.64617062707973],[-38.30682369861994,76.6457612401844],[-38.31372941134405,76.64386372314065],[-38.31239087971621,76.64232734190226],[-38.32608916430768,76.64171948678208],[-38.295444708515255,76.63919279770357],[-38.293706388739004,76.63821512387236],[-38.275914158567204,76.63789032711806],[-38.269034956294135,76.64076111944128],[-38.24372872278741,76.64243497329858],[-38.235711651018306,76.6440009030513],[-38.25065958447715,76.64429863486244],[-38.25221294848812,76.64558210356614],[-38.27526168786649,76.64631660716059],[-38.29799386885891,76.64681877618239],[-38.31434790114913,76.64617062707973]]]}},{"type":"Feature","properties":{"N03_001":"茨城県","N03_002":null,"N03_003":null,"N03_004":"稲敷市","N03_007":"08229"},"geometry":{"type":"Polygon","coordinates":[[[-38.05871380467936,76.63284714776651],[-38.037205034703845,76.6323810293605],[-38.023506213480445,76.63324297169072],[-37.999702754014976,76.63517383170364],[-37.99691390776848,76.63463472174182],[-37.97214897241974,76.63498889032725],[-37.961640459474786,76.63559601382059],[-37.94696995820207,76.63523199508448],[-37.938625387767665,76.63740024691536],[-37.95005064910261,76.63859506190177],[-37.97939959072665,76.64210583600955],[-37.991416606221804,76.6395953271815],[-38.01648283841999,76.64002306862436],[-38.02636937108572,76.63828756898906],[-38.03484010355534,76.6388676748482],[-38.04882103486342,76.63907572772673],[-38.041672452081045,76.63615814051585],[-38.05036933509878,76.63550848701743],[-38.05871380467936,76.63284714776651]]]}},{"type":"Feature","properties":{"N03_001":"茨城県","N03_002":null,"N03_003":null,"N03_004":"かすみがうら市","N03_007":"08230"},"geometry":{"type":"Polygon","coordinates":[[[-38.055580580717915,76.64416974348241],[-38.05110767974057,76.64398613406061],[-38.00287116465801,76.64293563289831],[-37.984550029341726,76.64283212228365],[-37.979699267476946,76.64493528551485],[-38.00085685560848,76.6475466991559],[-38.01321820517616,76.64786852548563],[-38.021618274821066,76.64789942979077],[-38.061424310658154,76.64978340603483],[-38.057324373817394,76.65133568127074],[-38.07933000617218,76.6527671779456],[-38.09252533704878,76.65274302349506],[-38.09435998037794,76.6522476759657],[-38.11114751540437,76.65147198851429],[-38.09749083364164,76.6507914024096],[-38.076415037972474,76.64947063949141],[-38.04936452156492,76.64764049668814],[-38.055434012120514,76.64623131911404],[-38.055580580717915,76.64416974348241]]]}},{"type":"Feature","properties":{"N03_001":"茨城県","N03_002":null,"N03_003":null,"N03_004":"桜川市","N03_007":"08231"},"geometry":{"type":"Polygon","coordinates":[[[-38.10274587183419,76.65677652454347],[-38.11186970606109,76.65737701865719],[-38.09601462735329,76.6585166777015],[-38.098769653122794,76.65897989676085],[-38.1158484350522,76.65916699605617],[-38.12290669758678,76.65996155315379],[-38.14148301217014,76.6591857541805],[-38.166642194965036,76.65957654794789],[-38.167915459251105,76.65849983658956],[-38.18042276532501,76.65822728145965],[-38.1813198793376,76.65707768295802],[-38.17463072051726,76.6562370323828],[-38.17643036439639,76.6556213221511],[-38.16689769171612,76.6553663835671],[-38.16767291454038,76.65358239162272],[-38.140722295324764,76.65301934750885],[-38.13129296030455,76.65358214000052],[-38.11879858967178,76.65528488052145],[-38.11748889653701,76.6563989711968],[-38.10274587183419,76.65677652454347]]]}},{"type":"Feature","properties":{"N03_001":"茨城県","N03_002":null,"N03_003":null,"N03_004":"行方市","N03_007":"08233"},"geometry":{"type":"Polygon","coordinates":[[[-37.9130306140366,76.64500682064872],[-37.92455088850432,76.64627799340317],[-37.92311388544573,76.64712080512355],[-37.932772091535384,76.64744660992001],[-37.951406697395676,76.64692865983109],[-37.95814383415787,76.647372818573],[-37.95468235877625,76.64845073568995],[-37.96365995182201,76.64883609312488],[-37.97913104304189,76.64745964416839],[-37.986592700611546,76.64855912064222],[-38.005043667609186,76.64907104245232],[-38.00085685560848,76.6475466991559],[-37.979699267476946,76.64493528551485],[-37.984550029341726,76.64283212228365],[-37.97939959072665,76.64210583600955],[-37.95005064910261,76.63859506190177],[-37.940357179200966,76.63943075943773],[-37.9363876873223,76.6420756599905],[-37.90621164830097,76.64302657525351],[-37.9130306140366,76.64500682064872]]]}},{"type":"Feature","properties":{"N03_001":"茨城県","N03_002":null,"N03_003":null,"N03_004":"鉾田市","N03_007":"08234"},"geometry":{"type":"Polygon","coordinates":[[[-37.87768655556813,76.64570219916969],[-37.90068409323117,76.64903396929832],[-37.907886606144196,76.65208461483655],[-37.92839851929705,76.65368213448662],[-37.94225265184203,76.65393967967644],[-37.94115865884528,76.65221338917902],[-37.97999384919411,76.65190638415471],[-37.96251636460932,76.65036498310334],[-37.96365995182201,76.64883609312488],[-37.95468235877625,76.64845073568995],[-37.95814383415787,76.647372818573],[-37.951406697395676,76.64692865983109],[-37.932772091535384,76.64744660992001],[-37.92311388544573,76.64712080512355],[-37.92455088850432,76.64627799340317],[-37.9130306140366,76.64500682064872],[-37.87768655556813,76.64570219916969]]]}},{"type":"Feature","properties":{"N03_001":"茨城県","N03_002":null,"N03_003":null,"N03_004":"つくばみらい市","N03_007":"08235"},"geometry":{"type":"Polygon","coordinates":[[[-38.16098772221766,76.64165972770331],[-38.17719144480011,76.64651105613586],[-38.18706781063168,76.6464301940532],[-38.18812624517532,76.64583167060586],[-38.236269901114945,76.64133591355927],[-38.241541723737456,76.64089024388682],[-38.19992995300961,76.63701822095092],[-38.19205839996793,76.63440305377986],[-38.148814976199716,76.6370592568623],[-38.15808578267558,76.63834452884981],[-38.16098772221766,76.64165972770331]]]}},{"type":"Feature","properties":{"N03_001":"茨城県","N03_002":null,"N03_003":null,"N03_004":"小美玉市","N03_007":"08236"},"geometry":{"type":"Polygon","coordinates":[[[-38.01321820517616,76.64786852548563],[-38.00085685560848,76.6475466991559],[-38.005043667609186,76.64907104245232],[-37.986592700611546,76.64855912064222],[-37.97913104304189,76.64745964416839],[-37.96365995182201,76.64883609312488],[-37.96251636460932,76.65036498310334],[-37.97999384919411,76.65190638415471],[-37.9995612751743,76.65363169301271],[-38.00066135324131,76.65460849367724],[-38.024963892692995,76.65537677460847],[-38.046290899870655,76.6557422920013],[-38.0588730181698,76.65458237919842],[-38.061558221020796,76.65347426534278],[-38.02604230761735,76.65140305748992],[-38.037351815195095,76.65148983470102],[-38.037789517242445,76.65007349168302],[-38.01321820517616,76.64786852548563]]]}}]}