{"type":"FeatureCollection","features":[{"type":"Feature","properties":{"N03_001":"三重県","N03_002":null,"N03_003":null,"N03_004":"津市","N03_007":"24201"},"geometry":{"type":"Polygon","coordinates":[[[-40.21441168013708,76.56920051426698],[-40.23504105795349,76.56874904430778],[-40.24241215316752,76.57091460150555],[-40.26935435054056,76.57040834660454],[-40.27634682832926,76.56888907244881],[-40.30411268185512,76.56974091019136],[-40.30751763637774,76.56923633415228],[-40.28887058598019,76.56692570237563],[-40.29605296026444,76.56711935433339],[-40.30052890856543,76.5671708774087],[-40.311041265877975,76.567031496525],[-40.312602105368654,76.5650584304968],[-40.30753785446126,76.56156885974691],[-40.32692086177477,76.5609327523901],[-40.34209317642809,76.56049423592731],[-40.340865360492586,76.56081191043606],[-40.323852197553606,76.56125880058053],[-40.321300347124016,76.56152661725815],[-40.32871707693204,76.56191441690724],[-40.313968038330266,76.56206762853091],[-40.296413276998265,76.56218421382015],[-40.28107544556714,76.56261135996624],[-40.28423853658314,76.5623237649303],[-40.277803285489554,76.56201245142402],[-40.268834536472966,76.56127973401264],[-40.26758967319446,76.56155536860126],[-40.251358173405606,76.56334965520351],[-40.24599111848294,76.56341410190427],[-40.23784030425338,76.56439709282671],[-40.207158541522055,76.56552301806876],[-40.19624955015841,76.56560953837958],[-40.19365569276663,76.56639873084038],[-40.20961761305113,76.5662464331571],[-40.18808644143508,76.56896720574335],[-40.16165111748117,76.57132584506645],[-40.18922613997029,76.57042857843899],[-40.21441168013708,76.56920051426698]]]}},{"type":"Feature","properties":{"N03_001":"三重県","N03_002":null,"N03_003":null,"N03_004":"四日市市","N03_007":"24202"},"geometry":{"type":"Polygon","coordinates":[[[-40.16465963044452,76.58921938204745],[-40.178604944026766,76.58946815909829],[-40.18216822971541,76.58804725905749],[-40.16655322311333,76.5879516149509],[-40.17343365438635,76.58572931117084],[-40.22486273921775,76.5849984518462],[-40.247249922796065,76.58524298815318],[-40.251001313903046,76.58437311521143],[-40.236434821164494,76.5847308563537],[-40.216165057739424,76.58335736458218],[-40.200174126868205,76.58292850260213],[-40.1872663324698,76.58115356536146],[-40.1576408792307,76.57906399386933],[-40.10720579661638,76.57861935610794],[-40.09843542291087,76.58409419789618],[-40.08548373052601,76.58464743272454],[-40.095924665231244,76.5853042784271],[-40.10904849002294,76.58604713872487],[-40.141158860132094,76.58782204331128],[-40.16465963044452,76.58921938204745]]]}},{"type":"Feature","properties":{"N03_001":"三重県","N03_002":null,"N03_003":null,"N03_004":"伊勢市","N03_007":"24203"},"geometry":{"type":"Polygon","coordinates":[[[-40.02680781097608,76.56528628203533],[-40.02885278859721,76.56577169806755],[-40.05670640769649,76.56547476313332],[-40.08976211603489,76.566120621383],[-40.1049295005418,76.56586555821372],[-40.126379691110834,76.56576959449906],[-40.138985986523025,76.56459269730131],[-40.136092284300105,76.5641412898693],[-40.14391697170167,76.56335431086123],[-40.137580537026636,76.56225754992576],[-40.139525786375295,76.56079475569504],[-40.14319752242515,76.55984150146406],[-40.13849100815539,76.55779315872805],[-40.078060003430906,76.55600704689314],[-40.068392199318005,76.55731937741888],[-40.053508996846894,76.5581650986521],[-40.055325169008555,76.56058799665072],[-40.02680781097608,76.56528628203533]]]}},{"type":"Feature","properties":{"N03_001":"三重県","N03_002":null,"N03_003":null,"N03_004":"松阪市","N03_007":"24204"},"geometry":{"type":"Polygon","coordinates":[[[-40.32871707693204,76.56191441690724],[-40.3486490869412,76.56146270098318],[-40.39575768830639,76.55993274023513],[-40.41664444106302,76.55811912833865],[-40.40568506461638,76.55735572489607],[-40.40117563495377,76.55633195370565],[-40.38746525459607,76.55576921526163],[-40.371686698745755,76.55614310620427],[-40.357059770806366,76.55724977336992],[-40.35301739570724,76.55844537747971],[-40.31725386640261,76.56218057643942],[-40.30689411498969,76.56257179492341],[-40.29021209221762,76.56266399550643],[-40.27251797507789,76.56281343837529],[-40.263422568179614,76.56277556746294],[-40.25840913601124,76.56256337342633],[-40.25860024964847,76.56238668917263],[-40.249253728777944,76.56218438831174],[-40.24172539404833,76.56210020357355],[-40.232487845165686,76.56190061406231],[-40.17704391492654,76.56332497915417],[-40.16319561609086,76.56434899704551],[-40.156872919919245,76.56568300720731],[-40.16160239030632,76.56577928296585],[-40.20065637469214,76.56522078748648],[-40.19624955015841,76.56560953837958],[-40.207158541522055,76.56552301806876],[-40.23784030425338,76.56439709282671],[-40.24599111848294,76.56341410190427],[-40.251358173405606,76.56334965520351],[-40.26758967319446,76.56155536860126],[-40.268834536472966,76.56127973401264],[-40.277803285489554,76.56201245142402],[-40.28423853658314,76.5623237649303],[-40.28107544556714,76.56261135996624],[-40.296413276998265,76.56218421382015],[-40.313968038330266,76.56206762853091],[-40.32871707693204,76.56191441690724]]]}},{"type":"Feature","properties":{"N03_001":"三重県","N03_002":null,"N03_003":null,"N03_004":"桑名市","N03_007":"24205"},"geometry":{"type":"Polygon","coordinates":[[[-40.136421853053555,76.59799614051813],[-40.14690405008306,76.59728662164157],[-40.15204472723234,76.59546616526153],[-40.14558223643579,76.59351502564712],[-40.13557143713333,76.59032585342015],[-40.141158860132094,76.58782204331128],[-40.10904849002294,76.58604713872487],[-40.07937946229286,76.5857982361491],[-40.06899020282231,76.58548159461711],[-40.03973432275598,76.58713805536065],[-40.04934143374634,76.58860033114213],[-40.053582976874786,76.59288080668198],[-40.06290894191834,76.59457777956894],[-40.08566890771956,76.59658343164796],[-40.10629639833067,76.59736566970248],[-40.126569302982986,76.59682074386559],[-40.136421853053555,76.59799614051813]]]}},{"type":"Feature","properties":{"N03_001":"三重県","N03_002":null,"N03_003":null,"N03_004":"鈴鹿市","N03_007":"24207"},"geometry":{"type":"Polygon","coordinates":[[[-40.16165111748117,76.57132584506645],[-40.11462761277207,76.57711591748938],[-40.10720579661638,76.57861935610794],[-40.1576408792307,76.57906399386933],[-40.1872663324698,76.58115356536146],[-40.200174126868205,76.58292850260213],[-40.216165057739424,76.58335736458218],[-40.236434821164494,76.5847308563537],[-40.251001313903046,76.58437311521143],[-40.26315925208026,76.58241789987007],[-40.25051453048224,76.58225944241096],[-40.23513980209114,76.57955440381822],[-40.20467089940336,76.57822490086858],[-40.20397390708206,76.57385861555406],[-40.21315376268942,76.57074476057997],[-40.21441168013708,76.56920051426698],[-40.18922613997029,76.57042857843899],[-40.16165111748117,76.57132584506645]]]}},{"type":"Feature","properties":{"N03_001":"三重県","N03_002":null,"N03_003":null,"N03_004":"名張市","N03_007":"24208"},"geometry":{"type":"Polygon","coordinates":[[[-40.32692086177477,76.5609327523901],[-40.33695589684127,76.56571528468022],[-40.37723927015365,76.5718789977721],[-40.40511666392966,76.57230707086308],[-40.42437165457365,76.57091756641746],[-40.430989204038504,76.56817975635659],[-40.4392022064321,76.56615086505433],[-40.435167450977815,76.56443261921093],[-40.408671014836685,76.5619340855007],[-40.386406535467884,76.56100042276755],[-40.354033303274406,76.56027016147553],[-40.34209317642809,76.56049423592731],[-40.32692086177477,76.5609327523901]]]}},{"type":"Feature","properties":{"N03_001":"三重県","N03_002":null,"N03_003":null,"N03_004":"亀山市","N03_007":"24210"},"geometry":{"type":"Polygon","coordinates":[[[-40.21441168013708,76.56920051426698],[-40.21315376268942,76.57074476057997],[-40.20397390708206,76.57385861555406],[-40.20467089940336,76.57822490086858],[-40.23513980209114,76.57955440381822],[-40.25051453048224,76.58225944241096],[-40.26315925208026,76.58241789987007],[-40.27609410544954,76.58165748962263],[-40.282095328263686,76.57860247888422],[-40.32435070071276,76.57433805624814],[-40.32100575823348,76.57169507349766],[-40.3226743567821,76.5702529915424],[-40.30751763637774,76.56923633415228],[-40.30411268185512,76.56974091019136],[-40.27634682832926,76.56888907244881],[-40.26935435054056,76.57040834660454],[-40.24241215316752,76.57091460150555],[-40.23504105795349,76.56874904430778],[-40.21441168013708,76.56920051426698]]]}},{"type":"Feature","properties":{"N03_001":"三重県","N03_002":null,"N03_003":null,"N03_004":"鳥羽市","N03_007":"24211"},"geometry":{"type":"Polygon","coordinates":[[[-40.053508996846894,76.5581650986521],[-40.01293495775678,76.55437903321823],[-39.97962229112731,76.55464051514869],[-39.974928554280716,76.55379801954938],[-39.948633217322765,76.555402230805],[-39.93827820519928,76.55783329176407],[-39.94278828510705,76.56129696989642],[-39.97884256986434,76.56316555541797],[-39.983284670627,76.56590112441884],[-40.02680781097608,76.56528628203533],[-40.055325169008555,76.56058799665072],[-40.053508996846894,76.5581650986521]]]}},{"type":"Feature","properties":{"N03_001":"三重県","N03_002":null,"N03_003":null,"N03_004":"志摩市","N03_007":"24215"},"geometry":{"type":"Polygon","coordinates":[[[-40.078060003430906,76.55600704689314],[-40.06874269523111,76.5533104153427],[-40.0882502475818,76.55162472199876],[-40.041453780643785,76.54922998166194],[-40.01028219452881,76.54979948339071],[-40.0094887922588,76.54809384330963],[-40.05530378084225,76.54913850785535],[-40.053311518629386,76.54852762682918],[-40.01668410911206,76.54762369454028],[-40.00258584325692,76.54769966547451],[-39.982398181968904,76.54863418148987],[-39.97083278466252,76.54984892660129],[-39.96930299678147,76.55238388350318],[-39.95735666869102,76.5531066506879],[-39.974928554280716,76.55379801954938],[-39.97962229112731,76.55464051514869],[-40.01293495775678,76.55437903321823],[-40.053508996846894,76.5581650986521],[-40.068392199318005,76.55731937741888],[-40.078060003430906,76.55600704689314]]]}},{"type":"Feature","properties":{"N03_001":"三重県","N03_002":null,"N03_003":null,"N03_004":"熊野市","N03_007":"24212"},"geometry":{"type":"Polygon","coordinates":[[[-40.4148958071193,76.53920201430235],[-40.438237729048765,76.53940741802421],[-40.45490907248776,76.53937533519493],[-40.46447483901583,76.5376903543572],[-40.45987335657308,76.53652745151454],[-40.47332598945892,76.53631253693719],[-40.48133796387348,76.53519909835036],[-40.50057979269576,76.53548479339125],[-40.51185735734679,76.5347907369545],[-40.52931017647182,76.53439252445582],[-40.517586859386405,76.53358933001729],[-40.534147229099844,76.53238631376044],[-40.54363824157601,76.5327978209196],[-40.546255665423296,76.53036008883981],[-40.52705721318635,76.5296399163228],[-40.521803741204664,76.52863783441754],[-40.511134544385236,76.52924550910855],[-40.49501934369969,76.53144173954351],[-40.47580813489494,76.53402159577531],[-40.44959910018861,76.53398411831462],[-40.44473780916566,76.533320105753],[-40.43485103908389,76.53260654616182],[-40.41541500153009,76.53413550180088],[-40.40028807297492,76.53399401307657],[-40.380660935405054,76.5347632607661],[-40.36391577047901,76.53511225239201],[-40.34416546901376,76.53628313928363],[-40.354995835749676,76.53662788653651],[-40.38118187695655,76.53648563938377],[-40.39783150740354,76.53658926007775],[-40.399664567091826,76.5379275579017],[-40.39192574726469,76.53963654999981],[-40.4148958071193,76.53920201430235]]]}},{"type":"Feature","properties":{"N03_001":"三重県","N03_002":null,"N03_003":null,"N03_004":"いなべ市","N03_007":"24214"},"geometry":{"type":"Polygon","coordinates":[[[-40.178604944026766,76.58946815909829],[-40.16465963044452,76.58921938204745],[-40.15989943205695,76.59066290246551],[-40.14558223643579,76.59351502564712],[-40.15204472723234,76.59546616526153],[-40.14690405008306,76.59728662164157],[-40.136421853053555,76.59799614051813],[-40.15537589868144,76.59922126838184],[-40.17126221548119,76.6011063287858],[-40.176458418574036,76.60137682837535],[-40.19024245268671,76.60047651454929],[-40.214937886726865,76.60016461752585],[-40.23148415622306,76.59879344846232],[-40.24566614750163,76.5984387292018],[-40.25130051523875,76.59648703618073],[-40.2262628287018,76.59503945670401],[-40.238667256843065,76.59258337546545],[-40.23163609504259,76.59210355185687],[-40.23431838071561,76.58998598840152],[-40.21479468319183,76.59022015075267],[-40.19275890837554,76.590162692388],[-40.178604944026766,76.58946815909829]]]}},{"type":"Feature","properties":{"N03_001":"三重県","N03_002":null,"N03_003":null,"N03_004":"伊賀市","N03_007":"24216"},"geometry":{"type":"Polygon","coordinates":[[[-40.30751763637774,76.56923633415228],[-40.3226743567821,76.5702529915424],[-40.32100575823348,76.57169507349766],[-40.32435070071276,76.57433805624814],[-40.33858385170045,76.57313767209999],[-40.36178368263451,76.57451046137149],[-40.37073337765051,76.57617623689917],[-40.394366615200276,76.5767230882229],[-40.410740848759545,76.57810282368503],[-40.41686231452629,76.57709459010371],[-40.39806308475237,76.57615047022296],[-40.41549006321413,76.5736792802821],[-40.44607992329208,76.57429803183895],[-40.43895951705364,76.57314177104625],[-40.421517863598844,76.57267486743183],[-40.412344543976445,76.57242274164007],[-40.42290461121577,76.57218046435148],[-40.410380541086866,76.57232260223337],[-40.40511666392966,76.57230707086308],[-40.37723927015365,76.5718789977721],[-40.33695589684127,76.56571528468022],[-40.32692086177477,76.5609327523901],[-40.30753785446126,76.56156885974691],[-40.312602105368654,76.5650584304968],[-40.311041265877975,76.567031496525],[-40.30052890856543,76.5671708774087],[-40.29605296026444,76.56711935433339],[-40.28887058598019,76.56692570237563],[-40.30751763637774,76.56923633415228]]]}}]}