{"type":"FeatureCollection","features":[{"type":"Feature","properties":{"N03_001":"福岡県","N03_002":null,"N03_003":"北九州市","N03_004":"門司区","N03_007":"40101"},"geometry":{"type":"Polygon","coordinates":[[[-43.29151253893611,76.52723498366746],[-43.282029935567046,76.52796224462904],[-43.2738039249349,76.53066468796044],[-43.27521809704813,76.53335706764294],[-43.265361814827635,76.53431865833917],[-43.27662232886701,76.53600908936151],[-43.30629480091058,76.53473525248148],[-43.311786347901815,76.53251860155915],[-43.318337900181014,76.53165785011299],[-43.3119567394312,76.52797109167561],[-43.304051191614846,76.52819652907522],[-43.29151253893611,76.52723498366746]]]}},{"type":"Feature","properties":{"N03_001":"福岡県","N03_002":null,"N03_003":"北九州市","N03_004":"若松区","N03_007":"40103"},"geometry":{"type":"Polygon","coordinates":[[[-43.430389187542175,76.53107729890019],[-43.424282488538246,76.53006236022954],[-43.39645211392532,76.53438881989653],[-43.39189177819015,76.53625529746682],[-43.43302648755108,76.53543039100693],[-43.45664659276116,76.53539186336859],[-43.47261816843551,76.53374842694191],[-43.468448288424675,76.53191460398014],[-43.46807049728256,76.53187326412265],[-43.430389187542175,76.53107729890019]]]}},{"type":"Feature","properties":{"N03_001":"福岡県","N03_002":null,"N03_003":"北九州市","N03_004":"戸畑区","N03_007":"40105"},"geometry":{"type":"Polygon","coordinates":[[[-43.352764499221266,76.53506293602985],[-43.380697395625546,76.53646879287598],[-43.40038979291343,76.53034320078771],[-43.35919931735154,76.526938582912],[-43.352764499221266,76.53506293602985]]]}},{"type":"Feature","properties":{"N03_001":"福岡県","N03_002":null,"N03_003":"北九州市","N03_004":"小倉北区","N03_007":"40106"},"geometry":{"type":"Polygon","coordinates":[[[-43.318337900181014,76.53165785011299],[-43.32437836378066,76.53133595063488],[-43.34375289730888,76.5347725412939],[-43.352764499221266,76.53506293602985],[-43.35919931735154,76.526938582912],[-43.3567046696775,76.52362261912947],[-43.33291428695617,76.52430730571275],[-43.3119567394312,76.52797109167561],[-43.318337900181014,76.53165785011299]]]}},{"type":"Feature","properties":{"N03_001":"福岡県","N03_002":null,"N03_003":"北九州市","N03_004":"小倉南区","N03_007":"40107"},"geometry":{"type":"Polygon","coordinates":[[[-43.3119567394312,76.52797109167561],[-43.33291428695617,76.52430730571275],[-43.3567046696775,76.52362261912947],[-43.37240260879968,76.52302715518267],[-43.38368309800603,76.52333309457967],[-43.38474664189809,76.52314502990069],[-43.385199594697994,76.52185555869171],[-43.37786982608449,76.5211246900915],[-43.35214964085425,76.52335115871341],[-43.34089227154229,76.52375121304125],[-43.33390867713516,76.52419853890513],[-43.32515577844828,76.52443929898136],[-43.314129163103324,76.52472446892452],[-43.29349267520474,76.52572223614041],[-43.30612267088216,76.52571637690741],[-43.29151253893611,76.52723498366746],[-43.304051191614846,76.52819652907522],[-43.3119567394312,76.52797109167561]]]}},{"type":"Feature","properties":{"N03_001":"福岡県","N03_002":null,"N03_003":"北九州市","N03_004":"八幡東区","N03_007":"40108"},"geometry":{"type":"Polygon","coordinates":[[[-43.40038979291343,76.53034320078771],[-43.410786735607005,76.53005694755547],[-43.39686052314545,76.52390315774926],[-43.38368309800603,76.52333309457967],[-43.37240260879968,76.52302715518267],[-43.3567046696775,76.52362261912947],[-43.35919931735154,76.526938582912],[-43.40038979291343,76.53034320078771]]]}},{"type":"Feature","properties":{"N03_001":"福岡県","N03_002":null,"N03_003":"北九州市","N03_004":"八幡西区","N03_007":"40109"},"geometry":{"type":"Polygon","coordinates":[[[-43.46807049728256,76.53187326412265],[-43.43381536616158,76.52920106638666],[-43.41911178655828,76.52539275962047],[-43.45031199632226,76.52201334284644],[-43.446620372359256,76.52217691330218],[-43.43900624430569,76.52225937065737],[-43.41286486846196,76.52286542147418],[-43.40305564124255,76.5236568804529],[-43.38474664189809,76.52314502990069],[-43.38368309800603,76.52333309457967],[-43.39686052314545,76.52390315774926],[-43.410786735607005,76.53005694755547],[-43.42594619821342,76.52981825908637],[-43.430389187542175,76.53107729890019],[-43.46807049728256,76.53187326412265]]]}},{"type":"Feature","properties":{"N03_001":"福岡県","N03_002":null,"N03_003":"福岡市","N03_004":"西区","N03_007":"40135"},"geometry":{"type":"Polygon","coordinates":[[[-43.6705902584828,76.5182035348667],[-43.68476064819958,76.51759615845394],[-43.69914017133751,76.51533973223118],[-43.72053872518136,76.51558650712654],[-43.73453344590525,76.51920249863262],[-43.74095129578823,76.51804818611951],[-43.737662680865704,76.51344688600462],[-43.73015874278206,76.51318187309909],[-43.70744520315312,76.51250115478842],[-43.696967623846845,76.51149666574537],[-43.679147500909025,76.51069359174369],[-43.67976602962024,76.51584527907421],[-43.6705902584828,76.5182035348667]]]}},{"type":"Feature","properties":{"N03_001":"福岡県","N03_002":null,"N03_003":"福岡市","N03_004":"東区","N03_007":"40131"},"geometry":{"type":"Polygon","coordinates":[[[-43.62161071813975,76.52120052306775],[-43.58355102153188,76.5195529661723],[-43.58342730959028,76.5195572589333],[-43.56038528635967,76.51936576313149],[-43.54548164022561,76.51892166368407],[-43.57121465177178,76.52124196752328],[-43.61270606916497,76.52450369870307],[-43.62457118313067,76.52349458629027],[-43.59778085386525,76.5218235384038],[-43.62201686604294,76.52202288702823],[-43.62161071813975,76.52120052306775]]]}},{"type":"Feature","properties":{"N03_001":"福岡県","N03_002":null,"N03_003":"福岡市","N03_004":"博多区","N03_007":"40132"},"geometry":{"type":"Polygon","coordinates":[[[-43.62161071813975,76.52120052306775],[-43.62180982902462,76.52127918613287],[-43.604329385326025,76.5161107909106],[-43.57617035157489,76.51461219641158],[-43.559796268734985,76.51583239232171],[-43.545511545987665,76.51621522916624],[-43.54553004110753,76.51621756409058],[-43.549676092248944,76.51686632110885],[-43.58355102153188,76.5195529661723],[-43.62161071813975,76.52120052306775]]]}},{"type":"Feature","properties":{"N03_001":"福岡県","N03_002":null,"N03_003":"福岡市","N03_004":"中央区","N03_007":"40133"},"geometry":{"type":"Polygon","coordinates":[[[-43.62180982902462,76.52127918613287],[-43.663824678704664,76.51894724017089],[-43.66291438415325,76.51731189355596],[-43.626855387260655,76.51353445204577],[-43.604329385326025,76.5161107909106],[-43.62180982902462,76.52127918613287]]]}},{"type":"Feature","properties":{"N03_001":"福岡県","N03_002":null,"N03_003":"福岡市","N03_004":"南区","N03_007":"40134"},"geometry":{"type":"Polygon","coordinates":[[[-43.604329385326025,76.5161107909106],[-43.626855387260655,76.51353445204577],[-43.626714502940914,76.50997589292338],[-43.650180231297355,76.50883066222808],[-43.644189632645,76.50851409491312],[-43.62727625043324,76.50804094910823],[-43.602451560015595,76.50904748424678],[-43.57617035157489,76.51461219641158],[-43.604329385326025,76.5161107909106]]]}},{"type":"Feature","properties":{"N03_001":"福岡県","N03_002":null,"N03_003":null,"N03_004":"宗像市","N03_007":"40220"},"geometry":{"type":"Polygon","coordinates":[[[-43.57479517517283,76.53031921513676],[-43.56101445285123,76.5293302323086],[-43.56225730088408,76.52819915852184],[-43.53618001249752,76.5268752475737],[-43.519954830034884,76.52369934305094],[-43.50002083811212,76.52282122804809],[-43.502590027628166,76.52411442929156],[-43.48916385046648,76.52418765184309],[-43.49534334839922,76.52647360181],[-43.51808138143953,76.52790718240185],[-43.54134346067935,76.53170162925086],[-43.55157333013995,76.53038619380226],[-43.57479517517283,76.53031921513676]]]}},{"type":"Feature","properties":{"N03_001":"福岡県","N03_002":null,"N03_003":"福岡市","N03_004":"城南区","N03_007":"40136"},"geometry":{"type":"Polygon","coordinates":[[[-43.66291438415325,76.51731189355596],[-43.67442832822521,76.51246604565512],[-43.650180231297355,76.50883066222808],[-43.626714502940914,76.50997589292338],[-43.626855387260655,76.51353445204577],[-43.66291438415325,76.51731189355596]]]}},{"type":"Feature","properties":{"N03_001":"福岡県","N03_002":null,"N03_003":"福岡市","N03_004":"早良区","N03_007":"40137"},"geometry":{"type":"Polygon","coordinates":[[[-43.696967623846845,76.51149666574537],[-43.70271267754184,76.51096981615194],[-43.655920045782665,76.50776630262833],[-43.62881909025567,76.50606090838585],[-43.617247352067714,76.50568783530268],[-43.6176835665682,76.5063437611341],[-43.644189632645,76.50851409491312],[-43.650180231297355,76.50883066222808],[-43.67442832822521,76.51246604565512],[-43.66291438415325,76.51731189355596],[-43.663824678704664,76.51894724017089],[-43.6705902584828,76.5182035348667],[-43.67976602962024,76.51584527907421],[-43.679147500909025,76.51069359174369],[-43.696967623846845,76.51149666574537]]]}},{"type":"Feature","properties":{"N03_001":"福岡県","N03_002":null,"N03_003":null,"N03_004":"大牟田市","N03_007":"40202"},"geometry":{"type":"Polygon","coordinates":[[[-43.5229605444558,76.49700621848952],[-43.53486820510234,76.49688014939264],[-43.55464873231317,76.4959944849167],[-43.575166607590894,76.49516965318261],[-43.597476363331666,76.49386706798748],[-43.59435826149104,76.49318551191074],[-43.603193607375964,76.49080998564712],[-43.562633468952015,76.49142228431948],[-43.5436585456404,76.49247920917506],[-43.552162215494235,76.494239625642],[-43.5229605444558,76.49700621848952]]]}},{"type":"Feature","properties":{"N03_001":"福岡県","N03_002":null,"N03_003":null,"N03_004":"久留米市","N03_007":"40203"},"geometry":{"type":"Polygon","coordinates":[[[-43.45877118099589,76.50168507807048],[-43.499799690528775,76.49829763786423],[-43.51573654952973,76.49947612216393],[-43.53899484479574,76.50053265508693],[-43.53296120287815,76.50095052092482],[-43.57003441145508,76.50183067778883],[-43.58893183668663,76.50190124095272],[-43.59019080173343,76.5016831356395],[-43.61262475050434,76.50195591967034],[-43.58924835690784,76.50096721025658],[-43.57167154915541,76.50152561230327],[-43.560385439640484,76.50139794525343],[-43.538202790630585,76.50296462574723],[-43.51939163158254,76.50206480986792],[-43.49277054443132,76.50049793793637],[-43.48445585636253,76.4995631461728],[-43.479419956894354,76.49912909035356],[-43.451515071027295,76.49735735170178],[-43.44523287821067,76.49727135166103],[-43.43470270419238,76.50424464826733],[-43.45877118099589,76.50168507807048]]]}},{"type":"Feature","properties":{"N03_001":"福岡県","N03_002":null,"N03_003":null,"N03_004":"直方市","N03_007":"40204"},"geometry":{"type":"Polygon","coordinates":[[[-43.38474664189809,76.52314502990069],[-43.40305564124255,76.5236568804529],[-43.41286486846196,76.52286542147418],[-43.43900624430569,76.52225937065737],[-43.446620372359256,76.52217691330218],[-43.46276853920047,76.52047811031345],[-43.44616652460188,76.51952084037859],[-43.43783399452143,76.51814588412364],[-43.42836439200523,76.51811707551556],[-43.42437087073851,76.5187223823266],[-43.385199594697994,76.52185555869171],[-43.38474664189809,76.52314502990069]]]}},{"type":"Feature","properties":{"N03_001":"福岡県","N03_002":null,"N03_003":null,"N03_004":"飯塚市","N03_007":"40205"},"geometry":{"type":"Polygon","coordinates":[[[-43.43783399452143,76.51814588412364],[-43.448415925953476,76.51641276365602],[-43.46473139135903,76.51771400457895],[-43.47607652164503,76.51789189478133],[-43.481623157577836,76.51637757404836],[-43.49555214520406,76.51702912698202],[-43.484550810411335,76.51610742591981],[-43.50001467502113,76.5164853753905],[-43.49648804652231,76.5163288263897],[-43.48616810393887,76.51555767772477],[-43.47281529216229,76.51061424062159],[-43.45506177368199,76.51008322632269],[-43.45293441186403,76.51266051643326],[-43.45329184968106,76.51448808768077],[-43.46030612203655,76.51515859443472],[-43.46441744580442,76.51515254222242],[-43.448255826263086,76.51490351396527],[-43.44214012405921,76.515070021026],[-43.4254326487941,76.51390084212531],[-43.42078786792029,76.51389644600873],[-43.43279910199922,76.51532601478817],[-43.4266004416983,76.51653688637234],[-43.42836439200523,76.51811707551556],[-43.43783399452143,76.51814588412364]]]}},{"type":"Feature","properties":{"N03_001":"福岡県","N03_002":null,"N03_003":null,"N03_004":"田川市","N03_007":"40206"},"geometry":{"type":"Polygon","coordinates":[[[-43.4254326487941,76.51390084212531],[-43.409981461361305,76.51254569356365],[-43.40304459842176,76.51292697271366],[-43.40067658555067,76.51444307475202],[-43.37845243854662,76.51416179651291],[-43.36915333800081,76.51530671830844],[-43.369646079123285,76.51731324011588],[-43.38062586283449,76.51861858380359],[-43.377383447977316,76.51988754096502],[-43.39123829871721,76.51856341182902],[-43.405423891755014,76.51800928452796],[-43.40409278546496,76.51718916283797],[-43.43279910199922,76.51532601478817],[-43.42078786792029,76.51389644600873],[-43.4254326487941,76.51390084212531]]]}},{"type":"Feature","properties":{"N03_001":"福岡県","N03_002":null,"N03_003":null,"N03_004":"柳川市","N03_007":"40207"},"geometry":{"type":"Polygon","coordinates":[[[-43.58399607985751,76.49842892173191],[-43.606971428176855,76.49632046439254],[-43.62738775809171,76.49672421642445],[-43.63958679006437,76.49668783692272],[-43.63537168873513,76.49563518434132],[-43.60786872049748,76.49471881943289],[-43.59998615869611,76.49429293096624],[-43.575003861216274,76.49596559760933],[-43.56206042483408,76.49706829434545],[-43.55198150977472,76.49706945689815],[-43.56458422395411,76.4977442059017],[-43.580053301462755,76.49850241191218],[-43.58399607985751,76.49842892173191]]]}},{"type":"Feature","properties":{"N03_001":"福岡県","N03_002":null,"N03_003":null,"N03_004":"八女市","N03_007":"40210"},"geometry":{"type":"Polygon","coordinates":[[[-43.48445585636253,76.4995631461728],[-43.47354243546566,76.49938109174347],[-43.4821601922551,76.49970068415703],[-43.48902809852548,76.5004963519727],[-43.51443581682782,76.50252823998031],[-43.50916243118199,76.5006166820733],[-43.50474464305941,76.50049861041782],[-43.4998550734436,76.50019700305408],[-43.50806832036728,76.49845641116208],[-43.49216552162404,76.50019900868146],[-43.47436718718153,76.50189934220593],[-43.46225669501022,76.50222257684356],[-43.46032454611858,76.50088432247604],[-43.45569764107509,76.50045889959975],[-43.44896530585006,76.50072601635605],[-43.438565248904155,76.50090714781705],[-43.429202184450965,76.50161837668448],[-43.42376003428243,76.5015665974254],[-43.391894143780995,76.49877134654255],[-43.38436979312879,76.49848759620902],[-43.37349110596554,76.49906006086597],[-43.39008963082972,76.49963117100091],[-43.41016089584272,76.49927899904026],[-43.391782618789975,76.49954150233947],[-43.413954540075764,76.4986526836249],[-43.41333137183013,76.49842764960215],[-43.438317936575295,76.49749797321714],[-43.44523287821067,76.49727135166103],[-43.451515071027295,76.49735735170178],[-43.479419956894354,76.49912909035356],[-43.48445585636253,76.4995631461728]]]}},{"type":"Feature","properties":{"N03_001":"福岡県","N03_002":null,"N03_003":null,"N03_004":"筑後市","N03_007":"40211"},"geometry":{"type":"Polygon","coordinates":[[[-43.560385439640484,76.50139794525343],[-43.569056352023836,76.49925996999228],[-43.56458422395411,76.4977442059017],[-43.55198150977472,76.49706945689815],[-43.54361472241362,76.49710559721194],[-43.50474464305941,76.50049861041782],[-43.50916243118199,76.5006166820733],[-43.51443581682782,76.50252823998031],[-43.51939163158254,76.50206480986792],[-43.538202790630585,76.50296462574723],[-43.560385439640484,76.50139794525343]]]}},{"type":"Feature","properties":{"N03_001":"福岡県","N03_002":null,"N03_003":null,"N03_004":"大川市","N03_007":"40212"},"geometry":{"type":"Polygon","coordinates":[[[-43.61262475050434,76.50195591967034],[-43.62205703536435,76.50190769832166],[-43.62211983383254,76.50106528572425],[-43.649554709369596,76.49902282695804],[-43.63958679006437,76.49668783692272],[-43.62738775809171,76.49672421642445],[-43.606971428176855,76.49632046439254],[-43.58399607985751,76.49842892173191],[-43.58924835690784,76.50096721025658],[-43.61262475050434,76.50195591967034]]]}},{"type":"Feature","properties":{"N03_001":"福岡県","N03_002":null,"N03_003":null,"N03_004":"行橋市","N03_007":"40213"},"geometry":{"type":"Polygon","coordinates":[[[-43.34089227154229,76.52375121304125],[-43.32075777403572,76.52168596523417],[-43.32580346114754,76.51895381441065],[-43.28493019798998,76.52013292411635],[-43.27660770102063,76.51915923552085],[-43.256964303430365,76.52021275094577],[-43.28037724700016,76.52390210158828],[-43.314523192761825,76.52372134992532],[-43.33390867713516,76.52419853890513],[-43.34089227154229,76.52375121304125]]]}},{"type":"Feature","properties":{"N03_001":"福岡県","N03_002":null,"N03_003":null,"N03_004":"豊前市","N03_007":"40214"},"geometry":{"type":"Polygon","coordinates":[[[-43.193897899623614,76.51732737756221],[-43.21726451126137,76.51733856657896],[-43.230838358363876,76.51652941943104],[-43.23692176954255,76.51737821817171],[-43.257129204752964,76.51543559021687],[-43.267661605244534,76.51448046576613],[-43.27825863951489,76.51392674464769],[-43.29431329410875,76.51172421315174],[-43.267271581109725,76.51280585632439],[-43.25046901875288,76.51270206544088],[-43.22825817646419,76.5142989059722],[-43.21663214220547,76.51539314000415],[-43.20030447188179,76.51639718584696],[-43.193897899623614,76.51732737756221]]]}},{"type":"Feature","properties":{"N03_001":"福岡県","N03_002":null,"N03_003":null,"N03_004":"中間市","N03_007":"40215"},"geometry":{"type":"Polygon","coordinates":[[[-43.43381536616158,76.52920106638666],[-43.46812835335116,76.53000907020862],[-43.48183714707387,76.5267108545458],[-43.45031199632226,76.52201334284644],[-43.41911178655828,76.52539275962047],[-43.43381536616158,76.52920106638666]]]}},{"type":"Feature","properties":{"N03_001":"福岡県","N03_002":null,"N03_003":null,"N03_004":"小郡市","N03_007":"40216"},"geometry":{"type":"Polygon","coordinates":[[[-43.499799690528775,76.49829763786423],[-43.48323947071258,76.50166291089349],[-43.472991655561934,76.50381572727818],[-43.4919208898197,76.50611062463024],[-43.50958083235264,76.5061646999164],[-43.52408329997979,76.50504642271086],[-43.51955843200081,76.49889095070934],[-43.51573654952973,76.49947612216393],[-43.499799690528775,76.49829763786423]]]}},{"type":"Feature","properties":{"N03_001":"福岡県","N03_002":null,"N03_003":null,"N03_004":"筑紫野市","N03_007":"40217"},"geometry":{"type":"Polygon","coordinates":[[[-43.48616810393887,76.51555767772477],[-43.49197457258715,76.5146530850303],[-43.510666569354754,76.50764945271918],[-43.52903416873499,76.5068912441082],[-43.55282256969807,76.50454139659415],[-43.57168756493315,76.50486122056807],[-43.57220996048846,76.50410682086729],[-43.57153964023863,76.5040802668334],[-43.539254019202154,76.50450613101998],[-43.52408329997979,76.50504642271086],[-43.50958083235264,76.5061646999164],[-43.4919208898197,76.50611062463024],[-43.50250548565014,76.50684181240385],[-43.47281529216229,76.51061424062159],[-43.48616810393887,76.51555767772477]]]}},{"type":"Feature","properties":{"N03_001":"福岡県","N03_002":null,"N03_003":null,"N03_004":"春日市","N03_007":"40218"},"geometry":{"type":"Polygon","coordinates":[[[-43.57617035157489,76.51461219641158],[-43.602451560015595,76.50904748424678],[-43.589224066605716,76.50642078482109],[-43.55955792409161,76.50579862171087],[-43.559796268734985,76.51583239232171],[-43.57617035157489,76.51461219641158]]]}},{"type":"Feature","properties":{"N03_001":"福岡県","N03_002":null,"N03_003":null,"N03_004":"大野城市","N03_007":"40219"},"geometry":{"type":"Polygon","coordinates":[[[-43.559796268734985,76.51583239232171],[-43.55955792409161,76.50579862171087],[-43.589224066605716,76.50642078482109],[-43.57168756493315,76.50486122056807],[-43.55282256969807,76.50454139659415],[-43.54514484682932,76.50837177425043],[-43.525575030065134,76.51520517900892],[-43.545511545987665,76.51621522916624],[-43.559796268734985,76.51583239232171]]]}},{"type":"Feature","properties":{"N03_001":"福岡県","N03_002":null,"N03_003":null,"N03_004":"太宰府市","N03_007":"40221"},"geometry":{"type":"Polygon","coordinates":[[[-43.49197457258715,76.5146530850303],[-43.503832690887485,76.51558279742054],[-43.525575030065134,76.51520517900892],[-43.54514484682932,76.50837177425043],[-43.55282256969807,76.50454139659415],[-43.52903416873499,76.5068912441082],[-43.510666569354754,76.50764945271918],[-43.49197457258715,76.5146530850303]]]}},{"type":"Feature","properties":{"N03_001":"福岡県","N03_002":null,"N03_003":null,"N03_004":"古賀市","N03_007":"40223"},"geometry":{"type":"Polygon","coordinates":[[[-43.51894513896299,76.5222581405082],[-43.58341067655809,76.52629462133591],[-43.59571269299347,76.5249786218769],[-43.57897428822302,76.52254422625657],[-43.53953175631021,76.52013282770433],[-43.51791770951558,76.52112530430645],[-43.51894513896299,76.5222581405082]]]}},{"type":"Feature","properties":{"N03_001":"福岡県","N03_002":null,"N03_003":null,"N03_004":"福津市","N03_007":"40224"},"geometry":{"type":"Polygon","coordinates":[[[-43.57479517517283,76.53031921513676],[-43.57501836208001,76.52949270179728],[-43.595629099665096,76.52816449258827],[-43.58060376418728,76.52727244803673],[-43.58341067655809,76.52629462133591],[-43.51894513896299,76.5222581405082],[-43.519954830034884,76.52369934305094],[-43.53618001249752,76.5268752475737],[-43.56225730088408,76.52819915852184],[-43.56101445285123,76.5293302323086],[-43.57479517517283,76.53031921513676]]]}},{"type":"Feature","properties":{"N03_001":"福岡県","N03_002":null,"N03_003":null,"N03_004":"うきは市","N03_007":"40225"},"geometry":{"type":"Polygon","coordinates":[[[-43.44523287821067,76.49727135166103],[-43.438317936575295,76.49749797321714],[-43.41333137183013,76.49842764960215],[-43.389671514637605,76.50004942957028],[-43.37872375889327,76.50155791068792],[-43.385068803495955,76.50344092527561],[-43.39299856512909,76.50374862632313],[-43.405699473564766,76.50492942418627],[-43.41563448782847,76.50434365423378],[-43.42238954364336,76.50471784942563],[-43.43470270419238,76.50424464826733],[-43.44523287821067,76.49727135166103]]]}},{"type":"Feature","properties":{"N03_001":"福岡県","N03_002":null,"N03_003":null,"N03_004":"宮若市","N03_007":"40226"},"geometry":{"type":"Polygon","coordinates":[[[-43.519954830034884,76.52369934305094],[-43.51894513896299,76.5222581405082],[-43.51791770951558,76.52112530430645],[-43.51961079294373,76.52002260494625],[-43.50698421946139,76.51916189985629],[-43.49555214520406,76.51702912698202],[-43.481623157577836,76.51637757404836],[-43.47607652164503,76.51789189478133],[-43.46473139135903,76.51771400457895],[-43.45421237534449,76.51781492108353],[-43.456092690774,76.51905861877846],[-43.44616652460188,76.51952084037859],[-43.46276853920047,76.52047811031345],[-43.47352357918965,76.52036448637313],[-43.48916385046648,76.52418765184309],[-43.502590027628166,76.52411442929156],[-43.50002083811212,76.52282122804809],[-43.519954830034884,76.52369934305094]]]}},{"type":"Feature","properties":{"N03_001":"福岡県","N03_002":null,"N03_003":null,"N03_004":"嘉麻市","N03_007":"40227"},"geometry":{"type":"Polygon","coordinates":[[[-43.448255826263086,76.51490351396527],[-43.448944246990756,76.51472972896295],[-43.45293441186403,76.51266051643326],[-43.45506177368199,76.51008322632269],[-43.45202067998712,76.5093952317112],[-43.42917999399062,76.50686245482159],[-43.41617231006538,76.50743149414912],[-43.408155063026534,76.50612943018011],[-43.39367082982543,76.50833434866355],[-43.39623552176076,76.50969219671782],[-43.39793958190679,76.51113910901017],[-43.409981461361305,76.51254569356365],[-43.4254326487941,76.51390084212531],[-43.44214012405921,76.515070021026],[-43.448255826263086,76.51490351396527]]]}},{"type":"Feature","properties":{"N03_001":"福岡県","N03_002":null,"N03_003":null,"N03_004":"朝倉市","N03_007":"40228"},"geometry":{"type":"Polygon","coordinates":[[[-43.43470270419238,76.50424464826733],[-43.42238954364336,76.50471784942563],[-43.41563448782847,76.50434365423378],[-43.405699473564766,76.50492942418627],[-43.39299856512909,76.50374862632313],[-43.37977015364331,76.50503266930951],[-43.379805436205,76.50575981464647],[-43.39290021105844,76.50581351843633],[-43.39462766897962,76.5060602733653],[-43.40641903202029,76.5058064076419],[-43.408155063026534,76.50612943018011],[-43.41617231006538,76.50743149414912],[-43.42917999399062,76.50686245482159],[-43.45202067998712,76.5093952317112],[-43.45610594859935,76.50600405500553],[-43.451240176942726,76.50517200048479],[-43.4605805321518,76.50425162896936],[-43.47079353447388,76.50316612894116],[-43.46999807453065,76.50070400707959],[-43.45877118099589,76.50168507807048],[-43.43470270419238,76.50424464826733]]]}},{"type":"Feature","properties":{"N03_001":"福岡県","N03_002":null,"N03_003":null,"N03_004":"みやま市","N03_007":"40229"},"geometry":{"type":"Polygon","coordinates":[[[-43.5229605444558,76.49700621848952],[-43.50892569285169,76.49781601607728],[-43.50806832036728,76.49845641116208],[-43.4998550734436,76.50019700305408],[-43.50474464305941,76.50049861041782],[-43.54361472241362,76.49710559721194],[-43.55198150977472,76.49706945689815],[-43.56206042483408,76.49706829434545],[-43.575003861216274,76.49596559760933],[-43.59998615869611,76.49429293096624],[-43.597476363331666,76.49386706798748],[-43.575166607590894,76.49516965318261],[-43.55464873231317,76.4959944849167],[-43.53486820510234,76.49688014939264],[-43.5229605444558,76.49700621848952]]]}},{"type":"Feature","properties":{"N03_001":"福岡県","N03_002":null,"N03_003":null,"N03_004":"糸島市","N03_007":"40230"},"geometry":{"type":"Polygon","coordinates":[[[-43.74095129578823,76.51804818611951],[-43.760203645400146,76.51690642669166],[-43.761221240738756,76.51379419842806],[-43.78742961064555,76.5150933040929],[-43.76532221150506,76.51361444904255],[-43.759615728670546,76.51372367584274],[-43.774653125502,76.51390571048302],[-43.81052695102723,76.51296149210705],[-43.81675603170578,76.51190929215966],[-43.75594167119386,76.5139197743914],[-43.751452159078475,76.51383159457588],[-43.73880933400217,76.51363029671471],[-43.713279674255446,76.51138857698739],[-43.70271267754184,76.51096981615194],[-43.696967623846845,76.51149666574537],[-43.70744520315312,76.51250115478842],[-43.73015874278206,76.51318187309909],[-43.737662680865704,76.51344688600462],[-43.74095129578823,76.51804818611951]]]}},{"type":"Feature","properties":{"N03_001":"福岡県","N03_002":null,"N03_003":null,"N03_004":"那珂川市","N03_007":"40231"},"geometry":{"type":"Polygon","coordinates":[[[-43.644189632645,76.50851409491312],[-43.6176835665682,76.5063437611341],[-43.617247352067714,76.50568783530268],[-43.603482678848266,76.50441298645393],[-43.59591913092159,76.50423216098376],[-43.58539172943431,76.50390718655689],[-43.57220996048846,76.50410682086729],[-43.57168756493315,76.50486122056807],[-43.589224066605716,76.50642078482109],[-43.602451560015595,76.50904748424678],[-43.62727625043324,76.50804094910823],[-43.644189632645,76.50851409491312]]]}}]}