{"type":"FeatureCollection","features":[{"type":"Feature","properties":{"N03_001":"沖縄県","N03_002":null,"N03_003":null,"N03_004":"那覇市","N03_007":"47201"},"geometry":{"type":"Polygon","coordinates":[[[-45.1870254755468,76.1826527726525],[-45.14464094432038,76.18501820015717],[-45.126151282560805,76.18300265849976],[-45.1106210214932,76.18405123509747],[-45.10768895719895,76.18463314080957],[-45.143701032512645,76.18525430776694],[-45.16181927921263,76.18783870903982],[-45.16606311752377,76.18803613634859],[-45.16691162507683,76.18805858357247],[-45.17018537361245,76.18798679793287],[-45.162356497956104,76.18657864857853],[-45.182784776660526,76.18586476082822],[-45.190415962134104,76.18453920413074],[-45.1870254755468,76.1826527726525]]]}},{"type":"Feature","properties":{"N03_001":"沖縄県","N03_002":null,"N03_003":null,"N03_004":"宜野湾市","N03_007":"47205"},"geometry":{"type":"Polygon","coordinates":[[[-45.13084851320411,76.19133295572962],[-45.11619075788502,76.18718293202724],[-45.09856814979827,76.18522092205049],[-45.08660251603851,76.18567966487117],[-45.07684961346424,76.18957986103202],[-45.08420606393323,76.19073203814534],[-45.104760259211545,76.19221715224258],[-45.13084851320411,76.19133295572962]]]}},{"type":"Feature","properties":{"N03_001":"沖縄県","N03_002":null,"N03_003":null,"N03_004":"石垣市","N03_007":"47207"},"geometry":{"type":"Polygon","coordinates":[[[-47.047945624355506,76.11597510814038],[-47.06039945634056,76.11365293291766],[-47.08108147517462,76.10979692084942],[-47.086113681695764,76.1095826140969],[-47.0963567389742,76.1097181910649],[-47.09793227240354,76.11078170588941],[-47.10802078997828,76.11077046474558],[-47.11174673087644,76.11098418242015],[-47.118555288679474,76.11081788417866],[-47.130377708176624,76.11051977172784],[-47.1390111461585,76.1109827236265],[-47.16275567971806,76.11086715518424],[-47.15816322939124,76.11056651885933],[-47.13007462489232,76.11138695260736],[-47.1210184318778,76.11212626339416],[-47.127860983119966,76.1118764574337],[-47.148429774398494,76.10974814869881],[-47.121764639895545,76.10925364028527],[-47.11084497120864,76.11005430528792],[-47.1047772583592,76.11259668543346],[-47.092516277380085,76.11103705769325],[-47.08861360065478,76.11241464553113],[-47.08780855981041,76.11205274314173],[-47.08969796537592,76.11140267710009],[-47.089009835929524,76.11051512434116],[-47.07948915442544,76.11001024952967],[-47.077258725242686,76.10997252809945],[-47.058332851128434,76.11195309907612],[-47.05889150333839,76.11256361692008],[-47.040122742977125,76.11426365411225],[-47.03637414267888,76.1158302773588],[-47.047945624355506,76.11597510814038]]]}},{"type":"Feature","properties":{"N03_001":"沖縄県","N03_002":null,"N03_003":null,"N03_004":"南城市","N03_007":"47215"},"geometry":{"type":"Polygon","coordinates":[[[-45.0870829066276,76.18343846915151],[-45.10540121577529,76.1835061576093],[-45.116196735799264,76.18132152110628],[-45.11611248468118,76.18013725865129],[-45.09853896835202,76.17873817918226],[-45.07863193880846,76.1793586830315],[-45.05586510429908,76.18199084410422],[-45.06034824997695,76.18352733988502],[-45.0870829066276,76.18343846915151]]]}},{"type":"Feature","properties":{"N03_001":"沖縄県","N03_002":null,"N03_003":null,"N03_004":"浦添市","N03_007":"47208"},"geometry":{"type":"Polygon","coordinates":[[[-45.10768895719895,76.18463314080957],[-45.09856814979827,76.18522092205049],[-45.11619075788502,76.18718293202724],[-45.13084851320411,76.19133295572962],[-45.144858093018286,76.19102982884496],[-45.16181927921263,76.18783870903982],[-45.143701032512645,76.18525430776694],[-45.10768895719895,76.18463314080957]]]}},{"type":"Feature","properties":{"N03_001":"沖縄県","N03_002":null,"N03_003":null,"N03_004":"名護市","N03_007":"47209"},"geometry":{"type":"Polygon","coordinates":[[[-44.932068028467704,76.2012353654369],[-44.955060640817486,76.20067542932553],[-44.96875139759575,76.20070958309775],[-44.98289337641902,76.20147684863336],[-45.00622932933593,76.20243343678422],[-45.01733737049048,76.20194668730909],[-45.003962769410215,76.20177909129536],[-44.970455347288464,76.2011905702824],[-44.972372161602216,76.2014862051059],[-44.999404786220886,76.20050240277457],[-44.994235475760696,76.19996179937753],[-44.97763333955965,76.20134818643623],[-44.964856352168866,76.2014648255962],[-44.944087540123725,76.2017571503288],[-44.950444310725274,76.20142105356203],[-44.9403538572708,76.20147086908682],[-44.928736459912614,76.2012518669285],[-44.9176097251727,76.20082965402558],[-44.89852201744407,76.2003792336471],[-44.89604996258794,76.20073032441742],[-44.90693413732115,76.20115766540881],[-44.9268726846609,76.20087730114462],[-44.932068028467704,76.2012353654369]]]}},{"type":"Feature","properties":{"N03_001":"沖縄県","N03_002":null,"N03_003":null,"N03_004":"糸満市","N03_007":"47210"},"geometry":{"type":"Polygon","coordinates":[[[-45.127643066053395,76.18089307639946],[-45.16847590916622,76.1792843704539],[-45.169809741673085,76.17673657209565],[-45.15290457798286,76.17603842532154],[-45.11693482214092,76.17737531307421],[-45.127246277654876,76.17823113012305],[-45.1364258743586,76.17940740941646],[-45.127643066053395,76.18089307639946]]]}},{"type":"Feature","properties":{"N03_001":"沖縄県","N03_002":null,"N03_003":null,"N03_004":"沖縄市","N03_007":"47211"},"geometry":{"type":"Polygon","coordinates":[[[-45.04883444815623,76.19066955815396],[-45.06469413623555,76.19245451187354],[-45.05731459447826,76.19497568983373],[-45.08775849660311,76.19635170420719],[-45.08940560419142,76.19615554192873],[-45.090360007836324,76.19590792295182],[-45.096132360523775,76.19248074798082],[-45.086097809381435,76.191209632785],[-45.06990817013218,76.19046097753011],[-45.05641435499229,76.18951146397569],[-45.04883444815623,76.19066955815396]]]}},{"type":"Feature","properties":{"N03_001":"沖縄県","N03_002":null,"N03_003":null,"N03_004":"豊見城市","N03_007":"47212"},"geometry":{"type":"Polygon","coordinates":[[[-45.1870254755468,76.1826527726525],[-45.16847590916622,76.1792843704539],[-45.127643066053395,76.18089307639946],[-45.12282737734905,76.18212804376407],[-45.126151282560805,76.18300265849976],[-45.14464094432038,76.18501820015717],[-45.1870254755468,76.1826527726525]]]}},{"type":"Feature","properties":{"N03_001":"沖縄県","N03_002":null,"N03_003":null,"N03_004":"うるま市","N03_007":"47213"},"geometry":{"type":"Polygon","coordinates":[[[-45.04883444815623,76.19066955815396],[-45.036981583247986,76.19120942992964],[-45.01805356403617,76.18944791725734],[-45.00920152266019,76.19037377375557],[-45.023397317734975,76.19126019103899],[-45.03060921923729,76.19242476325952],[-45.03266811903085,76.19457414294936],[-45.06347981644779,76.19659217349236],[-45.05260364527538,76.1968135303727],[-45.05401826893051,76.19691905348314],[-45.05794435514738,76.19733887174739],[-45.08775849660311,76.19635170420719],[-45.05731459447826,76.19497568983373],[-45.06469413623555,76.19245451187354],[-45.04883444815623,76.19066955815396]]]}}]}