{"type":"FeatureCollection","features":[{"type":"Feature","properties":{"N03_001":"奈良県","N03_002":null,"N03_003":null,"N03_004":"奈良市","N03_007":"29201"},"geometry":{"type":"Polygon","coordinates":[[[-40.584057889255,76.57492933527473],[-40.6199249047734,76.57343599033737],[-40.614626034191815,76.57162672873565],[-40.591902714396625,76.57376364367387],[-40.54984714692423,76.57372030817425],[-40.53818293293311,76.57328676570587],[-40.53133454618159,76.57316490755531],[-40.52804428023412,76.57360543461563],[-40.51559266393752,76.57357635187896],[-40.51589782596368,76.57313907342609],[-40.499227933990355,76.5725815704953],[-40.48689382496903,76.56859609993633],[-40.49028295494298,76.56775269032691],[-40.47860256569579,76.56401324716687],[-40.47018869507146,76.56392561630724],[-40.47228409593832,76.5648637753489],[-40.465109725719245,76.56784002252057],[-40.470739439307174,76.5691999438863],[-40.4905495643592,76.57191557256918],[-40.49781547487699,76.57227104056379],[-40.50087783973169,76.57181720868188],[-40.49284164770078,76.57146676425673],[-40.47201217710637,76.57114318824091],[-40.44255240773004,76.57144387396862],[-40.43280381106006,76.57194988960099],[-40.441349554015666,76.57290904240908],[-40.460024706447484,76.57153773586215],[-40.488934871181065,76.57120359434121],[-40.49412811808996,76.57121675123571],[-40.50879478442251,76.57078414336537],[-40.512206966444374,76.57073354924853],[-40.51919132197517,76.57115076561983],[-40.52047888371165,76.5718288834818],[-40.5290774036556,76.57214066255176],[-40.56667533335881,76.5735981784214],[-40.584057889255,76.57492933527473]]]}},{"type":"Feature","properties":{"N03_001":"奈良県","N03_002":null,"N03_003":null,"N03_004":"大和高田市","N03_007":"29202"},"geometry":{"type":"Polygon","coordinates":[[[-40.57860548089637,76.56631034295923],[-40.612604524084375,76.56688794773314],[-40.6362853689109,76.56216342552881],[-40.59711092823915,76.55495562134456],[-40.5948654483721,76.55484791344449],[-40.57860548089637,76.56631034295923]]]}},{"type":"Feature","properties":{"N03_001":"奈良県","N03_002":null,"N03_003":null,"N03_004":"大和郡山市","N03_007":"29203"},"geometry":{"type":"Polygon","coordinates":[[[-40.614626034191815,76.57162672873565],[-40.621913966723234,76.57090223853663],[-40.59867436230272,76.56898659594886],[-40.58407239545663,76.56746894602114],[-40.566879424826865,76.56799139520844],[-40.54298731787534,76.57328770198889],[-40.53818293293311,76.57328676570587],[-40.54984714692423,76.57372030817425],[-40.591902714396625,76.57376364367387],[-40.614626034191815,76.57162672873565]]]}},{"type":"Feature","properties":{"N03_001":"奈良県","N03_002":null,"N03_003":null,"N03_004":"天理市","N03_007":"29204"},"geometry":{"type":"Polygon","coordinates":[[[-40.53818293293311,76.57328676570587],[-40.54298731787534,76.57328770198889],[-40.566879424826865,76.56799139520844],[-40.56868004606958,76.56751647519245],[-40.566468390083394,76.56749161842379],[-40.55774267987532,76.56825524261062],[-40.543757984644074,76.56521476152719],[-40.51959858569797,76.56466365828389],[-40.49028295494298,76.56775269032691],[-40.48689382496903,76.56859609993633],[-40.499227933990355,76.5725815704953],[-40.51589782596368,76.57313907342609],[-40.51559266393752,76.57357635187896],[-40.52804428023412,76.57360543461563],[-40.53133454618159,76.57316490755531],[-40.53818293293311,76.57328676570587]]]}},{"type":"Feature","properties":{"N03_001":"奈良県","N03_002":null,"N03_003":null,"N03_004":"橿原市","N03_007":"29205"},"geometry":{"type":"Polygon","coordinates":[[[-40.5948654483721,76.55484791344449],[-40.58826375251231,76.55452123145879],[-40.57189807900141,76.55493024732024],[-40.5412099923689,76.55841874748704],[-40.54648028064011,76.56470146791001],[-40.57623649515874,76.56634535737187],[-40.57860548089637,76.56631034295923],[-40.5948654483721,76.55484791344449]]]}},{"type":"Feature","properties":{"N03_001":"奈良県","N03_002":null,"N03_003":null,"N03_004":"桜井市","N03_007":"29206"},"geometry":{"type":"Polygon","coordinates":[[[-40.49028295494298,76.56775269032691],[-40.51959858569797,76.56466365828389],[-40.543757984644074,76.56521476152719],[-40.54648028064011,76.56470146791001],[-40.5412099923689,76.55841874748704],[-40.528967206746294,76.55681540611391],[-40.515417935828026,76.55829233716166],[-40.509990914253805,76.55985941973307],[-40.47960236508329,76.56371964938837],[-40.47860256569579,76.56401324716687],[-40.49028295494298,76.56775269032691]]]}},{"type":"Feature","properties":{"N03_001":"奈良県","N03_002":null,"N03_003":null,"N03_004":"五條市","N03_007":"29207"},"geometry":{"type":"Polygon","coordinates":[[[-40.60768021210308,76.54834235720996],[-40.648312282023866,76.55129844901208],[-40.65537268885058,76.55128394998128],[-40.65985301145586,76.55098513997486],[-40.64535305937835,76.5487566313608],[-40.637858919255464,76.54730289554364],[-40.628472558838986,76.54832388955187],[-40.61833669390754,76.54865315680418],[-40.61486137390342,76.54943567494261],[-40.619987647073756,76.54989894903319],[-40.62577489309455,76.55054318873509],[-40.61427950953715,76.5508951203562],[-40.615516125159814,76.54934853869341],[-40.62625344594993,76.54782260644843],[-40.63455806851406,76.54558234693258],[-40.65183781599459,76.54393210549983],[-40.63929992193449,76.54411888622786],[-40.625828801111695,76.54544190993956],[-40.605048265922676,76.5508294204074],[-40.59159206972558,76.54860568900837],[-40.55563655701366,76.54756230093625],[-40.53076198822059,76.54644587375009],[-40.534056834357266,76.54755121219186],[-40.54518053493343,76.54838428069876],[-40.564424886345755,76.54919677073339],[-40.57646220837227,76.55020994582168],[-40.59282880217772,76.55076126001129],[-40.60844712920564,76.55019605787218],[-40.607788571694094,76.5489899720256],[-40.59806877500843,76.54897883670608],[-40.59283665235534,76.54930750643851],[-40.57812629651001,76.54849216153346],[-40.5843173435021,76.5482193905949],[-40.59857594131296,76.54810974587839],[-40.59466749881119,76.54851194453997],[-40.60768021210308,76.54834235720996]]]}},{"type":"Feature","properties":{"N03_001":"奈良県","N03_002":null,"N03_003":null,"N03_004":"御所市","N03_007":"29208"},"geometry":{"type":"Polygon","coordinates":[[[-40.648312282023866,76.55129844901208],[-40.60768021210308,76.54834235720996],[-40.60828416980148,76.54909687059522],[-40.59030517534298,76.55163831893107],[-40.58826375251231,76.55452123145879],[-40.5948654483721,76.55484791344449],[-40.59711092823915,76.55495562134456],[-40.64102717952995,76.55481350098175],[-40.65595545669581,76.55527410029748],[-40.651548842694524,76.55453518350478],[-40.65982353608959,76.55314842379568],[-40.648312282023866,76.55129844901208]]]}},{"type":"Feature","properties":{"N03_001":"奈良県","N03_002":null,"N03_003":null,"N03_004":"生駒市","N03_007":"29209"},"geometry":{"type":"Polygon","coordinates":[[[-40.621913966723234,76.57090223853663],[-40.614626034191815,76.57162672873565],[-40.6199249047734,76.57343599033737],[-40.584057889255,76.57492933527473],[-40.603137707173055,76.5768627611566],[-40.61279975566136,76.57771302971888],[-40.624663430647665,76.57797672845932],[-40.63701263348205,76.57741338583425],[-40.632422153253444,76.57531942606454],[-40.65915288599307,76.57320690923954],[-40.65904457817528,76.57305684422803],[-40.657059366653975,76.57115612891832],[-40.62290196142638,76.57086783543733],[-40.621913966723234,76.57090223853663]]]}},{"type":"Feature","properties":{"N03_001":"奈良県","N03_002":null,"N03_003":null,"N03_004":"香芝市","N03_007":"29210"},"geometry":{"type":"Polygon","coordinates":[[[-40.67362055973598,76.5619758821895],[-40.64932985961654,76.5626286957007],[-40.6362853689109,76.56216342552881],[-40.612604524084375,76.56688794773314],[-40.613003987612394,76.56764826984616],[-40.629766044030546,76.56960595478189],[-40.66565923538095,76.56879399548397],[-40.681395563607104,76.56413002807174],[-40.67833057371538,76.56330233205276],[-40.67362055973598,76.5619758821895]]]}},{"type":"Feature","properties":{"N03_001":"奈良県","N03_002":null,"N03_003":null,"N03_004":"葛城市","N03_007":"29211"},"geometry":{"type":"Polygon","coordinates":[[[-40.65595545669581,76.55527410029748],[-40.64102717952995,76.55481350098175],[-40.59711092823915,76.55495562134456],[-40.6362853689109,76.56216342552881],[-40.64932985961654,76.5626286957007],[-40.67362055973598,76.5619758821895],[-40.6684093891647,76.55986969659492],[-40.65601360782202,76.55529025891404],[-40.65595545669581,76.55527410029748]]]}},{"type":"Feature","properties":{"N03_001":"奈良県","N03_002":null,"N03_003":null,"N03_004":"宇陀市","N03_007":"29212"},"geometry":{"type":"Polygon","coordinates":[[[-40.470739439307174,76.5691999438863],[-40.465109725719245,76.56784002252057],[-40.47228409593832,76.5648637753489],[-40.47018869507146,76.56392561630724],[-40.47860256569579,76.56401324716687],[-40.47960236508329,76.56371964938837],[-40.509990914253805,76.55985941973307],[-40.515417935828026,76.55829233716166],[-40.499697675324,76.55896641216559],[-40.48993816324657,76.5584690149209],[-40.47358369085537,76.56035033369287],[-40.43523142090154,76.5628321516689],[-40.422015403739806,76.56332736276129],[-40.41676570419097,76.56410439737111],[-40.43077111151946,76.56361897170075],[-40.44382243557068,76.56381306671214],[-40.44375058616771,76.56536889640066],[-40.43589664943444,76.56710831467343],[-40.45529970222754,76.56860552500859],[-40.470739439307174,76.5691999438863]]]}}]}