{"type":"FeatureCollection","features":[{"type":"Feature","properties":{"N03_001":"長崎県","N03_002":null,"N03_003":null,"N03_004":"長崎市","N03_007":"42201"},"geometry":{"type":"Polygon","coordinates":[[[-43.868225187834696,76.47902110922594],[-43.863169254821386,76.47958820959303],[-43.86923707220759,76.47988022148934],[-43.90873419224318,76.47888096692607],[-43.91162369953543,76.47893954009068],[-43.932216189764404,76.47921708411377],[-43.93704902968942,76.47929722973747],[-43.948018514470355,76.47930453188891],[-43.95800370758537,76.47878253315439],[-43.9570553903499,76.47866152661551],[-43.95553259014632,76.48009283459109],[-43.96644782040328,76.48251591229264],[-43.95099341464131,76.48366456810453],[-43.95676522994803,76.4848254128737],[-43.96432155056107,76.48535503391774],[-43.989170647817,76.48431159143857],[-43.98799582292596,76.48210540971316],[-44.024388249603746,76.48256361918745],[-44.016367911476806,76.48112916580516],[-43.99675889810003,76.4794176568783],[-43.978222856911685,76.47914341245927],[-43.975825559955,76.47904997842173],[-43.96561708282884,76.47919826203912],[-43.96637394278454,76.47924333588902],[-43.95784059729579,76.47907275174641],[-43.94665056362477,76.47920481536968],[-43.940534500557916,76.47983529466384],[-43.948266032359214,76.47960490217486],[-43.96312510454701,76.47383756587222],[-43.98207580996463,76.4715881033012],[-43.956340477045124,76.47234649334573],[-43.939466468389156,76.47433515591162],[-43.94101011598948,76.47513497994164],[-43.91823776463417,76.47625711002044],[-43.90832884669959,76.47875168610503],[-43.91209589830721,76.47944794043511],[-43.88921490337727,76.47896347730304],[-43.88963633501678,76.47924349174356],[-43.868225187834696,76.47902110922594]]]}},{"type":"Feature","properties":{"N03_001":"長崎県","N03_002":null,"N03_003":null,"N03_004":"壱岐市","N03_007":"42210"},"geometry":{"type":"Polygon","coordinates":[[[-44.01260163665223,76.53229225283611],[-44.03056065296188,76.53142995517781],[-44.04439367665257,76.52869733195725],[-44.04974119646382,76.52486375300863],[-44.03070667007207,76.52309741890797],[-44.00591060170014,76.52210670656875],[-43.98999479107467,76.52334517634824],[-43.96134542471645,76.52443495579452],[-43.95921717648022,76.5260315987006],[-43.97145663137144,76.52716058154611],[-43.97769984831859,76.52902776469902],[-43.969721323391866,76.53099321519527],[-43.99995640023977,76.53186149286043],[-44.01260163665223,76.53229225283611]]]}},{"type":"Feature","properties":{"N03_001":"長崎県","N03_002":null,"N03_003":null,"N03_004":"南島原市","N03_007":"42214"},"geometry":{"type":"Polygon","coordinates":[[[-43.632029678946935,76.47544900659932],[-43.641010558699556,76.4753685530618],[-43.70005189987496,76.4769119014577],[-43.705184087549675,76.47627673653032],[-43.76170688472951,76.47362237984606],[-43.78517107826758,76.47369459029467],[-43.78408789877278,76.47289226409083],[-43.76067425652544,76.47127187255758],[-43.75233434391468,76.46984613635843],[-43.731376965713956,76.46987316880396],[-43.71375465395951,76.4703385030557],[-43.697613418505206,76.47204918126818],[-43.678377895532854,76.47158002713182],[-43.64897908355602,76.47284514635187],[-43.643451896512175,76.47375446200013],[-43.65052625499536,76.47422012619309],[-43.632029678946935,76.47544900659932]]]}},{"type":"Feature","properties":{"N03_001":"長崎県","N03_002":null,"N03_003":null,"N03_004":"島原市","N03_007":"42203"},"geometry":{"type":"Polygon","coordinates":[[[-43.632029678946935,76.47544900659932],[-43.62197442939757,76.47936683090056],[-43.656821999956364,76.48544152878522],[-43.67281515110118,76.48557994618027],[-43.68970731225269,76.48471217310933],[-43.69573391761213,76.48345364062922],[-43.7112288959725,76.47823042438858],[-43.70005189987496,76.4769119014577],[-43.641010558699556,76.4753685530618],[-43.632029678946935,76.47544900659932]]]}},{"type":"Feature","properties":{"N03_001":"長崎県","N03_002":null,"N03_003":null,"N03_004":"諫早市","N03_007":"42204"},"geometry":{"type":"Polygon","coordinates":[[[-43.79802840999978,76.48678587362218],[-43.807634110608575,76.48455780322698],[-43.8177783120795,76.4849428347412],[-43.83222172547757,76.48321905174723],[-43.850613174230574,76.48046397319773],[-43.864789830536075,76.4801546092584],[-43.888701824802574,76.47955481607463],[-43.89979430585207,76.4790946337272],[-43.921949679152334,76.47853796256733],[-43.91862802373929,76.47861894913778],[-43.90873419224318,76.47888096692607],[-43.86923707220759,76.47988022148934],[-43.863169254821386,76.47958820959303],[-43.868225187834696,76.47902110922594],[-43.84530981871831,76.47915449899362],[-43.811775964959274,76.48102184186851],[-43.79174471898794,76.48090235258617],[-43.781638254762356,76.48107721817073],[-43.775851468123136,76.48190686202518],[-43.779278510708906,76.48224119707794],[-43.76507997158078,76.48301191541839],[-43.77171152496909,76.483657473095],[-43.74210266513856,76.48582625949072],[-43.73876086745575,76.48716835548065],[-43.7680383927542,76.48660040121564],[-43.79802840999978,76.48678587362218]]]}},{"type":"Feature","properties":{"N03_001":"長崎県","N03_002":null,"N03_003":null,"N03_004":"大村市","N03_007":"42205"},"geometry":{"type":"Polygon","coordinates":[[[-43.850613174230574,76.48046397319773],[-43.83222172547757,76.48321905174723],[-43.8177783120795,76.4849428347412],[-43.807634110608575,76.48455780322698],[-43.79802840999978,76.48678587362218],[-43.80341713627132,76.48786804782488],[-43.821112656759546,76.48938303419129],[-43.82214082236169,76.4894042124277],[-43.875790336668786,76.48876960683718],[-43.88371913542833,76.4887041432874],[-43.89729518795426,76.48620782271016],[-43.899776816704666,76.48190723930321],[-43.88431309339118,76.48021462523116],[-43.87574951283713,76.47988819398009],[-43.850613174230574,76.48046397319773]]]}},{"type":"Feature","properties":{"N03_001":"長崎県","N03_002":null,"N03_003":null,"N03_004":"雲仙市","N03_007":"42213"},"geometry":{"type":"Polygon","coordinates":[[[-43.70005189987496,76.4769119014577],[-43.7112288959725,76.47823042438858],[-43.69573391761213,76.48345364062922],[-43.68970731225269,76.48471217310933],[-43.67281515110118,76.48557994618027],[-43.68258564316129,76.4856721460031],[-43.71142502772891,76.48460892513782],[-43.72168143124701,76.48441202374882],[-43.753023520912684,76.48260416956249],[-43.76507997158078,76.48301191541839],[-43.779278510708906,76.48224119707794],[-43.775851468123136,76.48190686202518],[-43.781638254762356,76.48107721817073],[-43.76215720582577,76.48066217555292],[-43.74459716656975,76.47766712893026],[-43.74950451042819,76.4769393792112],[-43.78424032721128,76.47509737136537],[-43.78517107826758,76.47369459029467],[-43.76170688472951,76.47362237984606],[-43.705184087549675,76.47627673653032],[-43.70005189987496,76.4769119014577]]]}}]}