{"type":"FeatureCollection","features":[{"type":"Feature","properties":{"N03_001":"宮崎県","N03_002":null,"N03_003":null,"N03_004":"宮崎市","N03_007":"45201"},"geometry":{"type":"Polygon","coordinates":[[[-43.03871452839794,76.44343691533736],[-43.052491271148206,76.44372366027902],[-43.06548908707261,76.44188986748598],[-43.06561662781435,76.4410809563226],[-43.07454562218015,76.43927445025628],[-43.0864223210247,76.43956260275333],[-43.10514651810774,76.43909435281026],[-43.12749313603186,76.43958704845433],[-43.152771216701574,76.4395640212865],[-43.16924009461213,76.44041967397817],[-43.16229993976987,76.43991746717937],[-43.170923868575436,76.43886163904543],[-43.16724958012185,76.4383726540528],[-43.15429051846953,76.4376393168803],[-43.172422927061156,76.4372105578548],[-43.17414653704092,76.43620803295374],[-43.140139530401676,76.43662970794695],[-43.13650902095498,76.43621367883577],[-43.156960540161556,76.43514028547908],[-43.1472313565236,76.43439448016814],[-43.146944326759936,76.43374355472842],[-43.130204890066864,76.43346327399813],[-43.12001063433896,76.43329592274159],[-43.093272866324924,76.43421926013593],[-43.0874962918644,76.43389018103113],[-43.062442429959944,76.43353575808494],[-43.06167641735994,76.4326161173618],[-43.04234749784629,76.43143051335535],[-43.02172859060858,76.4308780207383],[-43.022417524518836,76.4321443159098],[-43.01190129616141,76.43365164172697],[-43.03217841502478,76.43518849609188],[-43.034138173767914,76.4357331856872],[-43.030813330966886,76.43726764449696],[-43.015378014254836,76.44019455424156],[-42.99757997331781,76.44358915654354],[-43.00946017754587,76.44319190672653],[-43.03871452839794,76.44343691533736]]]}},{"type":"Feature","properties":{"N03_001":"宮崎県","N03_002":null,"N03_003":null,"N03_004":"都城市","N03_007":"45202"},"geometry":{"type":"Polygon","coordinates":[[[-43.16724958012185,76.4383726540528],[-43.20482523384333,76.43862639471298],[-43.22091442051431,76.43783562140908],[-43.2270194939247,76.4382193091514],[-43.21965711607646,76.4373313206931],[-43.22974910714598,76.43687683802244],[-43.255498887441405,76.43772190828757],[-43.279305445145106,76.43558275164312],[-43.29883863293275,76.43585666859207],[-43.32003804648639,76.4356252697487],[-43.332191164711666,76.4353027708519],[-43.34414045193619,76.43322449877087],[-43.33965299568455,76.43291474477988],[-43.31887788535206,76.43304643989357],[-43.31222243822196,76.43261536827028],[-43.28065641594633,76.43283683771952],[-43.2857941635842,76.43221968736188],[-43.26703497768967,76.43213728733895],[-43.26927321866989,76.43107338167394],[-43.26191492059448,76.43060789380888],[-43.265817845343946,76.42932220457455],[-43.25180778374662,76.42745106834829],[-43.23705741376164,76.42913113319354],[-43.211919567201306,76.42775182432221],[-43.18769881749512,76.42839768687101],[-43.176599484889785,76.42809456329476],[-43.16820309233869,76.42870966976562],[-43.192595768001205,76.42997769070003],[-43.201082099482015,76.42985506812185],[-43.226920256850235,76.43152121093641],[-43.22168482838778,76.43273492754297],[-43.20918699456464,76.43310856535673],[-43.19874941163513,76.4325411839233],[-43.18740162676048,76.43248518731508],[-43.18053664836216,76.433024478514],[-43.1472313565236,76.43439448016814],[-43.156960540161556,76.43514028547908],[-43.13650902095498,76.43621367883577],[-43.140139530401676,76.43662970794695],[-43.17414653704092,76.43620803295374],[-43.172422927061156,76.4372105578548],[-43.15429051846953,76.4376393168803],[-43.16724958012185,76.4383726540528]]]}},{"type":"Feature","properties":{"N03_001":"宮崎県","N03_002":null,"N03_003":null,"N03_004":"延岡市","N03_007":"45203"},"geometry":{"type":"Polygon","coordinates":[[[-42.98300567966102,76.47689603047054],[-42.99750597991801,76.4769087326232],[-42.99299919855336,76.47564415319755],[-43.0114124888207,76.47535644418389],[-43.0244211464817,76.47385147575324],[-43.01585152878956,76.47378102503953],[-43.018713867354634,76.47256210647808],[-43.03254069038182,76.47128916179528],[-43.00515690123941,76.47221706467242],[-42.9866048102561,76.47246241400826],[-42.97554950632458,76.47215929746962],[-42.95382791032303,76.47311934355308],[-42.93597269212883,76.47277468005457],[-42.93080971930683,76.4718295380203],[-42.91765978672543,76.47192882560907],[-42.89574882612342,76.46937534482142],[-42.87362141601797,76.46921608152648],[-42.896166258428345,76.4717149500355],[-42.90004727405199,76.47283750991622],[-42.89026930165394,76.47372730817827],[-42.87458334875612,76.47370464326066],[-42.861351295379,76.47420016635097],[-42.866218221351836,76.47453344034206],[-42.83174883674752,76.47537997307099],[-42.7933748828859,76.47707336234068],[-42.7953340709593,76.47702845429629],[-42.81732882032661,76.47642867325679],[-42.81676911204044,76.47793010012361],[-42.806156550608556,76.48000188663651],[-42.8358096478914,76.47950835892159],[-42.84592643112566,76.47985657662178],[-42.873930683821,76.47904172725161],[-42.8808153568703,76.47684581648767],[-42.888864078124925,76.47603212681953],[-42.90486401710683,76.47597306834166],[-42.94299045554215,76.47607850158757],[-42.952285379109284,76.47584163191588],[-42.96712703438126,76.47599902837592],[-42.98300567966102,76.47689603047054]]]}},{"type":"Feature","properties":{"N03_001":"宮崎県","N03_002":null,"N03_003":null,"N03_004":"日南市","N03_007":"45204"},"geometry":{"type":"Polygon","coordinates":[[[-43.130204890066864,76.43346327399813],[-43.135595728864125,76.43213446473331],[-43.15154319730719,76.43149084114401],[-43.17880815013044,76.43114056571449],[-43.192595768001205,76.42997769070003],[-43.16820309233869,76.42870966976562],[-43.135953284874766,76.42812657401964],[-43.13753576327687,76.42755233716156],[-43.124614193282234,76.42717787793858],[-43.12126973070642,76.42539995656509],[-43.10528964896111,76.42029487953258],[-43.070858338210456,76.41980185685719],[-43.05543749694907,76.42005707812129],[-43.06090751541905,76.42433266349063],[-43.042936585680415,76.42644733371428],[-43.02240734868639,76.42712894186488],[-43.027919905861005,76.42992416111801],[-43.02172859060858,76.4308780207383],[-43.04234749784629,76.43143051335535],[-43.06167641735994,76.4326161173618],[-43.062442429959944,76.43353575808494],[-43.0874962918644,76.43389018103113],[-43.093272866324924,76.43421926013593],[-43.12001063433896,76.43329592274159],[-43.130204890066864,76.43346327399813]]]}},{"type":"Feature","properties":{"N03_001":"宮崎県","N03_002":null,"N03_003":null,"N03_004":"小林市","N03_007":"45205"},"geometry":{"type":"Polygon","coordinates":[[[-43.295759917520606,76.44801535053399],[-43.286438311205565,76.4458157898022],[-43.29455822914649,76.44403371356157],[-43.305724435714545,76.44276415436542],[-43.32769791789704,76.44297392609593],[-43.340735257987326,76.43765891837049],[-43.35199142553137,76.4367977753823],[-43.341414113355285,76.43660166534352],[-43.32817701757652,76.43557886052469],[-43.32013667362136,76.43563166832828],[-43.32029280982231,76.43641886228862],[-43.297898743825506,76.43777113942757],[-43.27951033724404,76.43988060356133],[-43.26574646538107,76.43866755818996],[-43.2424575327617,76.43925190765655],[-43.2270194939247,76.4382193091514],[-43.22091442051431,76.43783562140908],[-43.20482523384333,76.43862639471298],[-43.16724958012185,76.4383726540528],[-43.170923868575436,76.43886163904543],[-43.16229993976987,76.43991746717937],[-43.16924009461213,76.44041967397817],[-43.18687615189455,76.44093335026422],[-43.19458921548549,76.44189974366773],[-43.188096964492644,76.4433153623862],[-43.191821924617905,76.44433318055532],[-43.1788682136667,76.44483015718585],[-43.186757441628096,76.44726294493894],[-43.20566391494128,76.44772204646208],[-43.21886121089707,76.44916904900332],[-43.22535014780467,76.44871088246074],[-43.24422146956153,76.44907087979529],[-43.25576161903659,76.45006563750952],[-43.273801667394295,76.45036276012492],[-43.2791461459971,76.44982884143619],[-43.295759917520606,76.44801535053399]]]}},{"type":"Feature","properties":{"N03_001":"宮崎県","N03_002":null,"N03_003":null,"N03_004":"日向市","N03_007":"45206"},"geometry":{"type":"Polygon","coordinates":[[[-42.910745159956726,76.46761811503939],[-42.93234226146893,76.46833019802189],[-42.94359034990358,76.46931790504156],[-42.95613529135967,76.46780277526783],[-42.97005049074079,76.46763657986972],[-42.993538018382004,76.46832479175676],[-43.0108574316067,76.46772975200697],[-43.01022289522755,76.46500588995632],[-43.03559126463658,76.46284596488118],[-43.058047398369425,76.46231408029706],[-43.0722911646183,76.45999979158998],[-43.090211970770255,76.46026569843762],[-43.091453457678114,76.45867538719487],[-43.04498672444873,76.45672307288281],[-43.01930809636509,76.45673065390105],[-43.000524179764625,76.45513754847761],[-42.98283139870881,76.4562303311989],[-42.96372886373569,76.45698021761113],[-42.960464976098415,76.45573530506518],[-42.941698557824544,76.45621864367826],[-42.91870996979828,76.45967614112278],[-42.921218747792174,76.46009421967989],[-42.91050830117522,76.464346764903],[-42.90109196254524,76.46430703702251],[-42.89403201906613,76.46566361522541],[-42.910745159956726,76.46761811503939]]]}},{"type":"Feature","properties":{"N03_001":"宮崎県","N03_002":null,"N03_003":null,"N03_004":"串間市","N03_007":"45207"},"geometry":{"type":"Polygon","coordinates":[[[-43.176599484889785,76.42809456329476],[-43.17970996860021,76.42759308520552],[-43.16971082764078,76.42679437023595],[-43.17964146097528,76.42542313910982],[-43.183435847476446,76.42212943748522],[-43.19929279338575,76.42086592068783],[-43.20438113987731,76.41715686991161],[-43.177504006204785,76.41515590628747],[-43.14862581689173,76.4129046974829],[-43.15278693993254,76.4121090472842],[-43.13411659718737,76.41138064061914],[-43.08794761236213,76.41281606772245],[-43.06787315529592,76.41453109471682],[-43.06271185494418,76.41559253582538],[-43.06476950539744,76.41814238904287],[-43.05543749694907,76.42005707812129],[-43.070858338210456,76.41980185685719],[-43.10528964896111,76.42029487953258],[-43.12126973070642,76.42539995656509],[-43.124614193282234,76.42717787793858],[-43.13753576327687,76.42755233716156],[-43.135953284874766,76.42812657401964],[-43.16820309233869,76.42870966976562],[-43.176599484889785,76.42809456329476]]]}},{"type":"Feature","properties":{"N03_001":"宮崎県","N03_002":null,"N03_003":null,"N03_004":"西都市","N03_007":"45208"},"geometry":{"type":"Polygon","coordinates":[[[-43.03871452839794,76.44343691533736],[-43.04896523415139,76.44404428531448],[-43.044101471948416,76.44567565028275],[-43.03034311582792,76.4472437549687],[-43.02930924875404,76.44762829983897],[-43.045253464733996,76.4491778627273],[-43.05703745830854,76.45183316479206],[-43.080022481148724,76.45422225541137],[-43.08493022211933,76.4553767031302],[-43.12118066954183,76.45770501425744],[-43.142207590354346,76.45864165840159],[-43.15634047572507,76.45833664355332],[-43.16995141375305,76.45909126768767],[-43.18329561980831,76.45753395476],[-43.174465432695754,76.45749500565871],[-43.156318151101964,76.45583627479647],[-43.158726497127006,76.45508459412999],[-43.14146216508655,76.45248871100226],[-43.12368166189956,76.45038811789442],[-43.13958220814449,76.44939949812654],[-43.157395588309875,76.44976489481246],[-43.17471660383238,76.44735268438585],[-43.16148109816717,76.44677154125233],[-43.1516320594483,76.4454872024197],[-43.13300659254301,76.44509616147056],[-43.121978788092136,76.44376284404781],[-43.10582979296273,76.44305787957448],[-43.085311566192765,76.44140715155307],[-43.06561662781435,76.4410809563226],[-43.06548908707261,76.44188986748598],[-43.052491271148206,76.44372366027902],[-43.03871452839794,76.44343691533736]]]}},{"type":"Feature","properties":{"N03_001":"宮崎県","N03_002":null,"N03_003":null,"N03_004":"えびの市","N03_007":"45209"},"geometry":{"type":"Polygon","coordinates":[[[-43.35199142553137,76.4367977753823],[-43.340735257987326,76.43765891837049],[-43.32769791789704,76.44297392609593],[-43.305724435714545,76.44276415436542],[-43.29455822914649,76.44403371356157],[-43.286438311205565,76.4458157898022],[-43.295759917520606,76.44801535053399],[-43.32023407742285,76.44993538398994],[-43.34106567636645,76.45059632470918],[-43.35487832577884,76.4495868774975],[-43.42841093614906,76.44897121184535],[-43.44641910098286,76.44820840961401],[-43.45656223028037,76.44655935157634],[-43.45715255732809,76.44533134000726],[-43.441725188547395,76.44462583227666],[-43.41653234699224,76.44138425351507],[-43.407740474743534,76.43852521378597],[-43.38236590280963,76.4369562799073],[-43.35199142553137,76.4367977753823]]]}}]}