{"type":"FeatureCollection","features":[{"type":"Feature","properties":{"N03_001":"滋賀県","N03_002":null,"N03_003":null,"N03_004":"大津市","N03_007":"25201"},"geometry":{"type":"Polygon","coordinates":[[[-40.46107006707153,76.61049919518805],[-40.469632933191214,76.61067872220542],[-40.484302454130834,76.61031504859487],[-40.49349120571283,76.61017301032234],[-40.505335353591065,76.60964496425017],[-40.51559856780596,76.60933563029704],[-40.530703536579296,76.60815758412086],[-40.547908444015256,76.60613258153185],[-40.56628487596668,76.60258071964464],[-40.55637873670517,76.5889839962301],[-40.55284994899202,76.58858553201418],[-40.553700488034586,76.59222874956328],[-40.55776113357551,76.59261875249851],[-40.55373228721236,76.59380710749006],[-40.557183264676794,76.59421657584973],[-40.56414694861878,76.59316496789613],[-40.574936014422505,76.58689805680464],[-40.564145548506964,76.58283133266848],[-40.55547639146258,76.57959622996617],[-40.52985652501518,76.5779246258076],[-40.5058260247348,76.57774184982843],[-40.49932242842328,76.57743497181566],[-40.46591014889539,76.57741994196279],[-40.44528789645464,76.57761299296048],[-40.41410708366961,76.57868242675843],[-40.413022997476695,76.57839438350783],[-40.44041705290062,76.57743849339336],[-40.45272512740856,76.57691359042055],[-40.48033300810318,76.57800260479843],[-40.526365823271725,76.57848625934717],[-40.55769454452911,76.59082152512421],[-40.54227944838575,76.59318829273174],[-40.53504822015596,76.59071802051352],[-40.545009142543464,76.59736222380177],[-40.51949812177193,76.60475581010617],[-40.491893913565505,76.6070011831729],[-40.474504586988786,76.6080174513908],[-40.46107006707153,76.61049919518805]]]}},{"type":"Feature","properties":{"N03_001":"滋賀県","N03_002":null,"N03_003":null,"N03_004":"彦根市","N03_007":"25202"},"geometry":{"type":"Polygon","coordinates":[[[-40.274471708300936,76.60319978423937],[-40.27812720127956,76.60407421226942],[-40.30387931211192,76.6060810645966],[-40.33733462967309,76.60783294558303],[-40.35611155252675,76.60954673218282],[-40.36210184201031,76.61220317499473],[-40.39873849810765,76.61169647373607],[-40.39251657445109,76.60857583381542],[-40.4091799358294,76.60887996414515],[-40.43144414855698,76.61058040656442],[-40.42959466480785,76.61024631776566],[-40.40506953954717,76.60632465327525],[-40.36726947601668,76.60194956365748],[-40.3482302594753,76.59974970909043],[-40.335064014600796,76.59898688151583],[-40.326620092302655,76.59980066887245],[-40.317763361130055,76.6007111976977],[-40.30349048342257,76.60145565567427],[-40.2985618090255,76.60265064838921],[-40.274471708300936,76.60319978423937]]]}},{"type":"Feature","properties":{"N03_001":"滋賀県","N03_002":null,"N03_003":null,"N03_004":"長浜市","N03_007":"25203"},"geometry":{"type":"Polygon","coordinates":[[[-40.39604620797559,76.61145686634185],[-40.40839689678327,76.61126544645128],[-40.39760337606293,76.61201139723393],[-40.401495772822116,76.61192731042715],[-40.421300546448975,76.61053107940528],[-40.42174705804352,76.61064079420728],[-40.39873849810765,76.61169647373607],[-40.36210184201031,76.61220317499473],[-40.342565972563506,76.61267352096989],[-40.317958211981406,76.61112596635103],[-40.29888210291941,76.60936792767038],[-40.298023253988035,76.61130788227256],[-40.29063559672326,76.61189245115332],[-40.297572141325496,76.61341109103431],[-40.31052953847287,76.6133157391755],[-40.30490168691358,76.61257764971172],[-40.31333293960315,76.61221350000298],[-40.307995312134494,76.61307369282227],[-40.324468314334716,76.61219348732416],[-40.3221258722827,76.61504026394219],[-40.34235349943151,76.61639492392469],[-40.359315559672986,76.61684328364841],[-40.365765382987966,76.6179446035967],[-40.382936388433166,76.61762048038759],[-40.38285974115958,76.61759104380721],[-40.38946861847457,76.61565844635797],[-40.382492663845255,76.61489309090743],[-40.367443143104595,76.61160842303968],[-40.37197000370481,76.6116544229214],[-40.39202449122039,76.61136630021144],[-40.39604620797559,76.61145686634185]]]}},{"type":"Feature","properties":{"N03_001":"滋賀県","N03_002":null,"N03_003":null,"N03_004":"近江八幡市","N03_007":"25204"},"geometry":{"type":"Polygon","coordinates":[[[-40.474504586988786,76.6080174513908],[-40.47130274500383,76.60736760564599],[-40.431103540359864,76.60070267972532],[-40.39204448154278,76.59544801917176],[-40.36796111259037,76.59535948025997],[-40.35466809095207,76.59439153362732],[-40.36661525948201,76.59554399718631],[-40.34976368478236,76.59565178973641],[-40.34460074636237,76.59648522711846],[-40.37025932822765,76.59987352624255],[-40.383480713698944,76.60239480351291],[-40.40078934621213,76.60440873701512],[-40.42959466480785,76.61024631776566],[-40.43144414855698,76.61058040656442],[-40.43735838824776,76.61080341451738],[-40.46107006707153,76.61049919518805],[-40.474504586988786,76.6080174513908]]]}},{"type":"Feature","properties":{"N03_001":"滋賀県","N03_002":null,"N03_003":null,"N03_004":"草津市","N03_007":"25206"},"geometry":{"type":"Polygon","coordinates":[[[-40.48033300810318,76.57800260479843],[-40.4682962859586,76.58908885647864],[-40.50842629790286,76.59319944751121],[-40.51690553214213,76.59164655563823],[-40.531212770454516,76.59104796290903],[-40.53504822015596,76.59071802051352],[-40.54227944838575,76.59318829273174],[-40.55769454452911,76.59082152512421],[-40.526365823271725,76.57848625934717],[-40.48033300810318,76.57800260479843]]]}},{"type":"Feature","properties":{"N03_001":"滋賀県","N03_002":null,"N03_003":null,"N03_004":"守山市","N03_007":"25207"},"geometry":{"type":"Polygon","coordinates":[[[-40.53504822015596,76.59071802051352],[-40.531212770454516,76.59104796290903],[-40.51690553214213,76.59164655563823],[-40.492564376566136,76.59233944434517],[-40.484723038983184,76.59182254561766],[-40.45042789100678,76.59858865256311],[-40.522262519550296,76.6044919058188],[-40.51949812177193,76.60475581010617],[-40.545009142543464,76.59736222380177],[-40.53504822015596,76.59071802051352]]]}},{"type":"Feature","properties":{"N03_001":"滋賀県","N03_002":null,"N03_003":null,"N03_004":"栗東市","N03_007":"25208"},"geometry":{"type":"Polygon","coordinates":[[[-40.413022997476695,76.57839438350783],[-40.39672560173447,76.57847988937542],[-40.40811475624116,76.57853601102379],[-40.44440260829628,76.59407092063273],[-40.484723038983184,76.59182254561766],[-40.492564376566136,76.59233944434517],[-40.51690553214213,76.59164655563823],[-40.50842629790286,76.59319944751121],[-40.4682962859586,76.58908885647864],[-40.48033300810318,76.57800260479843],[-40.45272512740856,76.57691359042055],[-40.44041705290062,76.57743849339336],[-40.413022997476695,76.57839438350783]]]}},{"type":"Feature","properties":{"N03_001":"滋賀県","N03_002":null,"N03_003":null,"N03_004":"甲賀市","N03_007":"25209"},"geometry":{"type":"Polygon","coordinates":[[[-40.23695054879066,76.58969693337244],[-40.25278993923768,76.59013715535664],[-40.274497367297286,76.58987779376204],[-40.27643808052827,76.58751075863417],[-40.29653128192419,76.58600918924533],[-40.315581464559884,76.58322512119226],[-40.32573439786989,76.58280138361528],[-40.3300027510948,76.58306159005913],[-40.33792651746994,76.58434887919309],[-40.336682671957945,76.58685841761069],[-40.34292159958542,76.58986631762168],[-40.34975092567005,76.58956891729896],[-40.35606118483854,76.58156798585338],[-40.36010257849961,76.58073775344563],[-40.37343862313517,76.57962339699648],[-40.39672560173447,76.57847988937542],[-40.413022997476695,76.57839438350783],[-40.41410708366961,76.57868242675843],[-40.44528789645464,76.57761299296048],[-40.46591014889539,76.57741994196279],[-40.49932242842328,76.57743497181566],[-40.495860576208344,76.57692058337872],[-40.47788327972207,76.57664071757694],[-40.453506019103166,76.57703445982375],[-40.4391540930303,76.57692665353781],[-40.44581203789822,76.57596987464632],[-40.41167194819879,76.57767507763123],[-40.3744033800091,76.5810137002776],[-40.3883568392277,76.58063830983592],[-40.38135438381784,76.58041845304413],[-40.37054350412532,76.58084444362723],[-40.350933223520094,76.58119613267723],[-40.345345268578136,76.58169351324675],[-40.32738665674249,76.58254876862233],[-40.31541703901791,76.58280962795612],[-40.269740732327925,76.58351168823167],[-40.26354416777849,76.585087902143],[-40.25023150360929,76.5858003410288],[-40.238414126554694,76.58771614904926],[-40.23514127283746,76.58859364693485],[-40.23695054879066,76.58969693337244]]]}},{"type":"Feature","properties":{"N03_001":"滋賀県","N03_002":null,"N03_003":null,"N03_004":"野洲市","N03_007":"25210"},"geometry":{"type":"Polygon","coordinates":[[[-40.51949812177193,76.60475581010617],[-40.522262519550296,76.6044919058188],[-40.45042789100678,76.59858865256311],[-40.484723038983184,76.59182254561766],[-40.44440260829628,76.59407092063273],[-40.414788008463596,76.59369654676789],[-40.39995575080736,76.59401833457558],[-40.39204448154278,76.59544801917176],[-40.431103540359864,76.60070267972532],[-40.47130274500383,76.60736760564599],[-40.474504586988786,76.6080174513908],[-40.491893913565505,76.6070011831729],[-40.51949812177193,76.60475581010617]]]}},{"type":"Feature","properties":{"N03_001":"滋賀県","N03_002":null,"N03_003":null,"N03_004":"湖南市","N03_007":"25211"},"geometry":{"type":"Polygon","coordinates":[[[-40.39672560173447,76.57847988937542],[-40.37343862313517,76.57962339699648],[-40.36010257849961,76.58073775344563],[-40.35606118483854,76.58156798585338],[-40.34975092567005,76.58956891729896],[-40.363221410703986,76.59246450835235],[-40.371845403530095,76.59120701823963],[-40.39995575080736,76.59401833457558],[-40.414788008463596,76.59369654676789],[-40.44440260829628,76.59407092063273],[-40.40811475624116,76.57853601102379],[-40.39672560173447,76.57847988937542]]]}},{"type":"Feature","properties":{"N03_001":"滋賀県","N03_002":null,"N03_003":null,"N03_004":"高島市","N03_007":"25212"},"geometry":{"type":"Polygon","coordinates":[[[-40.530703536579296,76.60815758412086],[-40.51559856780596,76.60933563029704],[-40.505335353591065,76.60964496425017],[-40.49349120571283,76.61017301032234],[-40.484302454130834,76.61031504859487],[-40.469632933191214,76.61067872220542],[-40.46107006707153,76.61049919518805],[-40.43735838824776,76.61080341451738],[-40.43144414855698,76.61058040656442],[-40.4091799358294,76.60887996414515],[-40.39251657445109,76.60857583381542],[-40.39873849810765,76.61169647373607],[-40.42174705804352,76.61064079420728],[-40.421300546448975,76.61053107940528],[-40.401495772822116,76.61192731042715],[-40.39760337606293,76.61201139723393],[-40.40839689678327,76.61126544645128],[-40.39604620797559,76.61145686634185],[-40.40447873192166,76.6112514912407],[-40.411915934069526,76.61108727744552],[-40.44015464847212,76.61036255205762],[-40.45527836197305,76.60848935112483],[-40.47447554428082,76.60833395737629],[-40.48195263435164,76.60926355003124],[-40.494435003916124,76.60824092251259],[-40.496317494738875,76.60867238058778],[-40.506620999081434,76.60877045375301],[-40.51697744778783,76.60868834779241],[-40.52167318168493,76.60850843886024],[-40.55003465596469,76.60863274206073],[-40.56495811239834,76.60822195902014],[-40.58211105799397,76.60719936815222],[-40.56813115387949,76.60677445890782],[-40.55832529483165,76.60706509199491],[-40.55110959073275,76.60636954904777],[-40.530703536579296,76.60815758412086]]]}},{"type":"Feature","properties":{"N03_001":"滋賀県","N03_002":null,"N03_003":null,"N03_004":"東近江市","N03_007":"25213"},"geometry":{"type":"Polygon","coordinates":[[[-40.3482302594753,76.59974970909043],[-40.36726947601668,76.60194956365748],[-40.40506953954717,76.60632465327525],[-40.42959466480785,76.61024631776566],[-40.40078934621213,76.60440873701512],[-40.383480713698944,76.60239480351291],[-40.37025932822765,76.59987352624255],[-40.34460074636237,76.59648522711846],[-40.34976368478236,76.59565178973641],[-40.36661525948201,76.59554399718631],[-40.35466809095207,76.59439153362732],[-40.34292159958542,76.58986631762168],[-40.336682671957945,76.58685841761069],[-40.32323217511995,76.59114488363953],[-40.322426983994966,76.59304424140034],[-40.312034024703124,76.59306678994773],[-40.29389464018815,76.59254853716115],[-40.2811649392534,76.5915918472345],[-40.274497367297286,76.58987779376204],[-40.25278993923768,76.59013715535664],[-40.23695054879066,76.58969693337244],[-40.23837206635028,76.59153594155126],[-40.22600770238828,76.59219984377397],[-40.22666349186276,76.59313088223264],[-40.22396166694813,76.59468576487183],[-40.231357562847926,76.59496035251219],[-40.219746149552925,76.59636229278995],[-40.24465466472663,76.59739365579561],[-40.25454584634649,76.59780807481123],[-40.26289766000109,76.59650636337531],[-40.25742730061793,76.59535664099215],[-40.27047983826713,76.59507622972008],[-40.27866666366225,76.59558937820404],[-40.29297415597168,76.59625655019248],[-40.309763430235414,76.59648328436826],[-40.324293641442516,76.59634452726289],[-40.33386066018099,76.59675130555334],[-40.3482302594753,76.59974970909043]]]}},{"type":"Feature","properties":{"N03_001":"滋賀県","N03_002":null,"N03_003":null,"N03_004":"米原市","N03_007":"25214"},"geometry":{"type":"Polygon","coordinates":[[[-40.30490168691358,76.61257764971172],[-40.31052953847287,76.6133157391755],[-40.297572141325496,76.61341109103431],[-40.29063559672326,76.61189245115332],[-40.298023253988035,76.61130788227256],[-40.29888210291941,76.60936792767038],[-40.317958211981406,76.61112596635103],[-40.342565972563506,76.61267352096989],[-40.36210184201031,76.61220317499473],[-40.35611155252675,76.60954673218282],[-40.33733462967309,76.60783294558303],[-40.30387931211192,76.6060810645966],[-40.27812720127956,76.60407421226942],[-40.274471708300936,76.60319978423937],[-40.25399023881433,76.60357268327891],[-40.24870038812512,76.60424736015698],[-40.24007069984252,76.60677647097263],[-40.24829016158071,76.60828798952849],[-40.230545369584775,76.60879376630604],[-40.25452909340728,76.61097956845745],[-40.248481631729945,76.61171397411154],[-40.268906978714355,76.61268126370776],[-40.282590465492085,76.61298544008011],[-40.27031854416646,76.61303355631787],[-40.28861919524609,76.61291568119536],[-40.30490168691358,76.61257764971172]]]}}]}