{"type":"FeatureCollection","features":[{"type":"Feature","properties":{"N03_001":"高知県","N03_002":null,"N03_003":null,"N03_004":"高知市","N03_007":"39201"},"geometry":{"type":"Polygon","coordinates":[[[-41.84361269273983,76.52476737098455],[-41.904729549463255,76.52350516373242],[-41.925389034402,76.52301850703034],[-41.935434479004634,76.52220110572001],[-41.91873627010196,76.51991454052427],[-41.88869766031131,76.51856969611893],[-41.89177201481167,76.51719427535272],[-41.899873746701,76.51713079647035],[-41.87743791440916,76.51104198453683],[-41.83859498585833,76.51332715138524],[-41.819369705996145,76.51382760226538],[-41.80846960776803,76.51464172641597],[-41.84540625728957,76.52018452211249],[-41.837210328380614,76.5233186050552],[-41.84361269273983,76.52476737098455]]]}},{"type":"Feature","properties":{"N03_001":"高知県","N03_002":null,"N03_003":null,"N03_004":"室戸市","N03_007":"39202"},"geometry":{"type":"Polygon","coordinates":[[[-41.46038273610413,76.511623909254],[-41.46573524456602,76.51262229742805],[-41.484260161058955,76.51407851486442],[-41.51994336642915,76.5136689777084],[-41.53339049580851,76.51228921958966],[-41.55782937235054,76.50915575790215],[-41.57510548840348,76.50804500770924],[-41.557504042250486,76.50680434955014],[-41.53511141833938,76.50476006429628],[-41.53120548913717,76.50338565748628],[-41.51720203440627,76.50350510875381],[-41.49150323344039,76.50133763883302],[-41.48821900019304,76.50335854483622],[-41.48059971838018,76.50517630326618],[-41.47264087178614,76.50939462563927],[-41.46038273610413,76.511623909254]]]}},{"type":"Feature","properties":{"N03_001":"高知県","N03_002":null,"N03_003":null,"N03_004":"安芸市","N03_007":"39203"},"geometry":{"type":"Polygon","coordinates":[[[-41.567205193701916,76.52511407131601],[-41.61147524238283,76.5253494849427],[-41.63193159660119,76.52586793844505],[-41.6467595495262,76.52639409335055],[-41.65691020398649,76.52648029837526],[-41.65953111179592,76.5261670910274],[-41.65065279628344,76.52229983589326],[-41.658076022421824,76.51669481521186],[-41.682125200205775,76.51347739195444],[-41.66998434681787,76.51377002498216],[-41.630523665759,76.51433459734021],[-41.62022941605471,76.51340528066747],[-41.61520872666927,76.51168944376654],[-41.60095400207159,76.51376715136398],[-41.59603605638135,76.51593948279071],[-41.57901455359154,76.51794723032285],[-41.59038801975396,76.52173614502131],[-41.58579937625574,76.52281365056032],[-41.56147086811358,76.52318393819787],[-41.57077810106971,76.52429189101791],[-41.567205193701916,76.52511407131601]]]}},{"type":"Feature","properties":{"N03_001":"高知県","N03_002":null,"N03_003":null,"N03_004":"南国市","N03_007":"39204"},"geometry":{"type":"Polygon","coordinates":[[[-41.819369705996145,76.51382760226538],[-41.77211788588367,76.5138117811625],[-41.76837360630293,76.51759096883312],[-41.773765403650025,76.52283631349027],[-41.76196678733204,76.52712042624782],[-41.77348947686391,76.52704703357783],[-41.80417975399612,76.52691061702518],[-41.815859840201256,76.52691547655058],[-41.82480611531329,76.52677553759587],[-41.84164624914772,76.52585948366622],[-41.84361269273983,76.52476737098455],[-41.837210328380614,76.5233186050552],[-41.84540625728957,76.52018452211249],[-41.80846960776803,76.51464172641597],[-41.819369705996145,76.51382760226538]]]}},{"type":"Feature","properties":{"N03_001":"高知県","N03_002":null,"N03_003":null,"N03_004":"土佐市","N03_007":"39205"},"geometry":{"type":"Polygon","coordinates":[[[-41.899873746701,76.51713079647035],[-41.90597499687697,76.51814182612036],[-41.931573770437474,76.5194070885958],[-41.97948512748351,76.51710400193612],[-41.9837313170769,76.51708193413472],[-42.003648486804295,76.51339429799778],[-41.993777288583914,76.50890894099884],[-41.942012150413255,76.50810085963859],[-41.91527292337854,76.5116921499429],[-41.8990756842473,76.51088064416435],[-41.90204959670363,76.50828472046757],[-41.89558537507729,76.50956408504553],[-41.87743791440916,76.51104198453683],[-41.899873746701,76.51713079647035]]]}},{"type":"Feature","properties":{"N03_001":"高知県","N03_002":null,"N03_003":null,"N03_004":"須崎市","N03_007":"39206"},"geometry":{"type":"Polygon","coordinates":[[[-41.90204959670363,76.50828472046757],[-41.8990756842473,76.51088064416435],[-41.91527292337854,76.5116921499429],[-41.942012150413255,76.50810085963859],[-41.993777288583914,76.50890894099884],[-42.003648486804295,76.51339429799778],[-42.03349226518368,76.51108499094035],[-42.058208313865855,76.50930281862688],[-42.057517999803906,76.50739242457104],[-42.07415037493502,76.50709928763939],[-42.06348052610139,76.50557426853935],[-42.04689411427218,76.5051933770016],[-42.02176106694818,76.50228692947871],[-42.027197917820324,76.50355898129048],[-42.008908819022274,76.5038793319752],[-41.97943443727335,76.50304869832863],[-41.96213867335674,76.50498091573321],[-41.928513300376636,76.50545170524828],[-41.89868310079635,76.50746054193101],[-41.90224221349163,76.50776660991677],[-41.90204959670363,76.50828472046757]]]}},{"type":"Feature","properties":{"N03_001":"高知県","N03_002":null,"N03_003":null,"N03_004":"土佐清水市","N03_007":"39209"},"geometry":{"type":"Polygon","coordinates":[[[-42.161225661434976,76.4873791326979],[-42.17688613460241,76.48821111602254],[-42.19136133033799,76.48812839263752],[-42.212264976848175,76.490481489734],[-42.217220517729466,76.4884494096233],[-42.21119375684533,76.48756635363081],[-42.22266229559388,76.48630352256818],[-42.2611480855808,76.48592873144408],[-42.27821052533101,76.48587714733007],[-42.278432311754834,76.4841335718014],[-42.29021866518687,76.48349913699495],[-42.29157702954287,76.48180989151567],[-42.27811985622214,76.48021002017855],[-42.27810353220675,76.47939157825108],[-42.26964683618016,76.47889489212406],[-42.23564965648425,76.48112050366274],[-42.209230431075284,76.4809356983317],[-42.193719044206674,76.48014308860627],[-42.17716242331179,76.4788282010639],[-42.17471806198217,76.477868048412],[-42.15971747368371,76.47733050429679],[-42.14777705091458,76.47760651748874],[-42.15909996475217,76.48063784137402],[-42.17954308877653,76.48139087670577],[-42.18389757640083,76.483051101286],[-42.18419665314028,76.48536561393364],[-42.166422524971246,76.48489025753315],[-42.161225661434976,76.4873791326979]]]}},{"type":"Feature","properties":{"N03_001":"高知県","N03_002":null,"N03_003":null,"N03_004":"四万十市","N03_007":"39210"},"geometry":{"type":"Polygon","coordinates":[[[-42.212264976848175,76.490481489734],[-42.19136133033799,76.48812839263752],[-42.17688613460241,76.48821111602254],[-42.161225661434976,76.4873791326979],[-42.170810194597955,76.48864585911502],[-42.17388253511671,76.49094499705559],[-42.204441337028726,76.4932114599555],[-42.20070450120381,76.49307056799206],[-42.1905367972065,76.49291259364041],[-42.14747682133636,76.49386043537409],[-42.14345361524477,76.49421459574323],[-42.16471434031024,76.49426179115642],[-42.19490819603293,76.49320955684985],[-42.21177723281247,76.4927864346822],[-42.22528274817778,76.49288419527176],[-42.2399932432825,76.49270025621888],[-42.25629420206636,76.49292284124901],[-42.258230900872015,76.49439696588276],[-42.2763028620038,76.49868882169045],[-42.282529342899245,76.49742952417675],[-42.277014789607485,76.49491526041524],[-42.294412114191836,76.49543895413498],[-42.29717140710885,76.49403729237845],[-42.31733342482245,76.49406797639907],[-42.35267472140264,76.49672549557694],[-42.36503179389394,76.49633593310651],[-42.35342470819215,76.49538936761603],[-42.342624022784385,76.4941426370408],[-42.33130199709788,76.49381369007425],[-42.29462136966054,76.49310536363754],[-42.281124796375224,76.49314898734076],[-42.2846955787936,76.49322016657571],[-42.26815107597225,76.49311657882315],[-42.25466629014985,76.49312948805286],[-42.2549306865983,76.4930023158398],[-42.252359171686486,76.4916912211106],[-42.225301067926544,76.49183892928077],[-42.212264976848175,76.490481489734]]]}},{"type":"Feature","properties":{"N03_001":"高知県","N03_002":null,"N03_003":null,"N03_004":"香南市","N03_007":"39211"},"geometry":{"type":"Polygon","coordinates":[[[-41.65691020398649,76.52648029837526],[-41.667228687010095,76.52654747958242],[-41.67296680665907,76.52711760422964],[-41.688842674387395,76.52779259636718],[-41.69411296940649,76.52810420256912],[-41.72102474094761,76.52658493713301],[-41.75976678806698,76.52157376880061],[-41.76837360630293,76.51759096883312],[-41.77211788588367,76.5138117811625],[-41.74066771578063,76.51317235296973],[-41.71659724651739,76.51223628558303],[-41.67212498394226,76.52312675295191],[-41.66137664065983,76.52338388630965],[-41.65953111179592,76.5261670910274],[-41.65691020398649,76.52648029837526]]]}},{"type":"Feature","properties":{"N03_001":"高知県","N03_002":null,"N03_003":null,"N03_004":"香美市","N03_007":"39212"},"geometry":{"type":"Polygon","coordinates":[[[-41.815859840201256,76.52691547655058],[-41.80417975399612,76.52691061702518],[-41.77348947686391,76.52704703357783],[-41.76196678733204,76.52712042624782],[-41.773765403650025,76.52283631349027],[-41.76837360630293,76.51759096883312],[-41.75976678806698,76.52157376880061],[-41.72102474094761,76.52658493713301],[-41.69411296940649,76.52810420256912],[-41.688842674387395,76.52779259636718],[-41.67296680665907,76.52711760422964],[-41.667228687010095,76.52654747958242],[-41.65691020398649,76.52648029837526],[-41.6467595495262,76.52639409335055],[-41.63193159660119,76.52586793844505],[-41.61147524238283,76.5253494849427],[-41.567205193701916,76.52511407131601],[-41.572870862526955,76.52609120769743],[-41.570417168580384,76.52690354319135],[-41.5843662233416,76.52785289181813],[-41.58339389291886,76.52864660127906],[-41.605673440516384,76.5278004592075],[-41.60927634225696,76.52835328167787],[-41.62490326203646,76.52767945266359],[-41.64093393282769,76.52521305334751],[-41.652504060739254,76.52503539203987],[-41.66705413199897,76.52502546116995],[-41.673274216914244,76.5256039575055],[-41.694441348977016,76.5264107564955],[-41.69997611839962,76.52667260223858],[-41.710567820604645,76.5265011894671],[-41.7175740639096,76.52684468656088],[-41.74044747169373,76.52726107059647],[-41.78359715338543,76.5275086824338],[-41.815859840201256,76.52691547655058]]]}}]}