{"type":"FeatureCollection","features":[{"type":"Feature","properties":{"N03_001":"京都府","N03_002":null,"N03_003":"京都市","N03_004":"北区","N03_007":"26101"},"geometry":{"type":"Polygon","coordinates":[[[-40.66419024800853,76.6077133355153],[-40.69193358728787,76.60799120545339],[-40.714810320080915,76.60887227889474],[-40.71743497749709,76.61074757426034],[-40.726785258155985,76.61145259575204],[-40.72199222406865,76.6122035760812],[-40.699105148276544,76.61258334510457],[-40.683198944545666,76.60589714731401],[-40.67777153761094,76.60801303543504],[-40.582560870040524,76.61017152193577],[-40.635964329621515,76.61279482967402],[-40.66339604683426,76.60999430752577],[-40.66702537751962,76.60847620520883],[-40.66419024800853,76.6077133355153]]]}},{"type":"Feature","properties":{"N03_001":"京都府","N03_002":null,"N03_003":"京都市","N03_004":"上京区","N03_007":"26102"},"geometry":{"type":"Polygon","coordinates":[[[-40.67777153761094,76.60801303543504],[-40.583754893499474,76.60074556510945],[-40.582560870040524,76.61017152193577],[-40.67777153761094,76.60801303543504]]]}},{"type":"Feature","properties":{"N03_001":"京都府","N03_002":null,"N03_003":"京都市","N03_004":"左京区","N03_007":"26103"},"geometry":{"type":"Polygon","coordinates":[[[-40.628449724629476,76.60604723100332],[-40.65204767293577,76.60380478398648],[-40.67245833552938,76.60341476165708],[-40.68672882328122,76.60392562075948],[-40.68870874838553,76.6044661061364],[-40.659729936160225,76.60384956321123],[-40.655453373980265,76.60503436099046],[-40.658713160140316,76.60577190068939],[-40.64931441970117,76.60672378749337],[-40.64977523785119,76.6076513252685],[-40.66419024800853,76.6077133355153],[-40.66702537751962,76.60847620520883],[-40.66339604683426,76.60999430752577],[-40.635964329621515,76.61279482967402],[-40.582560870040524,76.61017152193577],[-40.583754893499474,76.60074556510945],[-40.58931684006157,76.60011077848526],[-40.572185657715686,76.60099727740334],[-40.55126418606107,76.60015849755591],[-40.54453022539716,76.59970164940694],[-40.56200668525883,76.60253742579684],[-40.5536902949083,76.60202576861448],[-40.576426756191914,76.60854235097742],[-40.58442138365774,76.60894363848398],[-40.60791404832306,76.60742628776676],[-40.59758644370607,76.60661472416842],[-40.58277996794281,76.60688531348357],[-40.6045329846026,76.60637361865656],[-40.61776236171092,76.60635182810394],[-40.628449724629476,76.60604723100332]]]}},{"type":"Feature","properties":{"N03_001":"京都府","N03_002":null,"N03_003":"京都市","N03_004":"中京区","N03_007":"26104"},"geometry":{"type":"Polygon","coordinates":[[[-40.683198944545666,76.60589714731401],[-40.67936098075574,76.60086040820403],[-40.59610566343459,76.59964875734346],[-40.58931684006157,76.60011077848526],[-40.583754893499474,76.60074556510945],[-40.67777153761094,76.60801303543504],[-40.683198944545666,76.60589714731401]]]}},{"type":"Feature","properties":{"N03_001":"京都府","N03_002":null,"N03_003":"京都市","N03_004":"東山区","N03_007":"26105"},"geometry":{"type":"Polygon","coordinates":[[[-40.58931684006157,76.60011077848526],[-40.59610566343459,76.59964875734346],[-40.61226696313559,76.58866194838365],[-40.609479044020844,76.58698593664718],[-40.573243791535475,76.58511712460997],[-40.572185657715686,76.60099727740334],[-40.58931684006157,76.60011077848526]]]}},{"type":"Feature","properties":{"N03_001":"京都府","N03_002":null,"N03_003":"京都市","N03_004":"下京区","N03_007":"26106"},"geometry":{"type":"Polygon","coordinates":[[[-40.67936098075574,76.60086040820403],[-40.675773625673905,76.60035755386882],[-40.61226696313559,76.58866194838365],[-40.59610566343459,76.59964875734346],[-40.67936098075574,76.60086040820403]]]}},{"type":"Feature","properties":{"N03_001":"京都府","N03_002":null,"N03_003":"京都市","N03_004":"南区","N03_007":"26107"},"geometry":{"type":"Polygon","coordinates":[[[-40.61226696313559,76.58866194838365],[-40.675773625673905,76.60035755386882],[-40.68195393720685,76.60045690121378],[-40.68675684389166,76.59950648466847],[-40.63852044127263,76.58284303980521],[-40.609479044020844,76.58698593664718],[-40.61226696313559,76.58866194838365]]]}},{"type":"Feature","properties":{"N03_001":"京都府","N03_002":null,"N03_003":"京都市","N03_004":"右京区","N03_007":"26108"},"geometry":{"type":"Polygon","coordinates":[[[-40.66419024800853,76.6077133355153],[-40.64977523785119,76.6076513252685],[-40.64931441970117,76.60672378749337],[-40.658713160140316,76.60577190068939],[-40.655453373980265,76.60503436099046],[-40.659729936160225,76.60384956321123],[-40.68870874838553,76.6044661061364],[-40.68672882328122,76.60392562075948],[-40.71021097106506,76.60457842166377],[-40.72009574469207,76.60426342073205],[-40.72652120131578,76.60553013034139],[-40.73499624713137,76.60602431703211],[-40.73621427509624,76.60698964178394],[-40.75042710157047,76.608496957043],[-40.75175776102626,76.60927885859147],[-40.74327315180374,76.61007170124333],[-40.7434543003001,76.61112825767063],[-40.74732046041724,76.6113293023728],[-40.74027471203813,76.61176122347901],[-40.74595737231902,76.60859466304329],[-40.737012288714226,76.60450971026418],[-40.70645011915285,76.6028082508204],[-40.68195393720685,76.60045690121378],[-40.675773625673905,76.60035755386882],[-40.67936098075574,76.60086040820403],[-40.683198944545666,76.60589714731401],[-40.699105148276544,76.61258334510457],[-40.72199222406865,76.6122035760812],[-40.726785258155985,76.61145259575204],[-40.71743497749709,76.61074757426034],[-40.714810320080915,76.60887227889474],[-40.69193358728787,76.60799120545339],[-40.66419024800853,76.6077133355153]]]}},{"type":"Feature","properties":{"N03_001":"京都府","N03_002":null,"N03_003":"京都市","N03_004":"伏見区","N03_007":"26109"},"geometry":{"type":"Polygon","coordinates":[[[-40.520175308931606,76.58886214148156],[-40.531227101309845,76.58917823785336],[-40.56771514598241,76.58511528077203],[-40.573243791535475,76.58511712460997],[-40.609479044020844,76.58698593664718],[-40.63852044127263,76.58284303980521],[-40.646945584106085,76.58209947922504],[-40.660666879358466,76.58200577498796],[-40.670945347372,76.58229853200815],[-40.628058628735495,76.5811949320525],[-40.628367475631265,76.58148900247272],[-40.633484738400995,76.58201164224427],[-40.6341141930855,76.58207390047342],[-40.611102346642,76.58199332530796],[-40.579487810011614,76.58330059547285],[-40.55251386904479,76.58552727203734],[-40.530845531140194,76.58650625763083],[-40.52547629181212,76.58828405218212],[-40.513934465780956,76.58775585522217],[-40.520175308931606,76.58886214148156]]]}},{"type":"Feature","properties":{"N03_001":"京都府","N03_002":null,"N03_003":"京都市","N03_004":"山科区","N03_007":"26110"},"geometry":{"type":"Polygon","coordinates":[[[-40.55126418606107,76.60015849755591],[-40.572185657715686,76.60099727740334],[-40.573243791535475,76.58511712460997],[-40.56771514598241,76.58511528077203],[-40.531227101309845,76.58917823785336],[-40.520175308931606,76.58886214148156],[-40.52297811183884,76.59143928668679],[-40.55126418606107,76.60015849755591]]]}},{"type":"Feature","properties":{"N03_001":"京都府","N03_002":null,"N03_003":"京都市","N03_004":"西京区","N03_007":"26111"},"geometry":{"type":"Polygon","coordinates":[[[-40.68195393720685,76.60045690121378],[-40.70645011915285,76.6028082508204],[-40.737012288714226,76.60450971026418],[-40.732042869204676,76.60325631464052],[-40.73723171215993,76.60007594444997],[-40.74999928813115,76.59793792236687],[-40.747845177203615,76.59145320765357],[-40.73982767585284,76.58970073527644],[-40.73261644219203,76.58843941623182],[-40.71396096439976,76.59389389392618],[-40.68675684389166,76.59950648466847],[-40.68195393720685,76.60045690121378]]]}},{"type":"Feature","properties":{"N03_001":"京都府","N03_002":null,"N03_003":null,"N03_004":"福知山市","N03_007":"26201"},"geometry":{"type":"Polygon","coordinates":[[[-40.937396705916676,76.60443449706659],[-40.95003558577894,76.60663571456428],[-40.95860178013706,76.60380681637966],[-40.97710330734326,76.6064377286234],[-40.97140441700737,76.60447165128664],[-40.98966784908812,76.6052266229184],[-41.025818716359225,76.60813734525362],[-41.03263196513835,76.60820280252184],[-41.038509461241155,76.60790386512271],[-41.039993491800914,76.60696813143198],[-41.02452151512888,76.60680008513486],[-40.98439400546097,76.60793866627145],[-40.98361999992137,76.60838333544044],[-40.972791503715214,76.60859705361283],[-40.9673886113312,76.60931650138886],[-40.95507322215231,76.60823433013013],[-40.93903353039494,76.60863887944566],[-40.93871108912013,76.60995080436795],[-40.93302571298106,76.61012350937499],[-40.93139951909303,76.610308358804],[-40.91923356087464,76.60742969604081],[-40.91084007159133,76.60736145040806],[-40.90945720141771,76.6082744536291],[-40.87625287194432,76.60677253715808],[-40.874225140157655,76.6082671730135],[-40.8831250371799,76.60878131148354],[-40.860807081370254,76.60883781269243],[-40.86480143991653,76.60886117761669],[-40.881065181918466,76.6090674306791],[-40.91260487961186,76.60910954698399],[-40.92534045423682,76.60837029483969],[-40.928757693162844,76.60672456599681],[-40.93341484516614,76.60658303530745],[-40.92494618719927,76.60552862388238],[-40.92354895998845,76.60485278652811],[-40.91528703003701,76.6049729827606],[-40.923110138324965,76.60420780756377],[-40.933898795124136,76.60382526381512],[-40.937396705916676,76.60443449706659]]]}},{"type":"Feature","properties":{"N03_001":"京都府","N03_002":null,"N03_003":null,"N03_004":"舞鶴市","N03_007":"26202"},"geometry":{"type":"Polygon","coordinates":[[[-40.879257760707794,76.60715792884145],[-40.88092607512223,76.60692590388163],[-40.891758874399486,76.60731597059606],[-40.900679594394916,76.60776469162978],[-40.93098677161202,76.60499266156893],[-40.937396705916676,76.60443449706659],[-40.933898795124136,76.60382526381512],[-40.923110138324965,76.60420780756377],[-40.91528703003701,76.6049729827606],[-40.874223439535164,76.60740038253039],[-40.86959260594291,76.60780076664852],[-40.852488571361995,76.60761432544366],[-40.83941300372824,76.60760623651593],[-40.83449563472238,76.60720562623288],[-40.83601722513347,76.60664184537771],[-40.822317657493436,76.60644546614375],[-40.807373284320555,76.60645427931397],[-40.81507909345872,76.60669162577618],[-40.80169544069255,76.60725246895652],[-40.81520534096089,76.60755973921333],[-40.80413785902902,76.60922801759752],[-40.787963477829756,76.61030588923289],[-40.795127769650826,76.60999982022462],[-40.80469395897371,76.61168691411683],[-40.81923981550391,76.60999958262101],[-40.84050700452906,76.60759363362257],[-40.861628086806405,76.6071184435364],[-40.8537466983601,76.60704920886373],[-40.879257760707794,76.60715792884145]]]}},{"type":"Feature","properties":{"N03_001":"京都府","N03_002":null,"N03_003":null,"N03_004":"京丹後市","N03_007":"26212"},"geometry":{"type":"Polygon","coordinates":[[[-40.931671563306985,76.6145862936386],[-40.94451158964821,76.61464049812605],[-40.93514963998156,76.61617713956532],[-40.92087914588893,76.61758652235595],[-40.911629413401585,76.61928347792835],[-40.93124459138196,76.61855201626408],[-40.95871264457048,76.61589739014687],[-40.98497999843908,76.61348165777251],[-40.984826042376255,76.6134656841407],[-41.00190499634578,76.61439031741735],[-41.01543660271691,76.61432544112988],[-41.02245875013471,76.61488937697783],[-41.03432136331231,76.6152853057941],[-41.07287004390786,76.61645633549377],[-41.06482493921442,76.61587307991702],[-41.07373104564902,76.61537827888483],[-41.06238204093731,76.61511980462726],[-41.04137756165392,76.61524225490291],[-41.038901026649384,76.61384817331655],[-41.022333276574614,76.61471549317481],[-41.00939261389568,76.61685231346601],[-40.99550075955358,76.61669125791539],[-40.989801228967266,76.61647056785183],[-40.96425515575344,76.61528296320446],[-40.962140686660945,76.61517254589316],[-40.94927336603728,76.61420441483718],[-40.960413110087465,76.61440401467485],[-40.95938367309285,76.61410745040232],[-40.931671563306985,76.6145862936386]]]}},{"type":"Feature","properties":{"N03_001":"京都府","N03_002":null,"N03_003":null,"N03_004":"綾部市","N03_007":"26203"},"geometry":{"type":"Polygon","coordinates":[[[-40.807373284320555,76.60645427931397],[-40.822317657493436,76.60644546614375],[-40.83601722513347,76.60664184537771],[-40.83449563472238,76.60720562623288],[-40.83941300372824,76.60760623651593],[-40.852488571361995,76.60761432544366],[-40.86959260594291,76.60780076664852],[-40.874223439535164,76.60740038253039],[-40.91528703003701,76.6049729827606],[-40.92354895998845,76.60485278652811],[-40.92494618719927,76.60552862388238],[-40.93341484516614,76.60658303530745],[-40.928757693162844,76.60672456599681],[-40.92534045423682,76.60837029483969],[-40.91260487961186,76.60910954698399],[-40.881065181918466,76.6090674306791],[-40.86480143991653,76.60886117761669],[-40.85707592146009,76.60871479568956],[-40.840452699753016,76.60786086886259],[-40.83376828246022,76.60723785234327],[-40.81656204219229,76.60621892545389],[-40.76516366505228,76.60064886051407],[-40.771941105703156,76.60201126660189],[-40.758400805902575,76.60116664049491],[-40.76954170909244,76.6047042902695],[-40.79650126922409,76.60625865249163],[-40.807373284320555,76.60645427931397]]]}},{"type":"Feature","properties":{"N03_001":"京都府","N03_002":null,"N03_003":null,"N03_004":"宇治市","N03_007":"26204"},"geometry":{"type":"Polygon","coordinates":[[[-40.513934465780956,76.58775585522217],[-40.52547629181212,76.58828405218212],[-40.530845531140194,76.58650625763083],[-40.55251386904479,76.58552727203734],[-40.579487810011614,76.58330059547285],[-40.611102346642,76.58199332530796],[-40.613206633083635,76.58073233721343],[-40.54042251172737,76.58050756598588],[-40.54136475691506,76.58092581304363],[-40.5210243358881,76.58294362982944],[-40.513934465780956,76.58775585522217]]]}},{"type":"Feature","properties":{"N03_001":"京都府","N03_002":null,"N03_003":null,"N03_004":"宮津市","N03_007":"26205"},"geometry":{"type":"Polygon","coordinates":[[[-40.937396705916676,76.60443449706659],[-40.93098677161202,76.60499266156893],[-40.900679594394916,76.60776469162978],[-40.891758874399486,76.60731597059606],[-40.88092607512223,76.60692590388163],[-40.879257760707794,76.60715792884145],[-40.907328696654794,76.60981380602695],[-40.90665614656133,76.61097208459677],[-40.923738290190684,76.61131002680598],[-40.934564383333424,76.61232745635746],[-40.92638125319963,76.61255115801762],[-40.91235129942101,76.61234363008357],[-40.90876529183149,76.61338457688689],[-40.89596506702746,76.61431561034287],[-40.89875551512991,76.61558605515778],[-40.9161034597263,76.6148045278458],[-40.931671563306985,76.6145862936386],[-40.95938367309285,76.61410745040232],[-40.960413110087465,76.61440401467485],[-40.94927336603728,76.61420441483718],[-40.94460025618244,76.61325952320756],[-40.958069792453685,76.61430943930583],[-40.936256704067375,76.61060305371885],[-40.94232350496345,76.61044677197891],[-40.95003558577894,76.60663571456428],[-40.937396705916676,76.60443449706659]]]}},{"type":"Feature","properties":{"N03_001":"京都府","N03_002":null,"N03_003":null,"N03_004":"亀岡市","N03_007":"26206"},"geometry":{"type":"Polygon","coordinates":[[[-40.7434543003001,76.61112825767063],[-40.75049141737521,76.61067758523964],[-40.75643342872256,76.61082148140011],[-40.758690226428094,76.60990722481424],[-40.77214314242957,76.60570999680311],[-40.78603682626739,76.60591313805514],[-40.79871129658604,76.60154560472583],[-40.812081972332194,76.60002833641408],[-40.833535978273886,76.59946654280623],[-40.835447186206366,76.59787476165054],[-40.8089316563291,76.5987985147689],[-40.792247916031194,76.59856843622111],[-40.794238201788126,76.59376274663262],[-40.7782337759409,76.59133308898555],[-40.75767135468947,76.58878957569009],[-40.75837843712873,76.59184168103019],[-40.766062554021815,76.59513264336572],[-40.74999928813115,76.59793792236687],[-40.73723171215993,76.60007594444997],[-40.732042869204676,76.60325631464052],[-40.737012288714226,76.60450971026418],[-40.74595737231902,76.60859466304329],[-40.74027471203813,76.61176122347901],[-40.74732046041724,76.6113293023728],[-40.7434543003001,76.61112825767063]]]}},{"type":"Feature","properties":{"N03_001":"京都府","N03_002":null,"N03_003":null,"N03_004":"城陽市","N03_007":"26207"},"geometry":{"type":"Polygon","coordinates":[[[-40.613206633083635,76.58073233721343],[-40.618679064023624,76.58050150772998],[-40.62093741176266,76.57879720620589],[-40.58025801953664,76.57308990031213],[-40.533972219915256,76.57692884596959],[-40.53846554411844,76.58028889425186],[-40.54042251172737,76.58050756598588],[-40.613206633083635,76.58073233721343]]]}},{"type":"Feature","properties":{"N03_001":"京都府","N03_002":null,"N03_003":null,"N03_004":"向日市","N03_007":"26208"},"geometry":{"type":"Polygon","coordinates":[[[-40.68675684389166,76.59950648466847],[-40.71396096439976,76.59389389392618],[-40.646945584106085,76.58209947922504],[-40.63852044127263,76.58284303980521],[-40.68675684389166,76.59950648466847]]]}},{"type":"Feature","properties":{"N03_001":"京都府","N03_002":null,"N03_003":null,"N03_004":"長岡京市","N03_007":"26209"},"geometry":{"type":"Polygon","coordinates":[[[-40.646945584106085,76.58209947922504],[-40.71396096439976,76.59389389392618],[-40.73261644219203,76.58843941623182],[-40.70901191648483,76.58303018692236],[-40.660666879358466,76.58200577498796],[-40.646945584106085,76.58209947922504]]]}},{"type":"Feature","properties":{"N03_001":"京都府","N03_002":null,"N03_003":null,"N03_004":"八幡市","N03_007":"26210"},"geometry":{"type":"Polygon","coordinates":[[[-40.670945347372,76.58229853200815],[-40.69660252867899,76.58185210376493],[-40.6984785222403,76.58153298497389],[-40.688269299683924,76.57730182584396],[-40.65793642104842,76.57469945373417],[-40.63853167422875,76.57661933419399],[-40.62093741176266,76.57879720620589],[-40.618679064023624,76.58050150772998],[-40.628058628735495,76.5811949320525],[-40.670945347372,76.58229853200815]]]}},{"type":"Feature","properties":{"N03_001":"京都府","N03_002":null,"N03_003":null,"N03_004":"京田辺市","N03_007":"26211"},"geometry":{"type":"Polygon","coordinates":[[[-40.62093741176266,76.57879720620589],[-40.63853167422875,76.57661933419399],[-40.65793642104842,76.57469945373417],[-40.655344191024085,76.57470447962153],[-40.650428669583754,76.57481800197975],[-40.632905778793365,76.57261307851275],[-40.64520317242229,76.57137618545202],[-40.63366931710703,76.57034842677169],[-40.61584564511169,76.56996385837601],[-40.577652088195755,76.5722321611398],[-40.58025801953664,76.57308990031213],[-40.62093741176266,76.57879720620589]]]}},{"type":"Feature","properties":{"N03_001":"京都府","N03_002":null,"N03_003":null,"N03_004":"南丹市","N03_007":"26213"},"geometry":{"type":"Polygon","coordinates":[[[-40.758400805902575,76.60116664049491],[-40.771941105703156,76.60201126660189],[-40.76516366505228,76.60064886051407],[-40.763127868777424,76.60125681850582],[-40.769053358572286,76.60172248972039],[-40.773846868406,76.60292172011926],[-40.7781976757846,76.60672606337847],[-40.774483110051946,76.60708337267779],[-40.78046230958453,76.60901864216906],[-40.80126338160833,76.60682650243962],[-40.82075514970215,76.60477230969735],[-40.820412926657326,76.60332445150682],[-40.833208587381215,76.60200934854302],[-40.83777973776794,76.60036944899652],[-40.833535978273886,76.59946654280623],[-40.812081972332194,76.60002833641408],[-40.79871129658604,76.60154560472583],[-40.78603682626739,76.60591313805514],[-40.77214314242957,76.60570999680311],[-40.758690226428094,76.60990722481424],[-40.75643342872256,76.61082148140011],[-40.75049141737521,76.61067758523964],[-40.7434543003001,76.61112825767063],[-40.74327315180374,76.61007170124333],[-40.75175776102626,76.60927885859147],[-40.75042710157047,76.608496957043],[-40.73621427509624,76.60698964178394],[-40.73499624713137,76.60602431703211],[-40.72652120131578,76.60553013034139],[-40.72009574469207,76.60426342073205],[-40.71021097106506,76.60457842166377],[-40.68672882328122,76.60392562075948],[-40.67245833552938,76.60341476165708],[-40.65204767293577,76.60380478398648],[-40.628449724629476,76.60604723100332],[-40.64223586724159,76.60627538310277],[-40.67506217908116,76.60449795844077],[-40.68970863756891,76.60321695615193],[-40.72003623612764,76.6005929550764],[-40.758400805902575,76.60116664049491]]]}},{"type":"Feature","properties":{"N03_001":"京都府","N03_002":null,"N03_003":null,"N03_004":"木津川市","N03_007":"26214"},"geometry":{"type":"Polygon","coordinates":[[[-40.577652088195755,76.5722321611398],[-40.57981420839122,76.57099424413742],[-40.59653680689661,76.57004339605042],[-40.602271105112905,76.56937978348572],[-40.54266408095053,76.56906869856286],[-40.523973420711876,76.56992574016861],[-40.51610612865864,76.57142043041888],[-40.50068347962053,76.57362138045221],[-40.50459050035216,76.57421096923031],[-40.521223918169426,76.57454481912252],[-40.52656409899402,76.57602092156853],[-40.577652088195755,76.5722321611398]]]}}]}