{"type":"FeatureCollection","features":[{"type":"Feature","properties":{"N03_001":"鹿児島県","N03_002":null,"N03_003":null,"N03_004":"鹿屋市","N03_007":"46203"},"geometry":{"type":"Polygon","coordinates":[[[-43.319311340991305,76.42298637618235],[-43.33294087642836,76.42607411375172],[-43.35298610826321,76.42743511572378],[-43.369339713237395,76.42713686344635],[-43.366208488332944,76.42318323146728],[-43.376132103529905,76.41874762452036],[-43.36368960779183,76.4176591156924],[-43.36477203005979,76.41726652992843],[-43.378270558470696,76.41642654194438],[-43.395156380597975,76.41625751033642],[-43.387367091006155,76.4162303262663],[-43.37907850604929,76.41543668603765],[-43.38827375031638,76.41263219986074],[-43.378766865150446,76.41372880426464],[-43.353380803510944,76.41347172256822],[-43.35412322072622,76.41157105039383],[-43.32117549936175,76.40891555471585],[-43.314843024719636,76.4098431090802],[-43.32773801148184,76.41462742368032],[-43.33059500966628,76.4167458602531],[-43.30733134992071,76.41672150430118],[-43.31364964174112,76.41735114381267],[-43.312447440723886,76.41767014154229],[-43.316401422708196,76.41801535927688],[-43.327089319136746,76.41806226539457],[-43.332469477474824,76.41827674951777],[-43.3272749079854,76.41860930322264],[-43.319311340991305,76.42298637618235]]]}},{"type":"Feature","properties":{"N03_001":"鹿児島県","N03_002":null,"N03_003":null,"N03_004":"枕崎市","N03_007":"46204"},"geometry":{"type":"Polygon","coordinates":[[[-43.66010469076341,76.41599135055898],[-43.68459121548346,76.41547142320128],[-43.703674239868796,76.41343819322447],[-43.715305670527705,76.408253705841],[-43.70628273926193,76.40596103955866],[-43.69521940423889,76.40566950663391],[-43.660155033832126,76.40412458817892],[-43.621756701197484,76.40722896018686],[-43.617325511980354,76.41233397921528],[-43.637112899343116,76.41446499906978],[-43.66010469076341,76.41599135055898]]]}},{"type":"Feature","properties":{"N03_001":"鹿児島県","N03_002":null,"N03_003":null,"N03_004":"阿久根市","N03_007":"46206"},"geometry":{"type":"Polygon","coordinates":[[[-43.7050704906058,76.44975740319578],[-43.719351040977074,76.44975350958228],[-43.74256972352826,76.44900992583156],[-43.74736630668313,76.44798625123039],[-43.72947522903573,76.44854858697461],[-43.73021777400133,76.44642410763728],[-43.749976680826876,76.44392903840036],[-43.750001537432595,76.44250692197505],[-43.73282885538974,76.44073891904976],[-43.716136376701286,76.43868323092828],[-43.68280084820044,76.4393208368572],[-43.678640282187814,76.44013680086186],[-43.66218716965177,76.4405830876745],[-43.649776178195054,76.4424530036882],[-43.65505202281269,76.44382350131293],[-43.69197482850613,76.44643780444974],[-43.68678260259682,76.44814459565498],[-43.70349809114027,76.44883977710408],[-43.707878901276096,76.4492353149009],[-43.7050704906058,76.44975740319578]]]}},{"type":"Feature","properties":{"N03_001":"鹿児島県","N03_002":null,"N03_003":null,"N03_004":"出水市","N03_007":"46208"},"geometry":{"type":"Polygon","coordinates":[[[-43.7050704906058,76.44975740319578],[-43.707878901276096,76.4492353149009],[-43.70349809114027,76.44883977710408],[-43.68678260259682,76.44814459565498],[-43.69197482850613,76.44643780444974],[-43.65505202281269,76.44382350131293],[-43.649776178195054,76.4424530036882],[-43.634736557283844,76.44259335876023],[-43.62202215530522,76.44370196939877],[-43.601791915914546,76.44382956093001],[-43.59850608700073,76.44428593352771],[-43.57491017963994,76.44398172650273],[-43.562633521940334,76.44447017121323],[-43.54460410429864,76.44505459734579],[-43.55585649238753,76.44606338538433],[-43.5680687175125,76.44687113295159],[-43.58827954422905,76.44673353368864],[-43.60843042445207,76.44721678010117],[-43.61773774445619,76.4481617745938],[-43.632239394535965,76.4494820275068],[-43.63477525939551,76.44809697618997],[-43.66831631324546,76.44833258680082],[-43.69359291269157,76.4495885835154],[-43.7050704906058,76.44975740319578]]]}},{"type":"Feature","properties":{"N03_001":"鹿児島県","N03_002":null,"N03_003":null,"N03_004":"指宿市","N03_007":"46210"},"geometry":{"type":"Polygon","coordinates":[[[-43.54118847657296,76.41265315964299],[-43.539447150585346,76.41146601847537],[-43.547260175533644,76.40768766903994],[-43.55926972370353,76.4063957009472],[-43.557171441206634,76.40375045239095],[-43.544545143141264,76.402933649113],[-43.53152827048397,76.40318510270119],[-43.50994812846189,76.4024725796361],[-43.49840271896011,76.40340201642204],[-43.48202030857414,76.403796274008],[-43.46022865513053,76.40733093871668],[-43.46384051728961,76.40934068084464],[-43.456662108523865,76.41063802917496],[-43.483503784652825,76.41193626734689],[-43.5105850764495,76.41304547712174],[-43.54118847657296,76.41265315964299]]]}},{"type":"Feature","properties":{"N03_001":"鹿児島県","N03_002":null,"N03_003":null,"N03_004":"南さつま市","N03_007":"46220"},"geometry":{"type":"Polygon","coordinates":[[[-43.59104754791406,76.41887477432681],[-43.61867638675023,76.41809234436784],[-43.662551808006306,76.41884428111476],[-43.68786091901354,76.41685614126766],[-43.717050244496555,76.41581006326831],[-43.73956002621728,76.41576230519034],[-43.75045818276588,76.41663087230403],[-43.76970419952267,76.41572388053905],[-43.761798352885236,76.41461918123402],[-43.748630978320165,76.41378350033237],[-43.7396200862692,76.41398756300268],[-43.72589848531157,76.41100344459929],[-43.737541734603,76.41004267222358],[-43.72642129292051,76.40691606219951],[-43.70628273926193,76.40596103955866],[-43.715305670527705,76.408253705841],[-43.703674239868796,76.41343819322447],[-43.68459121548346,76.41547142320128],[-43.66010469076341,76.41599135055898],[-43.64096108458246,76.41533158355476],[-43.64163129271123,76.41571309183121],[-43.630935211396725,76.41583288722279],[-43.61861109669903,76.41547489389903],[-43.611720857224384,76.41636070340772],[-43.59695466049516,76.41760785149211],[-43.58511333142572,76.41810669682985],[-43.59104754791406,76.41887477432681]]]}},{"type":"Feature","properties":{"N03_001":"鹿児島県","N03_002":null,"N03_003":null,"N03_004":"いちき串木野市","N03_007":"46219"},"geometry":{"type":"Polygon","coordinates":[[[-43.657766626876,76.42444239698293],[-43.63989357505281,76.42614791226727],[-43.61562637253703,76.42846769919957],[-43.61114157132693,76.4305567965678],[-43.62645400713511,76.43309815388446],[-43.68109486379961,76.43386675889562],[-43.71490397252398,76.43466552847272],[-43.73743728395453,76.43381871704761],[-43.74670976814188,76.43301094464444],[-43.70612258611603,76.42868612553629],[-43.669124659084126,76.42434338976804],[-43.657766626876,76.42444239698293]]]}},{"type":"Feature","properties":{"N03_001":"鹿児島県","N03_002":null,"N03_003":null,"N03_004":"志布志市","N03_007":"46221"},"geometry":{"type":"Polygon","coordinates":[[[-43.19632197619716,76.42569132103928],[-43.20427628413714,76.4248481814759],[-43.22241639828595,76.42470192486496],[-43.22898351979914,76.42419134767071],[-43.24543852890105,76.42456421078687],[-43.27323167308478,76.42573412931443],[-43.27694946758868,76.42517407942289],[-43.26677115624263,76.42373837895016],[-43.27639219041949,76.42323499943808],[-43.28486251701378,76.42170299094816],[-43.29804474240963,76.42220348457991],[-43.30937159739376,76.418261623113],[-43.29661775530377,76.41809843229483],[-43.27862259149761,76.41909880490425],[-43.25592042439685,76.41836105014161],[-43.23622836002629,76.41881594937084],[-43.227536087131085,76.41955399363457],[-43.19933875686213,76.41878551524977],[-43.19361238274468,76.42041725378483],[-43.17947331206095,76.42070063679499],[-43.18091750580555,76.42234553650745],[-43.17526293813183,76.42345464609052],[-43.18721492480311,76.4247170115147],[-43.184858071873215,76.42520960957215],[-43.19632197619716,76.42569132103928]]]}},{"type":"Feature","properties":{"N03_001":"鹿児島県","N03_002":null,"N03_003":null,"N03_004":"西之表市","N03_007":"46213"},"geometry":{"type":"Polygon","coordinates":[[[-43.26295131603299,76.37636781615299],[-43.24950790490183,76.37709787666286],[-43.25099506133183,76.37858663699471],[-43.237845683416346,76.38197214764911],[-43.237703263682164,76.38698714765756],[-43.23200566392981,76.38746755943058],[-43.24967389209758,76.38994191345249],[-43.28085589158541,76.38779758395394],[-43.28168675299241,76.38644282042279],[-43.29832369107938,76.384442065543],[-43.31326431297702,76.38128425429672],[-43.31850956291028,76.37931265888825],[-43.313695206855094,76.37864015509183],[-43.29604977000473,76.37852228026307],[-43.29171917149931,76.3774675740077],[-43.26295131603299,76.37636781615299]]]}},{"type":"Feature","properties":{"N03_001":"鹿児島県","N03_002":null,"N03_003":null,"N03_004":"垂水市","N03_007":"46214"},"geometry":{"type":"Polygon","coordinates":[[[-43.395156380597975,76.41625751033642],[-43.378270558470696,76.41642654194438],[-43.36477203005979,76.41726652992843],[-43.36368960779183,76.4176591156924],[-43.376132103529905,76.41874762452036],[-43.366208488332944,76.42318323146728],[-43.369339713237395,76.42713686344635],[-43.38294390460295,76.42888112531462],[-43.38812838541692,76.42667542177318],[-43.409944494585176,76.42565409435889],[-43.439722773836536,76.42483284480413],[-43.44468639477725,76.42449773751338],[-43.44180816944503,76.42370890855632],[-43.45049684469692,76.41900226269566],[-43.44192534274903,76.41729291166462],[-43.418970806966165,76.41625922977263],[-43.395156380597975,76.41625751033642]]]}},{"type":"Feature","properties":{"N03_001":"鹿児島県","N03_002":null,"N03_003":null,"N03_004":"日置市","N03_007":"46216"},"geometry":{"type":"Polygon","coordinates":[[[-43.61114157132693,76.4305567965678],[-43.61562637253703,76.42846769919957],[-43.63989357505281,76.42614791226727],[-43.657766626876,76.42444239698293],[-43.65070513008157,76.42385634860705],[-43.649978944020056,76.42151006922505],[-43.662551808006306,76.41884428111476],[-43.61867638675023,76.41809234436784],[-43.59104754791406,76.41887477432681],[-43.58334710342811,76.42063103352056],[-43.59368991123626,76.42091162834679],[-43.602948797689805,76.42199543465988],[-43.61637665631088,76.42263452876311],[-43.59352204659179,76.4238378276742],[-43.584686588453714,76.42534105710149],[-43.567807473416515,76.42542981833896],[-43.571823167649335,76.42670802108205],[-43.58204267464071,76.42701379720452],[-43.583309172549235,76.42870629013392],[-43.5940934332072,76.42975162421018],[-43.59487022912891,76.43070370806655],[-43.61114157132693,76.4305567965678]]]}},{"type":"Feature","properties":{"N03_001":"鹿児島県","N03_002":null,"N03_003":null,"N03_004":"曽於市","N03_007":"46217"},"geometry":{"type":"Polygon","coordinates":[[[-43.358224391568285,76.43286328593365],[-43.361095008860126,76.43284123342538],[-43.35018106077931,76.43248003834341],[-43.33948923518349,76.43008887917854],[-43.330179489798276,76.42857266276529],[-43.349746988399,76.42945407677519],[-43.34031717499583,76.42738683875996],[-43.35298610826321,76.42743511572378],[-43.33294087642836,76.42607411375172],[-43.319311340991305,76.42298637618235],[-43.307783706631064,76.42169752196202],[-43.30507896035171,76.42133002131595],[-43.29804474240963,76.42220348457991],[-43.28486251701378,76.42170299094816],[-43.27639219041949,76.42323499943808],[-43.26677115624263,76.42373837895016],[-43.27694946758868,76.42517407942289],[-43.27323167308478,76.42573412931443],[-43.24543852890105,76.42456421078687],[-43.22898351979914,76.42419134767071],[-43.22241639828595,76.42470192486496],[-43.20427628413714,76.4248481814759],[-43.19632197619716,76.42569132103928],[-43.22093298899767,76.42551421417781],[-43.25072382347581,76.42693127938433],[-43.26251983613041,76.42632687718559],[-43.277254822378666,76.42761941329955],[-43.2763579952378,76.42813098756947],[-43.28454789190937,76.42859634811924],[-43.28450729481753,76.42961468827232],[-43.304687823028516,76.43039823738064],[-43.30087698706763,76.43129483332655],[-43.33769749255814,76.43239743916993],[-43.34480382936643,76.43269068735952],[-43.358224391568285,76.43286328593365]]]}},{"type":"Feature","properties":{"N03_001":"鹿児島県","N03_002":null,"N03_003":null,"N03_004":"霧島市","N03_007":"46218"},"geometry":{"type":"Polygon","coordinates":[[[-43.49534182389381,76.43771821116626],[-43.48598834285571,76.43740076018399],[-43.46259548708531,76.43562673024722],[-43.45531694276754,76.4346094525289],[-43.44289974618388,76.43389820669219],[-43.428060961877996,76.4336025119075],[-43.43795565198049,76.43304198187543],[-43.43166301468806,76.43332125400984],[-43.42008161562494,76.43337310200465],[-43.414823459749385,76.43334173936559],[-43.39082075743695,76.43324577900302],[-43.37359440884619,76.43032048392111],[-43.38294390460295,76.42888112531462],[-43.369339713237395,76.42713686344635],[-43.35298610826321,76.42743511572378],[-43.34031717499583,76.42738683875996],[-43.349746988399,76.42945407677519],[-43.330179489798276,76.42857266276529],[-43.33948923518349,76.43008887917854],[-43.35018106077931,76.43248003834341],[-43.361095008860126,76.43284123342538],[-43.358224391568285,76.43286328593365],[-43.36113506341877,76.43292409330975],[-43.354653426339304,76.43319831053613],[-43.343193032759025,76.43391605878247],[-43.343271711623984,76.43392002633459],[-43.3508213223904,76.43353200918921],[-43.35781009569486,76.4350492463653],[-43.3650430192593,76.43557860483224],[-43.385578468508115,76.43571665514972],[-43.40029849171805,76.43469286961516],[-43.41080378810347,76.43391292378332],[-43.422665372343985,76.43448621177727],[-43.45113858242017,76.43770139069807],[-43.45806018224833,76.43770663936601],[-43.48030182440818,76.43890803989547],[-43.47883218993626,76.43756024159849],[-43.49534182389381,76.43771821116626]]]}},{"type":"Feature","properties":{"N03_001":"鹿児島県","N03_002":null,"N03_003":null,"N03_004":"南九州市","N03_007":"46223"},"geometry":{"type":"Polygon","coordinates":[[[-43.58511333142572,76.41810669682985],[-43.59695466049516,76.41760785149211],[-43.611720857224384,76.41636070340772],[-43.61861109669903,76.41547489389903],[-43.630935211396725,76.41583288722279],[-43.64163129271123,76.41571309183121],[-43.64096108458246,76.41533158355476],[-43.66010469076341,76.41599135055898],[-43.637112899343116,76.41446499906978],[-43.617325511980354,76.41233397921528],[-43.621756701197484,76.40722896018686],[-43.59326462395386,76.4088796684891],[-43.58057500703728,76.40968290300911],[-43.56923965136027,76.40854806127992],[-43.55926972370353,76.4063957009472],[-43.547260175533644,76.40768766903994],[-43.539447150585346,76.41146601847537],[-43.54118847657296,76.41265315964299],[-43.546241830417365,76.41322811317615],[-43.563750195389076,76.41365452588425],[-43.556544520496765,76.41406164860001],[-43.5542297366665,76.41499577326142],[-43.564131743348895,76.41560477564866],[-43.56539683576613,76.41728998628255],[-43.58511333142572,76.41810669682985]]]}},{"type":"Feature","properties":{"N03_001":"鹿児島県","N03_002":null,"N03_003":null,"N03_004":"伊佐市","N03_007":"46224"},"geometry":{"type":"Polygon","coordinates":[[[-43.5680687175125,76.44687113295159],[-43.55585649238753,76.44606338538433],[-43.54460410429864,76.44505459734579],[-43.562633521940334,76.44447017121323],[-43.54590802609156,76.44373281766201],[-43.53313012617926,76.44376560350328],[-43.52911038376829,76.44322348721171],[-43.50951787778705,76.44157671596018],[-43.47963164864945,76.43956177267151],[-43.46123637527567,76.4395980593623],[-43.4610853916214,76.44061668887842],[-43.445694194883444,76.44135519521865],[-43.45137832014104,76.44366459330367],[-43.45167361116172,76.44419954997915],[-43.44173286240273,76.44504439711442],[-43.45388054786679,76.44513160654301],[-43.475701503010725,76.44602446818824],[-43.47693039390396,76.44682307157366],[-43.491312289333926,76.44699233169291],[-43.49764908661187,76.44895970584652],[-43.5074019774613,76.44897445365683],[-43.51104705467244,76.4470692587457],[-43.523889877322084,76.44731113002159],[-43.5317262465064,76.44662053667084],[-43.5587320302161,76.44717125130475],[-43.5680687175125,76.44687113295159]]]}},{"type":"Feature","properties":{"N03_001":"鹿児島県","N03_002":null,"N03_003":null,"N03_004":"姶良市","N03_007":"46225"},"geometry":{"type":"Polygon","coordinates":[[[-43.43795565198049,76.43304198187543],[-43.428060961877996,76.4336025119075],[-43.44289974618388,76.43389820669219],[-43.45531694276754,76.4346094525289],[-43.46259548708531,76.43562673024722],[-43.48598834285571,76.43740076018399],[-43.49534182389381,76.43771821116626],[-43.537015599403176,76.43577862461353],[-43.53865064390179,76.43446520708721],[-43.547879063274,76.4339420012727],[-43.54726781766588,76.43209854403327],[-43.56201033116499,76.43062185535965],[-43.53099141625994,76.43158325469112],[-43.4963223271063,76.43135513513785],[-43.509514995418215,76.42952022220427],[-43.483163147708716,76.42878250942458],[-43.479090561498516,76.42972289867787],[-43.44396966795761,76.4327155694563],[-43.43795565198049,76.43304198187543]]]}}]}