{"type":"FeatureCollection","features":[{"type":"Feature","properties":{"N03_001":"福島県","N03_002":null,"N03_003":null,"N03_004":"福島市","N03_007":"07201"},"geometry":{"type":"Polygon","coordinates":[[[-38.06785077068675,76.72495695396965],[-38.01846680858864,76.72817484911016],[-38.00109230279978,76.72792366744972],[-37.96083748341058,76.72718868279546],[-37.93780204318341,76.72510312477738],[-37.912176544628785,76.724590595146],[-37.93293047615485,76.72737908572857],[-37.93857737650434,76.72842258906155],[-37.951344276226045,76.72956238827034],[-37.958307942090585,76.73112979174735],[-37.96865727543156,76.73164109532668],[-37.976383479961555,76.7318551332375],[-37.980969166856866,76.73218911723605],[-37.966298417726016,76.73387608368604],[-37.97100988180128,76.73467592738369],[-37.96432344375241,76.73691230872504],[-37.996772581836574,76.73715082093318],[-38.02697195519514,76.73581530622381],[-38.062414820442015,76.73795672994251],[-38.06670590942746,76.73735459585868],[-38.06091493527765,76.73509453752077],[-38.06605340924562,76.73417555971794],[-38.06060591561491,76.73181956224767],[-38.06369750175781,76.73102264122927],[-38.04931439524125,76.73075207673016],[-38.056016119722564,76.73053349320715],[-38.076627610053826,76.72952139933886],[-38.084396907165846,76.72839609749396],[-38.08908449616312,76.72639790765132],[-38.06604622873213,76.72647918302312],[-38.06785077068675,76.72495695396965]]]}},{"type":"Feature","properties":{"N03_001":"福島県","N03_002":null,"N03_003":null,"N03_004":"会津若松市","N03_007":"07202"},"geometry":{"type":"Polygon","coordinates":[[[-38.25930550445964,76.72061183718529],[-38.270872293798305,76.7209784910414],[-38.2724813453927,76.71885719526335],[-38.28927596672872,76.71867405636563],[-38.30370184418152,76.71789981074622],[-38.30767556200577,76.71595416388678],[-38.2948597648458,76.71364352843294],[-38.27099229034103,76.7137801301901],[-38.260070191846786,76.7096583712333],[-38.287880366493106,76.70806516411591],[-38.27123160892672,76.70756001095015],[-38.26189818397157,76.70628127827659],[-38.24395056275829,76.70689560647654],[-38.20881217017051,76.70670674665442],[-38.19414274539613,76.70766035303583],[-38.18109404919285,76.7092130885885],[-38.17998044021052,76.71113104859825],[-38.14663420959109,76.71223052524934],[-38.14283670751869,76.71267385887766],[-38.199201874571024,76.71607659749189],[-38.20624372606054,76.71767827569164],[-38.207072332215475,76.71811021737255],[-38.241766556942956,76.7193263246837],[-38.25930550445964,76.72061183718529]]]}},{"type":"Feature","properties":{"N03_001":"福島県","N03_002":null,"N03_003":null,"N03_004":"郡山市","N03_007":"07203"},"geometry":{"type":"Polygon","coordinates":[[[-38.19414274539613,76.70766035303583],[-38.16865921851535,76.70770588045961],[-38.154438127564475,76.70825275760023],[-38.12118296190005,76.71090326623309],[-38.09581400418732,76.71211675216445],[-38.084772702342285,76.71279062326875],[-38.07280404807595,76.71315695036562],[-38.05955229134897,76.71331737653252],[-38.012024368589884,76.71292782140671],[-38.010885711791445,76.71273150342293],[-37.92671255955237,76.70154426008249],[-37.90903948675354,76.70035877694144],[-37.89334769334076,76.69873016964026],[-37.881645874574765,76.69879655069629],[-37.882950589929976,76.70139361298423],[-37.89706966792003,76.70292771268385],[-37.88709615750534,76.70435520479569],[-37.91355815420657,76.7059326545068],[-37.97094022831603,76.70930502837557],[-37.98668669668545,76.70939536692636],[-37.957944822447125,76.7068664563463],[-37.93202288703363,76.70749341371454],[-38.027400539760876,76.70885962502783],[-38.040927996492925,76.70963992813996],[-38.05815413300515,76.70999966007304],[-38.058758149751604,76.70976070443383],[-38.06339828358881,76.71024606592218],[-38.07671234140899,76.71931499587451],[-38.06666011251907,76.72339661316238],[-38.068102279916545,76.72374736208367],[-38.09367979593119,76.71964309778916],[-38.097607434916576,76.71592905539131],[-38.10615128115101,76.71692781373606],[-38.12312366904568,76.71458767642038],[-38.094823205350075,76.71042642509383],[-38.09334699165467,76.71061406668662],[-38.14283670751869,76.71267385887766],[-38.14663420959109,76.71223052524934],[-38.17998044021052,76.71113104859825],[-38.18109404919285,76.7092130885885],[-38.19414274539613,76.70766035303583]]]}},{"type":"Feature","properties":{"N03_001":"福島県","N03_002":null,"N03_003":null,"N03_004":"いわき市","N03_007":"07204"},"geometry":{"type":"Polygon","coordinates":[[[-37.801443529147434,76.69963755161702],[-37.814532341893766,76.69955792727127],[-37.81571670077272,76.69730912124611],[-37.81206489966451,76.69250277637359],[-37.84152580346644,76.69296761125041],[-37.843897297274474,76.69219360333172],[-37.83659770077986,76.69168849294665],[-37.82487355885481,76.69166061676394],[-37.818947850768616,76.69181008863526],[-37.82048961743666,76.69181500052395],[-37.832105450245905,76.69187431755167],[-37.833604959504456,76.69195050791708],[-37.85846390013831,76.69090361748908],[-37.862085601664276,76.68912569792943],[-37.85255857362618,76.68760241370495],[-37.83546370599226,76.68831384388434],[-37.77115923765651,76.68686271865711],[-37.767321143201386,76.69051230166691],[-37.757846996746615,76.69187067777577],[-37.72248461985267,76.69153168222617],[-37.69996320606438,76.69134094336246],[-37.69441314419589,76.69162335951822],[-37.70273786812747,76.69212072384674],[-37.69891660609023,76.69204170829336],[-37.688724634606906,76.69220267251016],[-37.67710102117589,76.69404094001302],[-37.70521253789014,76.6924810591444],[-37.727317213201324,76.69210240419368],[-37.73882325744767,76.69185760204519],[-37.73528179416551,76.69299264008973],[-37.73717770053959,76.69459628588739],[-37.73012814470978,76.69644256583327],[-37.743729112368655,76.69418932068649],[-37.76368178962783,76.69280496862012],[-37.77108882037438,76.69424573489063],[-37.76838616452379,76.69615311288548],[-37.780560784445456,76.69752721602175],[-37.79101189681074,76.6974987710707],[-37.801443529147434,76.69963755161702]]]}},{"type":"Feature","properties":{"N03_001":"福島県","N03_002":null,"N03_003":null,"N03_004":"白河市","N03_007":"07205"},"geometry":{"type":"Polygon","coordinates":[[[-38.06840117319474,76.6978268876552],[-38.09575410406145,76.70069202995312],[-38.12722950645847,76.70413334802436],[-38.141931897086415,76.70375565252628],[-38.15209234857887,76.7046689415112],[-38.16622235695143,76.70307314928961],[-38.14371559961163,76.70120607562127],[-38.12373713593088,76.69878062305676],[-38.10609859449962,76.69699526943042],[-38.12135906248403,76.69300043883865],[-38.13980258578417,76.69228251087588],[-38.12464296794782,76.69016301415753],[-38.11110258336075,76.6894651423452],[-38.103287709673964,76.68770279162725],[-38.06969531298944,76.6871358374293],[-38.06793492292449,76.6867024448779],[-38.0249162859316,76.68739905863484],[-38.023113239171344,76.68812227524104],[-38.006507243300234,76.68884938573868],[-37.984208028504156,76.69049273665776],[-37.95966251163414,76.69192845450593],[-37.961283656846796,76.69228716137981],[-37.984144783385425,76.69241509437354],[-38.003267672587405,76.69240702935495],[-38.02070213427181,76.69230564793982],[-38.04076022535454,76.69357746923403],[-38.0627183848725,76.69430604244185],[-38.05872165731267,76.69542450393972],[-38.08128171453123,76.69805620696606],[-38.045199234981325,76.69600481433048],[-38.06840117319474,76.6978268876552]]]}},{"type":"Feature","properties":{"N03_001":"福島県","N03_002":null,"N03_003":null,"N03_004":"須賀川市","N03_007":"07207"},"geometry":{"type":"Polygon","coordinates":[[[-38.154438127564475,76.70825275760023],[-38.147467145354646,76.70760412472238],[-38.1162095838167,76.70723043773133],[-38.03745697867725,76.69809621427412],[-38.0305700859625,76.7102679016386],[-37.97191995695147,76.69995914504406],[-37.96974518748113,76.69776033715593],[-37.95130050064066,76.69800846422923],[-37.95052134293161,76.69726996438098],[-37.91784817697229,76.69695527887507],[-37.9157014653918,76.69815060467589],[-37.901080940213745,76.69840147247],[-37.89334769334076,76.69873016964026],[-37.90903948675354,76.70035877694144],[-37.92671255955237,76.70154426008249],[-38.010885711791445,76.71273150342293],[-38.012024368589884,76.71292782140671],[-38.05955229134897,76.71331737653252],[-38.07280404807595,76.71315695036562],[-38.084772702342285,76.71279062326875],[-38.09581400418732,76.71211675216445],[-38.12118296190005,76.71090326623309],[-38.154438127564475,76.70825275760023]]]}},{"type":"Feature","properties":{"N03_001":"福島県","N03_002":null,"N03_003":null,"N03_004":"喜多方市","N03_007":"07208"},"geometry":{"type":"Polygon","coordinates":[[[-38.270872293798305,76.7209784910414],[-38.25930550445964,76.72061183718529],[-38.23498811832961,76.72172099923341],[-38.220118446704134,76.72140066465342],[-38.22693205019868,76.72277364618046],[-38.245759457003565,76.72386430174866],[-38.26705017091297,76.72408197850118],[-38.257554921972556,76.72486420774953],[-38.227273326644074,76.72622634693225],[-38.22489606046762,76.72784259119813],[-38.24209437046082,76.72925785478499],[-38.24245774594835,76.73023557363793],[-38.253530146432695,76.73081411594875],[-38.260620854147824,76.72993470931463],[-38.28497769600321,76.72940309233854],[-38.29728344718823,76.73028416280405],[-38.32390159704203,76.72925171456745],[-38.336335969434806,76.73091990658709],[-38.35845074775709,76.73053316607053],[-38.36416328139131,76.73117639327408],[-38.3734861986069,76.73214680799646],[-38.37387861305368,76.73253535557414],[-38.379227423682835,76.73267330852568],[-38.39326618487585,76.73230578391819],[-38.3926805735732,76.73229021695691],[-38.37665694428266,76.73257063544555],[-38.37072718033918,76.73172010816783],[-38.358235922161704,76.73038891627563],[-38.36537738559269,76.73019467534372],[-38.35481131527183,76.7288852294216],[-38.357776217014575,76.72759613857201],[-38.37448173400198,76.72520672730884],[-38.37309668759094,76.72364665807511],[-38.38022415644952,76.72171852813563],[-38.37181752066003,76.72070829625662],[-38.356791070786585,76.72119254209106],[-38.338137797021126,76.721187178206],[-38.337746206809065,76.72246812022868],[-38.31065525422765,76.7222592207216],[-38.29527227271482,76.72108207523868],[-38.270872293798305,76.7209784910414]]]}},{"type":"Feature","properties":{"N03_001":"福島県","N03_002":null,"N03_003":null,"N03_004":"相馬市","N03_007":"07209"},"geometry":{"type":"Polygon","coordinates":[[[-37.83241485161409,76.7312018521583],[-37.84289021432678,76.72960027802387],[-37.83816680285947,76.72785291989368],[-37.81531420747992,76.72642694565924],[-37.79665773454653,76.72697399399534],[-37.76118794131474,76.7237980052206],[-37.75215038931215,76.72243653616788],[-37.71858888960055,76.72362328977836],[-37.665844918920094,76.72445535743954],[-37.638794475213,76.7241042398634],[-37.63838401939572,76.72609510652529],[-37.645453015211814,76.72745821860926],[-37.649773082686444,76.73262975944402],[-37.666693169123505,76.7346402528383],[-37.68906635124849,76.73571004696475],[-37.742256413502474,76.73673527875297],[-37.742529943454706,76.73060311253887],[-37.77782740161735,76.73105375950213],[-37.794320278541534,76.73182794487525],[-37.7949764484158,76.72910722156843],[-37.81110237482286,76.7296404086045],[-37.83241485161409,76.7312018521583]]]}},{"type":"Feature","properties":{"N03_001":"福島県","N03_002":null,"N03_003":null,"N03_004":"二本松市","N03_007":"07210"},"geometry":{"type":"Polygon","coordinates":[[[-38.06785077068675,76.72495695396965],[-38.068102279916545,76.72374736208367],[-38.06666011251907,76.72339661316238],[-38.04090146211983,76.72394024368033],[-38.05030460818599,76.72153312166236],[-38.04674142408229,76.7186653593719],[-38.02082445404091,76.72250285298513],[-38.01045052655706,76.72260851802258],[-37.986135519066835,76.72439829966507],[-37.92445590356448,76.71757314889933],[-37.909887276533006,76.71404239973856],[-37.90533994971679,76.71110051216745],[-37.886460848804504,76.71126917942765],[-37.83934750762148,76.71391434391607],[-37.82662454281124,76.71376130355297],[-37.82588778387248,76.71408781280931],[-37.824756784338874,76.7143855494971],[-37.839860035180436,76.71730278209606],[-37.8484435973268,76.71667927988004],[-37.85837793342023,76.7193638260674],[-37.88433113500972,76.72117437044172],[-37.912176544628785,76.724590595146],[-37.93780204318341,76.72510312477738],[-37.96083748341058,76.72718868279546],[-38.00109230279978,76.72792366744972],[-38.01846680858864,76.72817484911016],[-38.06785077068675,76.72495695396965]]]}},{"type":"Feature","properties":{"N03_001":"福島県","N03_002":null,"N03_003":null,"N03_004":"田村市","N03_007":"07211"},"geometry":{"type":"Polygon","coordinates":[[[-37.88709615750534,76.70435520479569],[-37.86588461077909,76.70295466588723],[-37.84278871453653,76.70205035241847],[-37.83817575867287,76.70075828654711],[-37.84320071076779,76.6995212476116],[-37.83553414340036,76.6972464735727],[-37.81571670077272,76.69730912124611],[-37.814532341893766,76.69955792727127],[-37.801443529147434,76.69963755161702],[-37.8138311948949,76.70264464483088],[-37.81487628316313,76.7037169546831],[-37.801106237892746,76.7054370135428],[-37.76751836379536,76.7038725529297],[-37.738902103627964,76.70336720997648],[-37.7338630889495,76.70433179807301],[-37.73656731625187,76.70645670509914],[-37.74574166746924,76.70882375278136],[-37.757560207167344,76.70929936115421],[-37.77990130340165,76.70933318095427],[-37.789045723765376,76.71012237580247],[-37.82066514632106,76.71132805897656],[-37.814249695923586,76.71259946139936],[-37.82662454281124,76.71376130355297],[-37.83934750762148,76.71391434391607],[-37.886460848804504,76.71126917942765],[-37.884913750912546,76.71003987365424],[-37.9057825455997,76.70902505128052],[-37.92111921400093,76.70743200544163],[-37.9082822705606,76.70759650215304],[-37.924112927608974,76.70674174595027],[-37.91355815420657,76.7059326545068],[-37.88709615750534,76.70435520479569]]]}},{"type":"Feature","properties":{"N03_001":"福島県","N03_002":null,"N03_003":null,"N03_004":"南相馬市","N03_007":"07212"},"geometry":{"type":"Polygon","coordinates":[[[-37.75215038931215,76.72243653616788],[-37.758566911590506,76.72141910789507],[-37.75613358927801,76.71947005542677],[-37.74781780643371,76.71817936249684],[-37.757874689912356,76.71752440882172],[-37.743202911443234,76.71626178175337],[-37.74052773819917,76.71442113509507],[-37.72381693106432,76.71372291599018],[-37.721335751943485,76.71280627170772],[-37.70210231295554,76.7123208158708],[-37.69187466156948,76.71305140206569],[-37.65482104000849,76.71205189784816],[-37.63572579863757,76.71256560631126],[-37.638921352607504,76.71801735760928],[-37.63691424177606,76.7207097687816],[-37.641472446003085,76.72198731649303],[-37.638794475213,76.7241042398634],[-37.665844918920094,76.72445535743954],[-37.71858888960055,76.72362328977836],[-37.75215038931215,76.72243653616788]]]}},{"type":"Feature","properties":{"N03_001":"福島県","N03_002":null,"N03_003":null,"N03_004":"伊達市","N03_007":"07213"},"geometry":{"type":"Polygon","coordinates":[[[-37.96865727543156,76.73164109532668],[-37.958307942090585,76.73112979174735],[-37.951344276226045,76.72956238827034],[-37.93857737650434,76.72842258906155],[-37.93293047615485,76.72737908572857],[-37.919696336983286,76.72664443961482],[-37.898403206090755,76.72498512987556],[-37.885825662739094,76.72504161061728],[-37.851161661926284,76.72386855641096],[-37.83904582952121,76.72562411380665],[-37.81531420747992,76.72642694565924],[-37.83816680285947,76.72785291989368],[-37.84289021432678,76.72960027802387],[-37.83241485161409,76.7312018521583],[-37.84197212326341,76.73442535861462],[-37.83484816749365,76.73571269913515],[-37.8387271326534,76.73726242930229],[-37.85638404719571,76.73777733183604],[-37.87741846382569,76.7376167641664],[-37.882470690326244,76.737981843963],[-37.89587282927435,76.73756202195828],[-37.91790877414902,76.73494430401293],[-37.92817380347969,76.734495130821],[-37.947315781216204,76.73241395548423],[-37.96865727543156,76.73164109532668]]]}},{"type":"Feature","properties":{"N03_001":"福島県","N03_002":null,"N03_003":null,"N03_004":"本宮市","N03_007":"07214"},"geometry":{"type":"Polygon","coordinates":[[[-37.93202288703363,76.70749341371454],[-37.91375905368662,76.7090173336569],[-37.90533994971679,76.71110051216745],[-37.909887276533006,76.71404239973856],[-37.92445590356448,76.71757314889933],[-37.986135519066835,76.72439829966507],[-38.01045052655706,76.72260851802258],[-38.041545043147,76.71107812767931],[-38.058758149751604,76.70976070443383],[-38.05815413300515,76.70999966007304],[-38.040927996492925,76.70963992813996],[-38.027400539760876,76.70885962502783],[-37.93202288703363,76.70749341371454]]]}}]}