{"type":"FeatureCollection","features":[{"type":"Feature","properties":{"N03_001":"秋田県","N03_002":null,"N03_003":null,"N03_004":"秋田市","N03_007":"05201"},"geometry":{"type":"Polygon","coordinates":[[[-38.049838733849406,76.8383811636084],[-38.055879838345454,76.8365778465417],[-38.090375789419085,76.83239358968655],[-38.14332287555006,76.83253758472797],[-38.14733610093242,76.8277101273727],[-38.17033241964047,76.8278781832852],[-38.154474090145065,76.827923135688],[-38.15725859731835,76.82783857622334],[-38.14838949987048,76.8276451370442],[-38.14958890301327,76.82640987494818],[-38.155654083703794,76.82435588423705],[-38.13258067378144,76.82428684385965],[-38.12035983056709,76.82377835083183],[-38.10594509748516,76.82419261398292],[-38.09361255197064,76.81997443749106],[-38.070619113226186,76.81964131240322],[-38.07586146518657,76.81754678477479],[-38.05587555429232,76.81711900923497],[-38.04665260810358,76.81903050164267],[-38.046661276116254,76.82070617439915],[-38.056351530599144,76.82179803107569],[-38.0625992273997,76.82481258518776],[-38.03344748388892,76.82777970039687],[-38.02745821030341,76.82880317092632],[-37.998777969143006,76.83095675882393],[-37.98723381394707,76.83134659877017],[-37.961171613824405,76.83305318569894],[-37.94553771681996,76.83323740618127],[-37.91625826054591,76.83497277320222],[-37.906633601398816,76.83594474598014],[-37.91995700821215,76.83751472152511],[-37.92908754776698,76.83870201184038],[-37.943854510253665,76.83851547675434],[-37.95915679341508,76.83934127948238],[-37.97339797545682,76.83908732415614],[-37.99278152038312,76.8360667890502],[-38.00311878946895,76.83521951766286],[-38.01024616184933,76.83737710033087],[-38.03141760503497,76.83598470761049],[-38.04215286805996,76.83910212040276],[-38.049838733849406,76.8383811636084]]]}},{"type":"Feature","properties":{"N03_001":"秋田県","N03_002":null,"N03_003":null,"N03_004":"能代市","N03_007":"05202"},"geometry":{"type":"Polygon","coordinates":[[[-38.022020793437434,76.85224212688043],[-38.029190261618986,76.85336096468913],[-38.022779419116624,76.85497106492025],[-38.026201264312704,76.85730916121109],[-38.01755231617649,76.85820651219997],[-38.021876244221076,76.86223811639879],[-38.04902994453765,76.86397832550198],[-38.06520941119841,76.86627208823644],[-38.06453154623284,76.86729985914428],[-38.08500061903444,76.86946383802598],[-38.089035879246815,76.87065994525115],[-38.11409371535202,76.87204853468748],[-38.12608066502727,76.87082804216041],[-38.119868622752385,76.86935474702179],[-38.12537764542223,76.86697097779542],[-38.15450148283216,76.86707896117879],[-38.17246199037859,76.86793655125123],[-38.20314029294396,76.867134933841],[-38.210399092304655,76.86464042155838],[-38.2205254750693,76.8621240534412],[-38.215491882294124,76.86156277858512],[-38.22215961883981,76.85915000783973],[-38.19393042653786,76.8581809238538],[-38.16542556154314,76.85886188617907],[-38.13192019901827,76.85703157495237],[-38.120316546217076,76.85568289041099],[-38.067028177756086,76.85440786768588],[-38.0757246141714,76.85340524897083],[-38.06347072355961,76.8525936198382],[-38.03131942197543,76.85173690840557],[-38.022020793437434,76.85224212688043]]]}},{"type":"Feature","properties":{"N03_001":"秋田県","N03_002":null,"N03_003":null,"N03_004":"横手市","N03_007":"05203"},"geometry":{"type":"Polygon","coordinates":[[[-37.946562431210715,76.81815313993947],[-37.96393147714781,76.81675173308653],[-37.960182542803565,76.81931930482384],[-37.98131811340387,76.8181946633861],[-38.02671396245556,76.815344151147],[-38.03937072592675,76.81463878830475],[-38.05753230994748,76.81429089623963],[-38.03716921951956,76.81374553173058],[-38.03154183235758,76.81279831876448],[-38.036082726315335,76.81206549530819],[-38.02939754632879,76.81178115151886],[-38.02332629945843,76.8119714845691],[-38.00401603624038,76.81173425773632],[-37.97358106217644,76.80915420163554],[-37.93574745053849,76.80814271935385],[-37.92746684707481,76.80662578740636],[-37.90120978911639,76.80669201657477],[-37.882900600711785,76.8060104085239],[-37.86634265143879,76.8019765783566],[-37.83877354076402,76.80133056015403],[-37.834953679480485,76.80370513509617],[-37.871049849373954,76.80611594697544],[-37.86127537447952,76.80730953920289],[-37.846275325962715,76.80762238917877],[-37.831831530645985,76.80647353522632],[-37.78997856642534,76.80779245082063],[-37.777675941005846,76.80951833500183],[-37.78856299323769,76.81032996059197],[-37.816491462820174,76.81153131597233],[-37.81686982928451,76.81299182633569],[-37.830053084110666,76.8132155649503],[-37.825263088541426,76.81588107281631],[-37.85228754905971,76.81870611492558],[-37.86562395236807,76.81817167180294],[-37.899684153310815,76.81830172360118],[-37.92650802286379,76.81673813796702],[-37.946562431210715,76.81815313993947]]]}},{"type":"Feature","properties":{"N03_001":"秋田県","N03_002":null,"N03_003":null,"N03_004":"大館市","N03_007":"05204"},"geometry":{"type":"Polygon","coordinates":[[[-37.99404332707989,76.86773962854717],[-37.98048679262903,76.86665254889587],[-37.977673760198016,76.86534295052338],[-37.953277160641875,76.86078508626365],[-37.93137483837824,76.85943126373232],[-37.9321200287827,76.85807829226502],[-37.92364536357259,76.85546793532896],[-37.91226782480878,76.85484166152246],[-37.88024614912257,76.85373367347462],[-37.879872509519195,76.85252030989352],[-37.86532636610551,76.85255759531528],[-37.841602212243515,76.85180553658687],[-37.837781446216184,76.850948997502],[-37.82650268876231,76.85221820004085],[-37.82528345162662,76.85377196795363],[-37.81294472404259,76.85502208891413],[-37.81109863198946,76.85612736776689],[-37.82939939079997,76.85631395099203],[-37.83009643605404,76.85823182151479],[-37.815110456266304,76.85826764265168],[-37.81872628381145,76.86116891934437],[-37.81564951591332,76.86283266393795],[-37.82211783362676,76.86426598201048],[-37.817196761792744,76.86481193628175],[-37.82571839650887,76.86618192404367],[-37.835072794841004,76.86672983376344],[-37.83750646964465,76.86906297075426],[-37.853386247432496,76.86824178770118],[-37.86364763203265,76.869497727907],[-37.88025091476711,76.87023469886563],[-37.90776831151066,76.8687809807221],[-37.936892494422146,76.8721278795778],[-37.954404259297796,76.87233628688293],[-37.95968753188579,76.87428142915431],[-37.97621806107431,76.87436385585004],[-37.987412695887215,76.87534312175927],[-38.007832886508,76.87457353088617],[-38.01284346504753,76.87306488715544],[-38.008326970997636,76.86994168360768],[-37.99404332707989,76.86773962854717]]]}},{"type":"Feature","properties":{"N03_001":"秋田県","N03_002":null,"N03_003":null,"N03_004":"男鹿市","N03_007":"05206"},"geometry":{"type":"Polygon","coordinates":[[[-38.23477892757322,76.839043632543],[-38.233779890595486,76.84243456228543],[-38.21111760833023,76.84977713936304],[-38.23077852543881,76.85132408412737],[-38.22709159791467,76.85462582496024],[-38.2382086347365,76.8558644411547],[-38.221646812880344,76.8565282931062],[-38.23408510088592,76.85742957268117],[-38.244843860684846,76.856664250594],[-38.273858424249866,76.85606865715062],[-38.30137891249554,76.85310778872497],[-38.34793443131185,76.85008396444347],[-38.373295919348685,76.85244751172065],[-38.393725153936,76.85136751932086],[-38.40671684105964,76.85177162969116],[-38.402465100433666,76.84384875507341],[-38.39141485773507,76.8417256494899],[-38.384989108661976,76.83906788477312],[-38.366326932170416,76.83665063936822],[-38.34511508233887,76.83539664217156],[-38.32329398591276,76.8342350097078],[-38.28884105546927,76.83644606098329],[-38.26073882055763,76.83958650823263],[-38.24564891735843,76.84055229115978],[-38.23477892757322,76.839043632543]]]}},{"type":"Feature","properties":{"N03_001":"秋田県","N03_002":null,"N03_003":null,"N03_004":"湯沢市","N03_007":"05207"},"geometry":{"type":"Polygon","coordinates":[[[-37.83877354076402,76.80133056015403],[-37.86634265143879,76.8019765783566],[-37.882900600711785,76.8060104085239],[-37.90120978911639,76.80669201657477],[-37.92746684707481,76.80662578740636],[-37.93574745053849,76.80814271935385],[-37.97358106217644,76.80915420163554],[-37.96133311690544,76.80653947083732],[-37.976500598868704,76.8063558257916],[-37.99156906864011,76.80337791578746],[-38.017142129893955,76.80262356407603],[-38.02250475797414,76.79951991441033],[-38.004919765438444,76.79885900846139],[-37.997904520435554,76.79724527208279],[-37.96808816294134,76.797037104708],[-37.95802953733485,76.7959896302547],[-37.958867823971694,76.79464263439098],[-37.952803786741605,76.79325756034855],[-37.93695110436131,76.79222542994626],[-37.93592157091211,76.79202246563149],[-37.91420088103947,76.79217880510306],[-37.90813128847697,76.79141003460897],[-37.899924813471294,76.79039513764752],[-37.87477295844495,76.79148685810793],[-37.855475426684094,76.79112032144552],[-37.841385257081974,76.79151476231353],[-37.83391684625734,76.79263007407845],[-37.821923159094844,76.79268045686375],[-37.80883535777165,76.79415995944332],[-37.79575505942145,76.79454409999138],[-37.819458126344514,76.79666724486863],[-37.8257997584551,76.79931511673279],[-37.83792816347725,76.80005099151772],[-37.83877354076402,76.80133056015403]]]}},{"type":"Feature","properties":{"N03_001":"秋田県","N03_002":null,"N03_003":null,"N03_004":"鹿角市","N03_007":"05209"},"geometry":{"type":"Polygon","coordinates":[[[-37.81564951591332,76.86283266393795],[-37.81872628381145,76.86116891934437],[-37.815110456266304,76.85826764265168],[-37.83009643605404,76.85823182151479],[-37.82939939079997,76.85631395099203],[-37.81109863198946,76.85612736776689],[-37.81294472404259,76.85502208891413],[-37.82528345162662,76.85377196795363],[-37.82650268876231,76.85221820004085],[-37.837781446216184,76.850948997502],[-37.83194289243625,76.84991891477438],[-37.816321543965415,76.8483810199897],[-37.78896415414873,76.84599339487829],[-37.772418540131405,76.84677420742595],[-37.752897933121375,76.84591645434774],[-37.74736552522054,76.85092371871265],[-37.75315200288665,76.85245652616992],[-37.73441991160686,76.85380069676023],[-37.73957620736719,76.85543235039984],[-37.73025365359335,76.85662771607191],[-37.743235066947,76.85744289218579],[-37.724360969691794,76.85861300154012],[-37.71656374999181,76.86018386859861],[-37.696100482419325,76.86062548752439],[-37.68857104159666,76.86163611289489],[-37.69359934841703,76.86214096591284],[-37.67860242020962,76.86655454465344],[-37.663127804948346,76.86766923762598],[-37.66669425211573,76.86989165529089],[-37.66897940998796,76.87084713282911],[-37.66719891533565,76.87172119037025],[-37.69988635467854,76.87115310098845],[-37.72122329461696,76.87025043584248],[-37.74165322192946,76.87014422866287],[-37.75448234324386,76.8706841193587],[-37.758088212162804,76.86852991775008],[-37.77661745688716,76.86632160549786],[-37.77730556807713,76.86487903164455],[-37.7914557037926,76.86368121467017],[-37.79314396672224,76.8627918469902],[-37.81564951591332,76.86283266393795]]]}},{"type":"Feature","properties":{"N03_001":"秋田県","N03_002":null,"N03_003":null,"N03_004":"由利本荘市","N03_007":"05210"},"geometry":{"type":"Polygon","coordinates":[[[-38.155654083703794,76.82435588423705],[-38.1652714656566,76.81955625058892],[-38.16922199302367,76.81545226423238],[-38.17869333395525,76.81528124076631],[-38.187583732701675,76.81565919480171],[-38.17192388860958,76.8157425909286],[-38.1514332247513,76.81480897992199],[-38.137031908637,76.81274383701243],[-38.14066429226053,76.80844251932896],[-38.132978374695156,76.80764938171673],[-38.142521471396996,76.80351986058848],[-38.15553042856128,76.79975897221613],[-38.13469175817347,76.80064919897413],[-38.11417426485152,76.7993287063105],[-38.087661405491836,76.8008802368982],[-38.08941862445736,76.79907576724644],[-38.075923022854944,76.79871264831765],[-38.05773208401977,76.79944385570975],[-38.032424722874595,76.79817980002757],[-38.02250475797414,76.79951991441033],[-38.017142129893955,76.80262356407603],[-38.031107956546336,76.80417924568158],[-38.04101617546905,76.80707121574652],[-38.0543126531687,76.80957904467864],[-38.07003248953401,76.81051307737712],[-38.076052624373965,76.81092920280524],[-38.06148533937876,76.81139671294981],[-38.02939754632879,76.81178115151886],[-38.036082726315335,76.81206549530819],[-38.03154183235758,76.81279831876448],[-38.03716921951956,76.81374553173058],[-38.05753230994748,76.81429089623963],[-38.03937072592675,76.81463878830475],[-38.05212144755099,76.8146786411338],[-38.042576610585975,76.81577498906358],[-38.05479266492898,76.81557283551645],[-38.05587555429232,76.81711900923497],[-38.07586146518657,76.81754678477479],[-38.070619113226186,76.81964131240322],[-38.09361255197064,76.81997443749106],[-38.10594509748516,76.82419261398292],[-38.12035983056709,76.82377835083183],[-38.13258067378144,76.82428684385965],[-38.155654083703794,76.82435588423705]]]}},{"type":"Feature","properties":{"N03_001":"秋田県","N03_002":null,"N03_003":null,"N03_004":"潟上市","N03_007":"05211"},"geometry":{"type":"Polygon","coordinates":[[[-38.049838733849406,76.8383811636084],[-38.06145555557991,76.83715438215741],[-38.07767237874857,76.8408980890116],[-38.10434093130361,76.8493031487007],[-38.17399116556693,76.85146213858245],[-38.187763210697426,76.85162878478926],[-38.21111760833023,76.84977713936304],[-38.233779890595486,76.84243456228543],[-38.23477892757322,76.839043632543],[-38.193222177028865,76.82862923144963],[-38.17033241964047,76.8278781832852],[-38.14733610093242,76.8277101273727],[-38.14332287555006,76.83253758472797],[-38.090375789419085,76.83239358968655],[-38.055879838345454,76.8365778465417],[-38.049838733849406,76.8383811636084]]]}},{"type":"Feature","properties":{"N03_001":"秋田県","N03_002":null,"N03_003":null,"N03_004":"大仙市","N03_007":"05212"},"geometry":{"type":"Polygon","coordinates":[[[-37.813579011780256,76.82922952410186],[-37.83153722318618,76.83102201772333],[-37.86220576639897,76.82917733725233],[-37.902799938341786,76.82907199624631],[-37.91646416867959,76.82701999361875],[-37.927055522980176,76.82724225297792],[-37.92939611431922,76.82850129795608],[-37.94394769247727,76.82894416206356],[-37.93794135307425,76.83096472814904],[-37.92541222459822,76.83228648839696],[-37.91632629047169,76.83407951958529],[-37.91625826054591,76.83497277320222],[-37.94553771681996,76.83323740618127],[-37.961171613824405,76.83305318569894],[-37.98723381394707,76.83134659877017],[-37.998777969143006,76.83095675882393],[-38.02745821030341,76.82880317092632],[-38.03344748388892,76.82777970039687],[-38.0625992273997,76.82481258518776],[-38.056351530599144,76.82179803107569],[-38.046661276116254,76.82070617439915],[-38.04665260810358,76.81903050164267],[-38.05587555429232,76.81711900923497],[-38.05479266492898,76.81557283551645],[-38.042576610585975,76.81577498906358],[-38.05212144755099,76.8146786411338],[-38.03937072592675,76.81463878830475],[-38.02671396245556,76.815344151147],[-37.98131811340387,76.8181946633861],[-37.960182542803565,76.81931930482384],[-37.96393147714781,76.81675173308653],[-37.946562431210715,76.81815313993947],[-37.93405029705423,76.81962463755264],[-37.93103876272691,76.82123089642482],[-37.90867717834502,76.82252617252242],[-37.90472761055157,76.82379844429357],[-37.862781115076686,76.82488982566184],[-37.85070349154603,76.82469744576954],[-37.8300944286089,76.82311147894404],[-37.8201304363754,76.82371408346651],[-37.8218347268907,76.82495527178247],[-37.8096679318338,76.82628547473307],[-37.813579011780256,76.82922952410186]]]}},{"type":"Feature","properties":{"N03_001":"秋田県","N03_002":null,"N03_003":null,"N03_004":"北秋田市","N03_007":"05213"},"geometry":{"type":"Polygon","coordinates":[[[-37.91995700821215,76.83751472152511],[-37.9036757071749,76.83853065685169],[-37.90657489407488,76.83960431299349],[-37.895524767681934,76.840648699772],[-37.89637364600267,76.84203433431668],[-37.87851104983679,76.84236092089434],[-37.86014639794658,76.84149789817644],[-37.86176232660402,76.84448667958024],[-37.849525367732,76.84513675151294],[-37.83617313438971,76.84675633863854],[-37.82599126001336,76.84839205318632],[-37.816321543965415,76.8483810199897],[-37.83194289243625,76.84991891477438],[-37.837781446216184,76.850948997502],[-37.841602212243515,76.85180553658687],[-37.86532636610551,76.85255759531528],[-37.879872509519195,76.85252030989352],[-37.88024614912257,76.85373367347462],[-37.91226782480878,76.85484166152246],[-37.92364536357259,76.85546793532896],[-37.9321200287827,76.85807829226502],[-37.93137483837824,76.85943126373232],[-37.953277160641875,76.86078508626365],[-37.977673760198016,76.86534295052338],[-37.98048679262903,76.86665254889587],[-37.99404332707989,76.86773962854717],[-38.004822941890026,76.86529198310386],[-38.00092811011942,76.86354991370905],[-38.00607908224557,76.86247306832621],[-38.021876244221076,76.86223811639879],[-38.01755231617649,76.85820651219997],[-38.026201264312704,76.85730916121109],[-38.022779419116624,76.85497106492025],[-38.029190261618986,76.85336096468913],[-38.022020793437434,76.85224212688043],[-38.0057274860215,76.85214689165832],[-38.000487071486795,76.8524792239305],[-37.97146408278826,76.85289013804247],[-37.97014037919003,76.85145245805096],[-37.979491668871624,76.85056692511647],[-37.96876250469181,76.84945908595913],[-37.97742465562448,76.84906306170899],[-37.97374403496724,76.84731431921647],[-37.96726454857584,76.84594963625739],[-37.95915679341508,76.83934127948238],[-37.943854510253665,76.83851547675434],[-37.92908754776698,76.83870201184038],[-37.91995700821215,76.83751472152511]]]}},{"type":"Feature","properties":{"N03_001":"秋田県","N03_002":null,"N03_003":null,"N03_004":"にかほ市","N03_007":"05214"},"geometry":{"type":"Polygon","coordinates":[[[-38.187583732701675,76.81565919480171],[-38.19777881348215,76.8160772204475],[-38.23321396129556,76.81612557467626],[-38.26096252161154,76.81478569275811],[-38.26051832260369,76.81448567592182],[-38.28977836658103,76.80781779711538],[-38.28205844357433,76.80425852137923],[-38.2859752333573,76.79984055660879],[-38.29262347705315,76.79937086209159],[-38.239147535933434,76.79723252417203],[-38.20091111007607,76.7974410630926],[-38.185633370434864,76.79838478578479],[-38.142521471396996,76.80351986058848],[-38.132978374695156,76.80764938171673],[-38.14066429226053,76.80844251932896],[-38.137031908637,76.81274383701243],[-38.1514332247513,76.81480897992199],[-38.17192388860958,76.8157425909286],[-38.187583732701675,76.81565919480171]]]}},{"type":"Feature","properties":{"N03_001":"秋田県","N03_002":null,"N03_003":null,"N03_004":"仙北市","N03_007":"05215"},"geometry":{"type":"Polygon","coordinates":[[[-37.752897933121375,76.84591645434774],[-37.772418540131405,76.84677420742595],[-37.78896415414873,76.84599339487829],[-37.816321543965415,76.8483810199897],[-37.82599126001336,76.84839205318632],[-37.83617313438971,76.84675633863854],[-37.849525367732,76.84513675151294],[-37.86176232660402,76.84448667958024],[-37.86014639794658,76.84149789817644],[-37.87851104983679,76.84236092089434],[-37.89637364600267,76.84203433431668],[-37.895524767681934,76.840648699772],[-37.90657489407488,76.83960431299349],[-37.9036757071749,76.83853065685169],[-37.91995700821215,76.83751472152511],[-37.906633601398816,76.83594474598014],[-37.91625826054591,76.83497277320222],[-37.91632629047169,76.83407951958529],[-37.92541222459822,76.83228648839696],[-37.93794135307425,76.83096472814904],[-37.94394769247727,76.82894416206356],[-37.92939611431922,76.82850129795608],[-37.927055522980176,76.82724225297792],[-37.91646416867959,76.82701999361875],[-37.902799938341786,76.82907199624631],[-37.86220576639897,76.82917733725233],[-37.83153722318618,76.83102201772333],[-37.813579011780256,76.82922952410186],[-37.801279936806395,76.82945814568293],[-37.7883319892048,76.83153786467363],[-37.781490447316095,76.8312924639541],[-37.77253694628896,76.83393060254522],[-37.77276445662269,76.83516562777231],[-37.785613122611316,76.83574015224148],[-37.78390040612412,76.83654960548068],[-37.7743482271829,76.83736811630217],[-37.7610867883117,76.83793426965575],[-37.764211864239485,76.83824481849851],[-37.78906470167026,76.83878060363186],[-37.791461800490616,76.84005706173788],[-37.78299426685994,76.84067938055261],[-37.76765711297239,76.8412021493719],[-37.76071348528241,76.84069053090415],[-37.74028503912843,76.84135715603442],[-37.74359896161503,76.84327922606283],[-37.7504788545177,76.84383052795484],[-37.752897933121375,76.84591645434774]]]}}]}