{"type":"FeatureCollection","features":[{"type":"Feature","properties":{"N03_001":"鳥取県","N03_002":null,"N03_003":null,"N03_004":"鳥取市","N03_007":"31201"},"geometry":{"type":"Polygon","coordinates":[[[-41.36520818478004,76.60993712248249],[-41.3692683465794,76.61039583101567],[-41.39939559726324,76.61025207860035],[-41.42213888297204,76.609034040371],[-41.44140029100487,76.60840405205526],[-41.42840629064311,76.61008092418271],[-41.438421098159914,76.60960223050917],[-41.44902155827883,76.6108057499434],[-41.45413475943843,76.60960005197697],[-41.474230318097355,76.60777312934182],[-41.496190676891,76.60771832206501],[-41.535651813315155,76.6079099942433],[-41.567859021045294,76.60987743586674],[-41.590078577135095,76.61077327399053],[-41.59698814580656,76.60927082445406],[-41.592315980224406,76.60857863591056],[-41.56754816735275,76.6086576218894],[-41.55674993790308,76.60882872450435],[-41.563494803441955,76.60869562300094],[-41.54065991930955,76.60921758059344],[-41.55497705370326,76.60869184343744],[-41.572699856443506,76.60631395545542],[-41.556436900668814,76.60680899598576],[-41.544398024862886,76.60721162670511],[-41.52664950063069,76.60925327863238],[-41.51532747353391,76.60772167047325],[-41.508438128857286,76.6077801066161],[-41.50166991808776,76.6070590741749],[-41.48487995434303,76.60794589034921],[-41.476050164044814,76.60914648851247],[-41.46322367286322,76.60809705774572],[-41.45697363213925,76.60851709633876],[-41.47189794142553,76.60956536805193],[-41.47212307891521,76.60892417718128],[-41.47821604215204,76.60862635916097],[-41.46183364941646,76.60861934124047],[-41.45147824276943,76.60856083384223],[-41.438053616292976,76.60871691180623],[-41.415252798804424,76.60863767080788],[-41.40288130334941,76.6087896014602],[-41.37813383092317,76.60874985770559],[-41.3617808300645,76.60895449648906],[-41.36218409865983,76.60904816391583],[-41.36520818478004,76.60993712248249]]]}},{"type":"Feature","properties":{"N03_001":"鳥取県","N03_002":null,"N03_003":null,"N03_004":"米子市","N03_007":"31202"},"geometry":{"type":"Polygon","coordinates":[[[-41.984550509784775,76.61015621015821],[-42.033580047108,76.6054429778382],[-42.002384146248104,76.60581791589283],[-41.98287680296145,76.60560039997567],[-41.975458034764486,76.60383498529416],[-41.970402844987895,76.6018984391317],[-41.96087969149451,76.6020036749168],[-41.93466781818116,76.60190693933474],[-41.90947558554499,76.60390415116547],[-41.885168278217776,76.60525394265414],[-41.866034803664995,76.60804284339024],[-41.87971999123898,76.61050711984039],[-41.892169821415,76.61144561923336],[-41.91422088293015,76.61036079723281],[-41.92751128385855,76.61028873135594],[-41.978021922483315,76.60964461658988],[-41.984550509784775,76.61015621015821]]]}},{"type":"Feature","properties":{"N03_001":"鳥取県","N03_002":null,"N03_003":null,"N03_004":"倉吉市","N03_007":"31203"},"geometry":{"type":"Polygon","coordinates":[[[-41.66081814785467,76.61043390200788],[-41.686099371345335,76.60981353121704],[-41.71111374147642,76.61033675954648],[-41.73619269204177,76.60863580530051],[-41.76282372409292,76.60793381734456],[-41.78115093277529,76.60618479021771],[-41.81659073658925,76.60450152295576],[-41.805975238308505,76.60384405277507],[-41.77648915632371,76.60369789920385],[-41.76094425561105,76.6030076118304],[-41.74272068776781,76.60345634259387],[-41.71257574304936,76.60309457606719],[-41.68511165130294,76.60500471200137],[-41.67165316323387,76.60555078565731],[-41.66777326207067,76.60673215552032],[-41.65809108245471,76.607693396208],[-41.635014181149735,76.60834736846039],[-41.65192693043649,76.60905374098272],[-41.64901971959813,76.61009387543723],[-41.66081814785467,76.61043390200788]]]}},{"type":"Feature","properties":{"N03_001":"鳥取県","N03_002":null,"N03_003":null,"N03_004":"境港市","N03_007":"31204"},"geometry":{"type":"Polygon","coordinates":[[[-41.984550509784775,76.61015621015821],[-42.00739064050347,76.62126653412498],[-42.04097077427586,76.6215292740388],[-42.07342245707784,76.61622625474213],[-42.03906495558762,76.60551944358907],[-42.033580047108,76.6054429778382],[-41.984550509784775,76.61015621015821]]]}}]}