{"type":"FeatureCollection","features":[{"type":"Feature","properties":{"N03_001":"大阪府","N03_002":null,"N03_003":"大阪市","N03_004":"都島区","N03_007":"27102"},"geometry":{"type":"Polygon","coordinates":[[[-40.74274154753116,76.57798929908496],[-40.73232011260711,76.57404185579072],[-40.720114507276016,76.57382731944007],[-40.71455168842435,76.57518762821843],[-40.735247537069476,76.57874586186276],[-40.74274154753116,76.57798929908496]]]}},{"type":"Feature","properties":{"N03_001":"大阪府","N03_002":null,"N03_003":"大阪市","N03_004":"福島区","N03_007":"27103"},"geometry":{"type":"Polygon","coordinates":[[[-40.77886739836997,76.57177647351307],[-40.76036060915665,76.57385694057048],[-40.766905461728754,76.57690191016886],[-40.76726319125619,76.57691321340445],[-40.77755464598631,76.57663453042427],[-40.78639710292968,76.5721692006272],[-40.77886739836997,76.57177647351307]]]}},{"type":"Feature","properties":{"N03_001":"大阪府","N03_002":null,"N03_003":"大阪市","N03_004":"此花区","N03_007":"27104"},"geometry":{"type":"Polygon","coordinates":[[[-40.77755464598631,76.57663453042427],[-40.80890118557293,76.57189646025675],[-40.80950765835918,76.56860228949142],[-40.78421659357323,76.57175950525699],[-40.77886739836997,76.57177647351307],[-40.78639710292968,76.5721692006272],[-40.77755464598631,76.57663453042427]]]}},{"type":"Feature","properties":{"N03_001":"大阪府","N03_002":null,"N03_003":"大阪市","N03_004":"西区","N03_007":"27106"},"geometry":{"type":"Polygon","coordinates":[[[-40.77886739836997,76.57177647351307],[-40.78421659357323,76.57175950525699],[-40.773204486921095,76.57018529587678],[-40.76979888945068,76.56999662557045],[-40.749374280074086,76.57188361243237],[-40.75031199818825,76.57491560474452],[-40.76036060915665,76.57385694057048],[-40.77886739836997,76.57177647351307]]]}},{"type":"Feature","properties":{"N03_001":"大阪府","N03_002":null,"N03_003":"大阪市","N03_004":"港区","N03_007":"27107"},"geometry":{"type":"Polygon","coordinates":[[[-40.80950765835918,76.56860228949142],[-40.79444860761914,76.56658690419404],[-40.773204486921095,76.57018529587678],[-40.78421659357323,76.57175950525699],[-40.80950765835918,76.56860228949142]]]}},{"type":"Feature","properties":{"N03_001":"大阪府","N03_002":null,"N03_003":"大阪市","N03_004":"大正区","N03_007":"27108"},"geometry":{"type":"Polygon","coordinates":[[[-40.773204486921095,76.57018529587678],[-40.79444860761914,76.56658690419404],[-40.79255341944185,76.56546332613313],[-40.77375567236079,76.56540588691314],[-40.768634163981076,76.56855569725515],[-40.76979888945068,76.56999662557045],[-40.773204486921095,76.57018529587678]]]}},{"type":"Feature","properties":{"N03_001":"大阪府","N03_002":null,"N03_003":"大阪市","N03_004":"天王寺区","N03_007":"27109"},"geometry":{"type":"Polygon","coordinates":[[[-40.72255652269413,76.57259782442169],[-40.74137406213359,76.57088863298424],[-40.743499723534754,76.56760180023255],[-40.74204852170911,76.56760354170322],[-40.72317514122261,76.56736649840143],[-40.722886441887105,76.57054928852872],[-40.72255652269413,76.57259782442169]]]}},{"type":"Feature","properties":{"N03_001":"大阪府","N03_002":null,"N03_003":"大阪市","N03_004":"浪速区","N03_007":"27111"},"geometry":{"type":"Polygon","coordinates":[[[-40.76979888945068,76.56999662557045],[-40.768634163981076,76.56855569725515],[-40.743499723534754,76.56760180023255],[-40.74137406213359,76.57088863298424],[-40.749374280074086,76.57188361243237],[-40.76979888945068,76.56999662557045]]]}},{"type":"Feature","properties":{"N03_001":"大阪府","N03_002":null,"N03_003":"大阪市","N03_004":"西淀川区","N03_007":"27113"},"geometry":{"type":"Polygon","coordinates":[[[-40.76726319125619,76.57691321340445],[-40.78577053572101,76.57788727475075],[-40.78658669491487,76.57760258795194],[-40.81563512800708,76.57284988594408],[-40.80890118557293,76.57189646025675],[-40.77755464598631,76.57663453042427],[-40.76726319125619,76.57691321340445]]]}},{"type":"Feature","properties":{"N03_001":"大阪府","N03_002":null,"N03_003":"大阪市","N03_004":"東淀川区","N03_007":"27114"},"geometry":{"type":"Polygon","coordinates":[[[-40.735247537069476,76.57874586186276],[-40.7127049401444,76.5801553830872],[-40.711485240458096,76.58066392844118],[-40.72170838060754,76.58209591220736],[-40.746911692388345,76.58017748841145],[-40.74803180972071,76.57769960720255],[-40.74274154753116,76.57798929908496],[-40.735247537069476,76.57874586186276]]]}},{"type":"Feature","properties":{"N03_001":"大阪府","N03_002":null,"N03_003":"大阪市","N03_004":"東成区","N03_007":"27115"},"geometry":{"type":"Polygon","coordinates":[[[-40.722886441887105,76.57054928852872],[-40.6903779421965,76.56929953245516],[-40.68671166745206,76.57019474065122],[-40.719630076861854,76.573410638282],[-40.72255652269413,76.57259782442169],[-40.722886441887105,76.57054928852872]]]}},{"type":"Feature","properties":{"N03_001":"大阪府","N03_002":null,"N03_003":"大阪市","N03_004":"生野区","N03_007":"27116"},"geometry":{"type":"Polygon","coordinates":[[[-40.72317514122261,76.56736649840143],[-40.719547644765235,76.56739610478995],[-40.70671482224304,76.56767166743904],[-40.69551697390022,76.56820593925296],[-40.6903779421965,76.56929953245516],[-40.722886441887105,76.57054928852872],[-40.72317514122261,76.56736649840143]]]}},{"type":"Feature","properties":{"N03_001":"大阪府","N03_002":null,"N03_003":"大阪市","N03_004":"旭区","N03_007":"27117"},"geometry":{"type":"Polygon","coordinates":[[[-40.71455168842435,76.57518762821843],[-40.70564207589303,76.57555910699098],[-40.702030722981156,76.57601918305616],[-40.7127049401444,76.5801553830872],[-40.735247537069476,76.57874586186276],[-40.71455168842435,76.57518762821843]]]}},{"type":"Feature","properties":{"N03_001":"大阪府","N03_002":null,"N03_003":"大阪市","N03_004":"城東区","N03_007":"27118"},"geometry":{"type":"Polygon","coordinates":[[[-40.720114507276016,76.57382731944007],[-40.719630076861854,76.573410638282],[-40.68671166745206,76.57019474065122],[-40.68742169336501,76.5707094282512],[-40.70564207589303,76.57555910699098],[-40.71455168842435,76.57518762821843],[-40.720114507276016,76.57382731944007]]]}},{"type":"Feature","properties":{"N03_001":"大阪府","N03_002":null,"N03_003":"大阪市","N03_004":"阿倍野区","N03_007":"27119"},"geometry":{"type":"Polygon","coordinates":[[[-40.74204852170911,76.56760354170322],[-40.755978294274534,76.56481625193749],[-40.736742519986336,76.56425813830582],[-40.719547644765235,76.56739610478995],[-40.72317514122261,76.56736649840143],[-40.74204852170911,76.56760354170322]]]}},{"type":"Feature","properties":{"N03_001":"大阪府","N03_002":null,"N03_003":"大阪市","N03_004":"住吉区","N03_007":"27120"},"geometry":{"type":"Polygon","coordinates":[[[-40.755978294274534,76.56481625193749],[-40.75853104401438,76.56475708096987],[-40.764358436864185,76.56232802318222],[-40.751644186203706,76.5618317385717],[-40.73330345403409,76.5627517028186],[-40.73295325462277,76.56278541132336],[-40.736742519986336,76.56425813830582],[-40.755978294274534,76.56481625193749]]]}},{"type":"Feature","properties":{"N03_001":"大阪府","N03_002":null,"N03_003":"大阪市","N03_004":"東住吉区","N03_007":"27121"},"geometry":{"type":"Polygon","coordinates":[[[-40.719547644765235,76.56739610478995],[-40.736742519986336,76.56425813830582],[-40.73295325462277,76.56278541132336],[-40.718018648173675,76.56379107672294],[-40.70671482224304,76.56767166743904],[-40.719547644765235,76.56739610478995]]]}},{"type":"Feature","properties":{"N03_001":"大阪府","N03_002":null,"N03_003":"大阪市","N03_004":"西成区","N03_007":"27122"},"geometry":{"type":"Polygon","coordinates":[[[-40.77375567236079,76.56540588691314],[-40.75853104401438,76.56475708096987],[-40.755978294274534,76.56481625193749],[-40.74204852170911,76.56760354170322],[-40.743499723534754,76.56760180023255],[-40.768634163981076,76.56855569725515],[-40.77375567236079,76.56540588691314]]]}},{"type":"Feature","properties":{"N03_001":"大阪府","N03_002":null,"N03_003":"大阪市","N03_004":"淀川区","N03_007":"27123"},"geometry":{"type":"Polygon","coordinates":[[[-40.766905461728754,76.57690191016886],[-40.74803180972071,76.57769960720255],[-40.746911692388345,76.58017748841145],[-40.75598166318968,76.58032463847516],[-40.77678487143569,76.57836385579962],[-40.78577053572101,76.57788727475075],[-40.76726319125619,76.57691321340445],[-40.766905461728754,76.57690191016886]]]}},{"type":"Feature","properties":{"N03_001":"大阪府","N03_002":null,"N03_003":"大阪市","N03_004":"鶴見区","N03_007":"27124"},"geometry":{"type":"Polygon","coordinates":[[[-40.70564207589303,76.57555910699098],[-40.68742169336501,76.5707094282512],[-40.676467113729245,76.57079766181756],[-40.675887420748566,76.5738836811735],[-40.69210601518548,76.57614543870329],[-40.702030722981156,76.57601918305616],[-40.70564207589303,76.57555910699098]]]}},{"type":"Feature","properties":{"N03_001":"大阪府","N03_002":null,"N03_003":"大阪市","N03_004":"住之江区","N03_007":"27125"},"geometry":{"type":"Polygon","coordinates":[[[-40.79255341944185,76.56546332613313],[-40.79650198686463,76.56431888841166],[-40.764358436864185,76.56232802318222],[-40.75853104401438,76.56475708096987],[-40.77375567236079,76.56540588691314],[-40.79255341944185,76.56546332613313]]]}},{"type":"Feature","properties":{"N03_001":"大阪府","N03_002":null,"N03_003":"大阪市","N03_004":"平野区","N03_007":"27126"},"geometry":{"type":"Polygon","coordinates":[[[-40.70671482224304,76.56767166743904],[-40.718018648173675,76.56379107672294],[-40.69718181265478,76.5651436860326],[-40.68511202430884,76.5669049874692],[-40.689083016839284,76.56808657406249],[-40.69551697390022,76.56820593925296],[-40.70671482224304,76.56767166743904]]]}},{"type":"Feature","properties":{"N03_001":"大阪府","N03_002":null,"N03_003":"大阪市","N03_004":"北区","N03_007":"27127"},"geometry":{"type":"Polygon","coordinates":[[[-40.74274154753116,76.57798929908496],[-40.74803180972071,76.57769960720255],[-40.766905461728754,76.57690191016886],[-40.76036060915665,76.57385694057048],[-40.75031199818825,76.57491560474452],[-40.73232011260711,76.57404185579072],[-40.74274154753116,76.57798929908496]]]}},{"type":"Feature","properties":{"N03_001":"大阪府","N03_002":null,"N03_003":"大阪市","N03_004":"中央区","N03_007":"27128"},"geometry":{"type":"Polygon","coordinates":[[[-40.73232011260711,76.57404185579072],[-40.75031199818825,76.57491560474452],[-40.749374280074086,76.57188361243237],[-40.74137406213359,76.57088863298424],[-40.72255652269413,76.57259782442169],[-40.719630076861854,76.573410638282],[-40.720114507276016,76.57382731944007],[-40.73232011260711,76.57404185579072]]]}},{"type":"Feature","properties":{"N03_001":"大阪府","N03_002":null,"N03_003":"堺市","N03_004":"堺区","N03_007":"27141"},"geometry":{"type":"Polygon","coordinates":[[[-40.764358436864185,76.56232802318222],[-40.79650198686463,76.56431888841166],[-40.7820924863264,76.56148973166951],[-40.765572630052354,76.5603664244817],[-40.751644186203706,76.5618317385717],[-40.764358436864185,76.56232802318222]]]}},{"type":"Feature","properties":{"N03_001":"大阪府","N03_002":null,"N03_003":"堺市","N03_004":"中区","N03_007":"27142"},"geometry":{"type":"Polygon","coordinates":[[[-40.74904403332926,76.56010668966653],[-40.76130995496573,76.5598517858156],[-40.76320624022306,76.5558552128964],[-40.735999871417775,76.55659641591016],[-40.73491468886933,76.55728902600748],[-40.748250725619364,76.56008848984175],[-40.74904403332926,76.56010668966653]]]}},{"type":"Feature","properties":{"N03_001":"大阪府","N03_002":null,"N03_003":"堺市","N03_004":"東区","N03_007":"27143"},"geometry":{"type":"Polygon","coordinates":[[[-40.73491468886933,76.55728902600748],[-40.71836326145694,76.55827026257298],[-40.72147345968151,76.56147835082578],[-40.74904403332926,76.56010668966653],[-40.748250725619364,76.56008848984175],[-40.73491468886933,76.55728902600748]]]}},{"type":"Feature","properties":{"N03_001":"大阪府","N03_002":null,"N03_003":"堺市","N03_004":"西区","N03_007":"27144"},"geometry":{"type":"Polygon","coordinates":[[[-40.7820924863264,76.56148973166951],[-40.78827890288155,76.56031081146138],[-40.775788412938645,76.5572097891627],[-40.770739722341325,76.55488981638258],[-40.76320624022306,76.5558552128964],[-40.76130995496573,76.5598517858156],[-40.765572630052354,76.5603664244817],[-40.7820924863264,76.56148973166951]]]}},{"type":"Feature","properties":{"N03_001":"大阪府","N03_002":null,"N03_003":"堺市","N03_004":"南区","N03_007":"27145"},"geometry":{"type":"Polygon","coordinates":[[[-40.76320624022306,76.5558552128964],[-40.770739722341325,76.55488981638258],[-40.77013590708557,76.55491469406758],[-40.74233446188228,76.55582238470174],[-40.72947010027535,76.55441903799512],[-40.735999871417775,76.55659641591016],[-40.76320624022306,76.5558552128964]]]}},{"type":"Feature","properties":{"N03_001":"大阪府","N03_002":null,"N03_003":"堺市","N03_004":"北区","N03_007":"27146"},"geometry":{"type":"Polygon","coordinates":[[[-40.751644186203706,76.5618317385717],[-40.765572630052354,76.5603664244817],[-40.76130995496573,76.5598517858156],[-40.74904403332926,76.56010668966653],[-40.72147345968151,76.56147835082578],[-40.71969567865835,76.56157675278085],[-40.73534970763712,76.5620083552046],[-40.73330345403409,76.5627517028186],[-40.751644186203706,76.5618317385717]]]}},{"type":"Feature","properties":{"N03_001":"大阪府","N03_002":null,"N03_003":"堺市","N03_004":"美原区","N03_007":"27147"},"geometry":{"type":"Polygon","coordinates":[[[-40.71836326145694,76.55827026257298],[-40.7092841793245,76.55764282709667],[-40.694523870168446,76.55962765589854],[-40.706205007857314,76.56184936854513],[-40.71969567865835,76.56157675278085],[-40.72147345968151,76.56147835082578],[-40.71836326145694,76.55827026257298]]]}},{"type":"Feature","properties":{"N03_001":"大阪府","N03_002":null,"N03_003":null,"N03_004":"岸和田市","N03_007":"27202"},"geometry":{"type":"Polygon","coordinates":[[[-40.78899897274017,76.55509134199296],[-40.82284003987812,76.55853615629545],[-40.81998900893808,76.55636705985016],[-40.80464283699683,76.55612364218855],[-40.803438031807616,76.55680580621335],[-40.788474469675094,76.55855533239105],[-40.78561868529746,76.55707414201474],[-40.7803991459079,76.55712304608198],[-40.775633014775764,76.55730573232336],[-40.77159935020343,76.55845446173717],[-40.78029106255955,76.5553855034156],[-40.78899897274017,76.55509134199296]]]}},{"type":"Feature","properties":{"N03_001":"大阪府","N03_002":null,"N03_003":null,"N03_004":"豊中市","N03_007":"27203"},"geometry":{"type":"Polygon","coordinates":[[[-40.75598166318968,76.58032463847516],[-40.74134174254196,76.58219101935842],[-40.77071680693227,76.58043675521358],[-40.77752924977252,76.57996895390725],[-40.778856643332,76.57958476274284],[-40.77678487143569,76.57836385579962],[-40.75598166318968,76.58032463847516]]]}},{"type":"Feature","properties":{"N03_001":"大阪府","N03_002":null,"N03_003":null,"N03_004":"池田市","N03_007":"27204"},"geometry":{"type":"Polygon","coordinates":[[[-40.77071680693227,76.58043675521358],[-40.769557166096895,76.58055923347685],[-40.759406068571295,76.58167354238147],[-40.77308708710206,76.58181198914478],[-40.7885339740174,76.58143463236803],[-40.78859611472153,76.57989235038494],[-40.77752924977252,76.57996895390725],[-40.77071680693227,76.58043675521358]]]}},{"type":"Feature","properties":{"N03_001":"大阪府","N03_002":null,"N03_003":null,"N03_004":"吹田市","N03_007":"27205"},"geometry":{"type":"Polygon","coordinates":[[[-40.72170838060754,76.58209591220736],[-40.71805437575926,76.58295541082464],[-40.71352244943389,76.58356939202785],[-40.72496517377417,76.582862769659],[-40.74134174254196,76.58219101935842],[-40.75598166318968,76.58032463847516],[-40.746911692388345,76.58017748841145],[-40.72170838060754,76.58209591220736]]]}},{"type":"Feature","properties":{"N03_001":"大阪府","N03_002":null,"N03_003":null,"N03_004":"泉大津市","N03_007":"27206"},"geometry":{"type":"Polygon","coordinates":[[[-40.790057392879476,76.55496224367252],[-40.78410070959655,76.55818688381503],[-40.7953498834577,76.55977790386126],[-40.820248331487804,76.55906849370285],[-40.790057392879476,76.55496224367252]]]}},{"type":"Feature","properties":{"N03_001":"大阪府","N03_002":null,"N03_003":null,"N03_004":"高槻市","N03_007":"27207"},"geometry":{"type":"Polygon","coordinates":[[[-40.700807584932804,76.58034774397692],[-40.70271877644272,76.58084449220219],[-40.70241314248784,76.58275466711864],[-40.69863357473148,76.58318387271702],[-40.69098882499339,76.58334389343634],[-40.68460762312207,76.58155306073378],[-40.68010690080695,76.58192676966353],[-40.6690570563736,76.58171552531185],[-40.675598551640405,76.58267509408154],[-40.668657205664665,76.58182311761706],[-40.68161540906666,76.581341050937],[-40.68357366303204,76.58039761225697],[-40.688892642909266,76.58035939602394],[-40.68727236785336,76.5834729348096],[-40.70991299349673,76.58238006085685],[-40.69846157460838,76.58038116100184],[-40.700807584932804,76.58034774397692]]]}},{"type":"Feature","properties":{"N03_001":"大阪府","N03_002":null,"N03_003":null,"N03_004":"貝塚市","N03_007":"27208"},"geometry":{"type":"Polygon","coordinates":[[[-40.81998900893808,76.55636705985016],[-40.83706026481889,76.55612438255227],[-40.82013549780227,76.55614122246716],[-40.80746196852056,76.55749389529926],[-40.81358024651712,76.55690242504397],[-40.800104336418265,76.55651821750558],[-40.78561868529746,76.55707414201474],[-40.788474469675094,76.55855533239105],[-40.803438031807616,76.55680580621335],[-40.80464283699683,76.55612364218855],[-40.81998900893808,76.55636705985016]]]}},{"type":"Feature","properties":{"N03_001":"大阪府","N03_002":null,"N03_003":null,"N03_004":"守口市","N03_007":"27209"},"geometry":{"type":"Polygon","coordinates":[[[-40.7127049401444,76.5801553830872],[-40.702030722981156,76.57601918305616],[-40.69210601518548,76.57614543870329],[-40.69528181608995,76.5796322544575],[-40.679631061718595,76.57961748683438],[-40.69129902099467,76.5809044422951],[-40.711485240458096,76.58066392844118],[-40.7127049401444,76.5801553830872]]]}},{"type":"Feature","properties":{"N03_001":"大阪府","N03_002":null,"N03_003":null,"N03_004":"枚方市","N03_007":"27210"},"geometry":{"type":"Polygon","coordinates":[[[-40.668657205664665,76.58182311761706],[-40.675598551640405,76.58267509408154],[-40.6690570563736,76.58171552531185],[-40.68010690080695,76.58192676966353],[-40.65906386416871,76.5808950101209],[-40.6573332253629,76.58112058427189],[-40.640381355972124,76.5807321193522],[-40.63300277543661,76.57966545444839],[-40.62271397722387,76.57842824538535],[-40.616413891477734,76.57910893068009],[-40.63180749544266,76.58014339009763],[-40.636469695169154,76.58021899851785],[-40.638687529507585,76.58019859195196],[-40.65145049933518,76.58022975842472],[-40.66449915136796,76.58144630023541],[-40.668657205664665,76.58182311761706]]]}},{"type":"Feature","properties":{"N03_001":"大阪府","N03_002":null,"N03_003":null,"N03_004":"茨木市","N03_007":"27211"},"geometry":{"type":"Polygon","coordinates":[[[-40.73742618199475,76.58123609768302],[-40.724354395491744,76.58220453431058],[-40.72496517377417,76.582862769659],[-40.71352244943389,76.58356939202785],[-40.71805437575926,76.58295541082464],[-40.70095160286012,76.58290860017885],[-40.69098882499339,76.58334389343634],[-40.69863357473148,76.58318387271702],[-40.70241314248784,76.58275466711864],[-40.70271877644272,76.58084449220219],[-40.700807584932804,76.58034774397692],[-40.72630947311731,76.58171426134494],[-40.73742618199475,76.58123609768302]]]}},{"type":"Feature","properties":{"N03_001":"大阪府","N03_002":null,"N03_003":null,"N03_004":"八尾市","N03_007":"27212"},"geometry":{"type":"Polygon","coordinates":[[[-40.69718181265478,76.5651436860326],[-40.69373922296528,76.565351332159],[-40.67666399144331,76.56626536646581],[-40.65882735339952,76.56723615283016],[-40.655769327503165,76.56767097376576],[-40.65391339217819,76.56957171186787],[-40.677880112832085,76.56930547091743],[-40.689083016839284,76.56808657406249],[-40.68511202430884,76.5669049874692],[-40.69718181265478,76.5651436860326]]]}},{"type":"Feature","properties":{"N03_001":"大阪府","N03_002":null,"N03_003":null,"N03_004":"泉佐野市","N03_007":"27213"},"geometry":{"type":"Polygon","coordinates":[[[-40.81358024651712,76.55690242504397],[-40.826378058308705,76.55648318472092],[-40.83386349985729,76.55585888892952],[-40.82013549780227,76.55614122246716],[-40.83706026481889,76.55612438255227],[-40.85813209343028,76.55587480765168],[-40.85684070475418,76.55547066047365],[-40.84305015854263,76.55596952986961],[-40.836505377404265,76.55655951522452],[-40.816505162334984,76.55604389694255],[-40.800104336418265,76.55651821750558],[-40.81358024651712,76.55690242504397]]]}},{"type":"Feature","properties":{"N03_001":"大阪府","N03_002":null,"N03_003":null,"N03_004":"富田林市","N03_007":"27214"},"geometry":{"type":"Polygon","coordinates":[[[-40.7092841793245,76.55764282709667],[-40.71927204713265,76.55456729379597],[-40.715160757793015,76.55473069784995],[-40.70777025756312,76.55532520513009],[-40.69195998868266,76.55762407442229],[-40.683057922323655,76.55868423713517],[-40.683034216265206,76.5594414735989],[-40.67786002245177,76.56067821932484],[-40.694523870168446,76.55962765589854],[-40.7092841793245,76.55764282709667]]]}},{"type":"Feature","properties":{"N03_001":"大阪府","N03_002":null,"N03_003":null,"N03_004":"寝屋川市","N03_007":"27215"},"geometry":{"type":"Polygon","coordinates":[[[-40.68460762312207,76.58155306073378],[-40.69129902099467,76.5809044422951],[-40.679631061718595,76.57961748683438],[-40.66999191220477,76.57630730070969],[-40.66590194630971,76.57673064847341],[-40.65658925365984,76.5780336628191],[-40.65906386416871,76.5808950101209],[-40.68010690080695,76.58192676966353],[-40.68460762312207,76.58155306073378]]]}},{"type":"Feature","properties":{"N03_001":"大阪府","N03_002":null,"N03_003":null,"N03_004":"河内長野市","N03_007":"27216"},"geometry":{"type":"Polygon","coordinates":[[[-40.74233446188228,76.55582238470174],[-40.73479096086514,76.55714579561968],[-40.75914606607045,76.55789372208467],[-40.74357839930951,76.55692847896475],[-40.73171696148739,76.55800539237345],[-40.71583038000589,76.55724251418835],[-40.67886095118927,76.55660883584368],[-40.6703641813645,76.55675134408719],[-40.68821618039661,76.5566554090262],[-40.70777025756312,76.55532520513009],[-40.715160757793015,76.55473069784995],[-40.71927204713265,76.55456729379597],[-40.72947010027535,76.55441903799512],[-40.74233446188228,76.55582238470174]]]}},{"type":"Feature","properties":{"N03_001":"大阪府","N03_002":null,"N03_003":null,"N03_004":"松原市","N03_007":"27217"},"geometry":{"type":"Polygon","coordinates":[[[-40.73330345403409,76.5627517028186],[-40.73534970763712,76.5620083552046],[-40.71969567865835,76.56157675278085],[-40.706205007857314,76.56184936854513],[-40.698986854253604,76.56421959753003],[-40.69373922296528,76.565351332159],[-40.69718181265478,76.5651436860326],[-40.718018648173675,76.56379107672294],[-40.73295325462277,76.56278541132336],[-40.73330345403409,76.5627517028186]]]}},{"type":"Feature","properties":{"N03_001":"大阪府","N03_002":null,"N03_003":null,"N03_004":"大東市","N03_007":"27218"},"geometry":{"type":"Polygon","coordinates":[[[-40.676467113729245,76.57079766181756],[-40.6454347810737,76.57183115427625],[-40.64517689288602,76.57197674242576],[-40.64423143032806,76.57349956731161],[-40.66590194630971,76.57673064847341],[-40.66999191220477,76.57630730070969],[-40.675887420748566,76.5738836811735],[-40.676467113729245,76.57079766181756]]]}},{"type":"Feature","properties":{"N03_001":"大阪府","N03_002":null,"N03_003":null,"N03_004":"和泉市","N03_007":"27219"},"geometry":{"type":"Polygon","coordinates":[[[-40.775788412938645,76.5572097891627],[-40.78410070959655,76.55818688381503],[-40.790057392879476,76.55496224367252],[-40.78899897274017,76.55509134199296],[-40.78029106255955,76.5553855034156],[-40.77159935020343,76.55845446173717],[-40.775633014775764,76.55730573232336],[-40.75914606607045,76.55789372208467],[-40.73479096086514,76.55714579561968],[-40.74233446188228,76.55582238470174],[-40.77013590708557,76.55491469406758],[-40.770739722341325,76.55488981638258],[-40.775788412938645,76.5572097891627]]]}},{"type":"Feature","properties":{"N03_001":"大阪府","N03_002":null,"N03_003":null,"N03_004":"箕面市","N03_007":"27220"},"geometry":{"type":"Polygon","coordinates":[[[-40.74134174254196,76.58219101935842],[-40.72496517377417,76.582862769659],[-40.724354395491744,76.58220453431058],[-40.73742618199475,76.58123609768302],[-40.75471022066632,76.5818928226987],[-40.770082376439944,76.58200082847836],[-40.77308708710206,76.58181198914478],[-40.759406068571295,76.58167354238147],[-40.769557166096895,76.58055923347685],[-40.77071680693227,76.58043675521358],[-40.74134174254196,76.58219101935842]]]}},{"type":"Feature","properties":{"N03_001":"大阪府","N03_002":null,"N03_003":null,"N03_004":"柏原市","N03_007":"27221"},"geometry":{"type":"Polygon","coordinates":[[[-40.67666399144331,76.56626536646581],[-40.672322063411535,76.5624547891068],[-40.660823245722604,76.56240095261717],[-40.648808531212346,76.5646599350506],[-40.64421431294079,76.56560636602971],[-40.65882735339952,76.56723615283016],[-40.67666399144331,76.56626536646581]]]}},{"type":"Feature","properties":{"N03_001":"大阪府","N03_002":null,"N03_003":null,"N03_004":"羽曳野市","N03_007":"27222"},"geometry":{"type":"Polygon","coordinates":[[[-40.694523870168446,76.55962765589854],[-40.67786002245177,76.56067821932484],[-40.65804598954599,76.56220866538483],[-40.660823245722604,76.56240095261717],[-40.672322063411535,76.5624547891068],[-40.687227051358235,76.56124185602123],[-40.698986854253604,76.56421959753003],[-40.706205007857314,76.56184936854513],[-40.694523870168446,76.55962765589854]]]}},{"type":"Feature","properties":{"N03_001":"大阪府","N03_002":null,"N03_003":null,"N03_004":"門真市","N03_007":"27223"},"geometry":{"type":"Polygon","coordinates":[[[-40.675887420748566,76.5738836811735],[-40.66999191220477,76.57630730070969],[-40.679631061718595,76.57961748683438],[-40.69528181608995,76.5796322544575],[-40.69210601518548,76.57614543870329],[-40.675887420748566,76.5738836811735]]]}},{"type":"Feature","properties":{"N03_001":"大阪府","N03_002":null,"N03_003":null,"N03_004":"摂津市","N03_007":"27224"},"geometry":{"type":"Polygon","coordinates":[[[-40.711485240458096,76.58066392844118],[-40.69129902099467,76.5809044422951],[-40.68460762312207,76.58155306073378],[-40.69098882499339,76.58334389343634],[-40.70095160286012,76.58290860017885],[-40.71805437575926,76.58295541082464],[-40.72170838060754,76.58209591220736],[-40.711485240458096,76.58066392844118]]]}},{"type":"Feature","properties":{"N03_001":"大阪府","N03_002":null,"N03_003":null,"N03_004":"藤井寺市","N03_007":"27226"},"geometry":{"type":"Polygon","coordinates":[[[-40.69373922296528,76.565351332159],[-40.698986854253604,76.56421959753003],[-40.687227051358235,76.56124185602123],[-40.672322063411535,76.5624547891068],[-40.67666399144331,76.56626536646581],[-40.69373922296528,76.565351332159]]]}},{"type":"Feature","properties":{"N03_001":"大阪府","N03_002":null,"N03_003":null,"N03_004":"東大阪市","N03_007":"27227"},"geometry":{"type":"Polygon","coordinates":[[[-40.6903779421965,76.56929953245516],[-40.69551697390022,76.56820593925296],[-40.689083016839284,76.56808657406249],[-40.677880112832085,76.56930547091743],[-40.65391339217819,76.56957171186787],[-40.65146178814326,76.57012733051728],[-40.6454347810737,76.57183115427625],[-40.676467113729245,76.57079766181756],[-40.68742169336501,76.5707094282512],[-40.68671166745206,76.57019474065122],[-40.6903779421965,76.56929953245516]]]}},{"type":"Feature","properties":{"N03_001":"大阪府","N03_002":null,"N03_003":null,"N03_004":"泉南市","N03_007":"27228"},"geometry":{"type":"Polygon","coordinates":[[[-40.85684070475418,76.55547066047365],[-40.86347671368272,76.55574488984496],[-40.88128335744286,76.55540293420462],[-40.86679335235846,76.55495413097192],[-40.8419916757976,76.55535183987257],[-40.836505377404265,76.55655951522452],[-40.84305015854263,76.55596952986961],[-40.85684070475418,76.55547066047365]]]}},{"type":"Feature","properties":{"N03_001":"大阪府","N03_002":null,"N03_003":null,"N03_004":"四條畷市","N03_007":"27229"},"geometry":{"type":"Polygon","coordinates":[[[-40.66590194630971,76.57673064847341],[-40.64423143032806,76.57349956731161],[-40.64517689288602,76.57197674242576],[-40.63028568359663,76.57423197990269],[-40.63433296335541,76.57655620557293],[-40.65658925365984,76.5780336628191],[-40.66590194630971,76.57673064847341]]]}},{"type":"Feature","properties":{"N03_001":"大阪府","N03_002":null,"N03_003":null,"N03_004":"交野市","N03_007":"27230"},"geometry":{"type":"Polygon","coordinates":[[[-40.65906386416871,76.5808950101209],[-40.65658925365984,76.5780336628191],[-40.63433296335541,76.57655620557293],[-40.63300277543661,76.57966545444839],[-40.640381355972124,76.5807321193522],[-40.6573332253629,76.58112058427189],[-40.65906386416871,76.5808950101209]]]}},{"type":"Feature","properties":{"N03_001":"大阪府","N03_002":null,"N03_003":null,"N03_004":"大阪狭山市","N03_007":"27231"},"geometry":{"type":"Polygon","coordinates":[[[-40.735999871417775,76.55659641591016],[-40.72947010027535,76.55441903799512],[-40.71927204713265,76.55456729379597],[-40.7092841793245,76.55764282709667],[-40.71836326145694,76.55827026257298],[-40.73491468886933,76.55728902600748],[-40.735999871417775,76.55659641591016]]]}},{"type":"Feature","properties":{"N03_001":"大阪府","N03_002":null,"N03_003":null,"N03_004":"阪南市","N03_007":"27232"},"geometry":{"type":"Polygon","coordinates":[[[-40.88128335744286,76.55540293420462],[-40.89601613931657,76.55464504923421],[-40.91457384723172,76.55444581924407],[-40.91666110952996,76.55366579635395],[-40.90698080222847,76.55378037116866],[-40.89825904521733,76.55377529845833],[-40.88303081070475,76.55451317408797],[-40.87409787379025,76.55456070038828],[-40.86679335235846,76.55495413097192],[-40.88128335744286,76.55540293420462]]]}}]}