{"type":"FeatureCollection","features":[{"type":"Feature","properties":{"N03_001":"岩手県","N03_002":null,"N03_003":null,"N03_004":"盛岡市","N03_007":"03201"},"geometry":{"type":"Polygon","coordinates":[[[-37.55827828968736,76.84617031422366],[-37.54570150629832,76.84487710468808],[-37.563408990754155,76.8452070011736],[-37.58978613293173,76.8466213634648],[-37.56612156967031,76.84466690248482],[-37.527380064586126,76.83861692190649],[-37.51961683184878,76.83340864524014],[-37.53856980423322,76.83092097002806],[-37.59080082685514,76.82567187108916],[-37.61525268882036,76.82565504976492],[-37.631031767101184,76.82625562751728],[-37.64442326990948,76.82609155516727],[-37.63639863688353,76.82529001543],[-37.61849645023272,76.82502925254464],[-37.608158413533225,76.82446822212468],[-37.57892647361676,76.82418828598871],[-37.56380666930359,76.82522034932626],[-37.535622461527915,76.82560958017866],[-37.52993519544621,76.823691315789],[-37.50689067055418,76.82528291903662],[-37.494327620450264,76.82442068622355],[-37.48111135314111,76.82650188062576],[-37.476506161467505,76.82463924598339],[-37.45916488058162,76.82496485938208],[-37.419370463391196,76.82646866785049],[-37.41037061863387,76.82609359512067],[-37.401629497592154,76.82706969086283],[-37.42372507029056,76.82788584666584],[-37.4439559010984,76.8282405271622],[-37.45349162447714,76.82880180475051],[-37.43753503714434,76.82987848059017],[-37.414169746507596,76.83075190193719],[-37.420502328364684,76.8311722288829],[-37.41990122178407,76.83241169969999],[-37.386780584806736,76.83283390058631],[-37.37732644990872,76.83265619630731],[-37.35560264958711,76.83573730378171],[-37.36328270665452,76.8369818029264],[-37.362601440440066,76.83840196543233],[-37.374573557250436,76.83869367732864],[-37.382264552036105,76.83820833040787],[-37.40156815183288,76.83869613579593],[-37.40536522835206,76.83674896593016],[-37.45162402597651,76.83681427569098],[-37.463103506613784,76.83645812805484],[-37.47945188584969,76.83850098255118],[-37.49144904703028,76.84165251275658],[-37.52698535649939,76.84373932645504],[-37.536944699687204,76.84508613272708],[-37.55827828968736,76.84617031422366]]]}},{"type":"Feature","properties":{"N03_001":"岩手県","N03_002":null,"N03_003":null,"N03_004":"宮古市","N03_007":"03202"},"geometry":{"type":"Polygon","coordinates":[[[-37.41037061863387,76.82609359512067],[-37.40568230911231,76.82582638148834],[-37.36699597803226,76.82713339738913],[-37.362839050704025,76.82653501469278],[-37.334056856711385,76.82763339863043],[-37.314200743249735,76.82784998823713],[-37.299864710323284,76.82671185834187],[-37.273469917726985,76.82759328678121],[-37.25884044191988,76.82825549790157],[-37.26563634443215,76.82898796271664],[-37.263023388507605,76.82914336996065],[-37.24968539256862,76.82922614920068],[-37.24408146197072,76.82917414922261],[-37.241461759647834,76.82913132238568],[-37.21336954586761,76.82947731478365],[-37.20612710108358,76.82957005039567],[-37.18764228462234,76.82971946669336],[-37.17752471458699,76.82956746566455],[-37.15724207372616,76.82919510568126],[-37.133553838501456,76.8282517727873],[-37.12362488861391,76.82720809470626],[-37.102857132579366,76.82585006500429],[-37.09100104618064,76.82670030530682],[-37.06785828078832,76.8269001600554],[-37.07830925598513,76.82813796078203],[-37.09371588108604,76.82831757874428],[-37.10195388301264,76.82962986798731],[-37.09912702061795,76.8306264646979],[-37.131694924249295,76.83041257509907],[-37.13785879595348,76.83067942967563],[-37.12630718897852,76.8314709606498],[-37.1342088976019,76.83167268045003],[-37.110981786512696,76.83498817923935],[-37.11731710681318,76.83766323183102],[-37.14055144718488,76.8364646725908],[-37.1609031727964,76.83458617047798],[-37.166873783449574,76.83292894936586],[-37.18439122159915,76.83121931733429],[-37.198392504447995,76.83084551269019],[-37.218289900198734,76.83062391557345],[-37.237588730773496,76.83067294630905],[-37.25854777408563,76.8305794726334],[-37.26942432992086,76.83047186887613],[-37.27981646809993,76.83043800226031],[-37.29221047653378,76.83038899324256],[-37.303534688563076,76.82996187099282],[-37.31994656777002,76.82998589755093],[-37.32601561210276,76.82986155329925],[-37.35778274298143,76.83046362493285],[-37.38273612593463,76.83023985746742],[-37.40394927274609,76.83032359909214],[-37.414169746507596,76.83075190193719],[-37.43753503714434,76.82987848059017],[-37.45349162447714,76.82880180475051],[-37.4439559010984,76.8282405271622],[-37.42372507029056,76.82788584666584],[-37.401629497592154,76.82706969086283],[-37.41037061863387,76.82609359512067]]]}},{"type":"Feature","properties":{"N03_001":"岩手県","N03_002":null,"N03_003":null,"N03_004":"釜石市","N03_007":"03211"},"geometry":{"type":"Polygon","coordinates":[[[-37.12609765637921,76.80718413073745],[-37.14139683642479,76.80852132432277],[-37.11257791329131,76.8101207101221],[-37.118791855297964,76.81161862327762],[-37.13149890314179,76.81114994120767],[-37.14038392390426,76.81263258638626],[-37.126655490574976,76.814623162978],[-37.141862575967515,76.81699176063641],[-37.10620345891731,76.81613570531806],[-37.10215086294566,76.81772968052051],[-37.12394184908299,76.8178754156505],[-37.13940902194415,76.81972729720263],[-37.158634958021786,76.82038223152605],[-37.18926976788854,76.82313797058849],[-37.24991385661796,76.8252779184929],[-37.250681563576975,76.82627309034208],[-37.27730596264254,76.82535716639629],[-37.297159670028016,76.82321115367286],[-37.30522176418158,76.8210189838318],[-37.30286935599038,76.81906324141414],[-37.28627544137263,76.815714489831],[-37.27363908182981,76.81267738246278],[-37.26297105694497,76.81200314912742],[-37.24699304817757,76.8104863422288],[-37.21155835607077,76.8099322582492],[-37.14440911689166,76.8065562477746],[-37.12609765637921,76.80718413073745]]]}},{"type":"Feature","properties":{"N03_001":"岩手県","N03_002":null,"N03_003":null,"N03_004":"大船渡市","N03_007":"03203"},"geometry":{"type":"Polygon","coordinates":[[[-37.26297105694497,76.81200314912742],[-37.2970663687133,76.81118016655185],[-37.30913909832345,76.81105210267624],[-37.332194666815454,76.80841293161508],[-37.326892621891965,76.80746649903487],[-37.31879037085002,76.80408851990462],[-37.288432158050504,76.79639487181925],[-37.2761536024778,76.79633609553731],[-37.268037424946485,76.79138992435591],[-37.25478337473343,76.78994882612504],[-37.23544593352669,76.79062314714814],[-37.248458556366145,76.79134051026281],[-37.20957369254898,76.79229654504007],[-37.16445375653014,76.79432551012175],[-37.18136829762749,76.79465182245943],[-37.17372931564819,76.79737637868524],[-37.18606221852624,76.80093006316552],[-37.1521969989838,76.80108525304435],[-37.14423543126563,76.79981695940212],[-37.12522383408959,76.80134379015489],[-37.16528709563996,76.8063813722967],[-37.14196513834379,76.80564777549141],[-37.12609765637921,76.80718413073745],[-37.14440911689166,76.8065562477746],[-37.21155835607077,76.8099322582492],[-37.24699304817757,76.8104863422288],[-37.26297105694497,76.81200314912742]]]}},{"type":"Feature","properties":{"N03_001":"岩手県","N03_002":null,"N03_003":null,"N03_004":"陸前高田市","N03_007":"03210"},"geometry":{"type":"Polygon","coordinates":[[[-37.326892621891965,76.80746649903487],[-37.344289355143054,76.80738338481896],[-37.373472532487725,76.80773181965738],[-37.387882307362034,76.80625851301886],[-37.4172301615189,76.80457731823383],[-37.43026560743742,76.8043212053163],[-37.43872855843848,76.80200735103288],[-37.435556864216764,76.80074705193623],[-37.44353870150754,76.7973297413661],[-37.45424330655887,76.79530924877818],[-37.44853970484608,76.79272915430393],[-37.450855226196694,76.79188365447413],[-37.43689522734027,76.79071810676903],[-37.43660128098177,76.79139841921979],[-37.411251024079526,76.7894782032148],[-37.3669678417522,76.78884726109308],[-37.308462838750295,76.78773496609325],[-37.31187044798433,76.78840157175925],[-37.296397388823586,76.7898884176969],[-37.27505327440061,76.79021441793029],[-37.28406868147663,76.78903235233494],[-37.2718509213492,76.7887151932809],[-37.25051567756245,76.78908833852365],[-37.25478337473343,76.78994882612504],[-37.268037424946485,76.79138992435591],[-37.2761536024778,76.79633609553731],[-37.288432158050504,76.79639487181925],[-37.31879037085002,76.80408851990462],[-37.326892621891965,76.80746649903487]]]}},{"type":"Feature","properties":{"N03_001":"岩手県","N03_002":null,"N03_003":null,"N03_004":"花巻市","N03_007":"03205"},"geometry":{"type":"Polygon","coordinates":[[[-37.476506161467505,76.82463924598339],[-37.49082555615761,76.82270360095215],[-37.48875304836687,76.82144975284804],[-37.49800725697399,76.82069186125318],[-37.518605511807586,76.82068118358266],[-37.54257845076575,76.82106277697282],[-37.564128044876554,76.8210387502763],[-37.57706032511779,76.82086032242384],[-37.590528999450584,76.82092376487451],[-37.618821249825615,76.8209088579923],[-37.6542346539936,76.82214833416676],[-37.66427658374342,76.82189345300331],[-37.68818021640905,76.82261931367229],[-37.711019189251815,76.82188538760634],[-37.71007031237535,76.82050760632428],[-37.695228293151665,76.8190716792951],[-37.70288538020386,76.81803179550879],[-37.702209507578665,76.81662666342235],[-37.64086333243803,76.81543813197715],[-37.60905010186632,76.81559917473426],[-37.58212634797834,76.817685727111],[-37.568890767789604,76.81689426291562],[-37.548044371462915,76.81671046155608],[-37.538446457926284,76.81626506302345],[-37.5394549964346,76.81531944565191],[-37.529351942214596,76.81392288178377],[-37.5202521817076,76.81405427280585],[-37.49498358298038,76.81527692386743],[-37.48783624652145,76.81300426165367],[-37.466059552342266,76.81151831393065],[-37.45732096418918,76.81309582672083],[-37.468471413718255,76.81411853171105],[-37.46551050989363,76.81509230194297],[-37.47967154283321,76.81647184142736],[-37.47768918545596,76.81739676585028],[-37.49152199697874,76.81753614000192],[-37.489836854965134,76.81823916330713],[-37.47910064953336,76.81921338923758],[-37.46656712908369,76.81939203128083],[-37.4240164892366,76.82116041165715],[-37.408825901531614,76.82226474307215],[-37.406536023342184,76.82329013750723],[-37.39439923349477,76.82475876242736],[-37.36685264361355,76.82613604611335],[-37.36699597803226,76.82713339738913],[-37.40568230911231,76.82582638148834],[-37.41037061863387,76.82609359512067],[-37.419370463391196,76.82646866785049],[-37.45916488058162,76.82496485938208],[-37.476506161467505,76.82463924598339]]]}},{"type":"Feature","properties":{"N03_001":"岩手県","N03_002":null,"N03_003":null,"N03_004":"北上市","N03_007":"03206"},"geometry":{"type":"Polygon","coordinates":[[[-37.71007031237535,76.82050760632428],[-37.72048773973743,76.8193692994609],[-37.74944925081128,76.81756490706965],[-37.74922964976886,76.81674131288841],[-37.727419579978644,76.81468772286084],[-37.728730061526086,76.81316149174928],[-37.719196545482745,76.81119794442468],[-37.71694943830604,76.8079369411922],[-37.725471927422,76.80583335278706],[-37.71488682661825,76.80390620063935],[-37.73032113665606,76.80304854102714],[-37.724529209135326,76.80136640858858],[-37.70399539444793,76.80079342289982],[-37.688053026539215,76.80058227630073],[-37.67778072558663,76.80134993324045],[-37.643540928360835,76.80125092841135],[-37.622063322590336,76.80319413581901],[-37.59935399512127,76.80289442214675],[-37.585599958831935,76.8022363088647],[-37.56641498065759,76.80412710438667],[-37.5610043986001,76.8056499245013],[-37.540162230837815,76.80950269227172],[-37.52924369311535,76.80857026405931],[-37.514607211699605,76.81047648088337],[-37.5202521817076,76.81405427280585],[-37.529351942214596,76.81392288178377],[-37.5394549964346,76.81531944565191],[-37.538446457926284,76.81626506302345],[-37.548044371462915,76.81671046155608],[-37.568890767789604,76.81689426291562],[-37.58212634797834,76.817685727111],[-37.60905010186632,76.81559917473426],[-37.64086333243803,76.81543813197715],[-37.702209507578665,76.81662666342235],[-37.70288538020386,76.81803179550879],[-37.695228293151665,76.8190716792951],[-37.71007031237535,76.82050760632428]]]}},{"type":"Feature","properties":{"N03_001":"岩手県","N03_002":null,"N03_003":null,"N03_004":"久慈市","N03_007":"03207"},"geometry":{"type":"Polygon","coordinates":[[[-37.22791605853761,76.8481802197437],[-37.22607985217645,76.84905017427596],[-37.23966782226161,76.85126341136723],[-37.21843106790514,76.85362874729397],[-37.19703026949189,76.85390951226464],[-37.17913543886622,76.85493558067122],[-37.16109680378419,76.85583242263183],[-37.16936214505696,76.85709779868772],[-37.199701027552244,76.85827857603687],[-37.19779229504069,76.8603291869758],[-37.1844739036345,76.86144148454227],[-37.1933918997144,76.86375506789936],[-37.20550902573009,76.86521071453267],[-37.22367665127914,76.8638879072563],[-37.239525287812675,76.8637769907457],[-37.24184189515627,76.8622500301861],[-37.27025593221389,76.86197600192246],[-37.26715659072111,76.86058848395436],[-37.30351880053208,76.86055029565723],[-37.321685648235835,76.8614963708733],[-37.33674193543208,76.86148775402702],[-37.36339595587502,76.86056998582812],[-37.37690075604257,76.85831922677747],[-37.3809773670843,76.85564730414897],[-37.391487902122996,76.85451283676687],[-37.388679880178906,76.85338705704652],[-37.375777531604946,76.85149544336312],[-37.35493280026158,76.8506223924238],[-37.35065406330635,76.8488569334719],[-37.330312533045834,76.84867065237304],[-37.3148349472792,76.84737882717629],[-37.3013275303861,76.84753897505516],[-37.28069857288222,76.8463979881023],[-37.26392998325444,76.84705514488103],[-37.24699743264622,76.84665740006501],[-37.22791605853761,76.8481802197437]]]}},{"type":"Feature","properties":{"N03_001":"岩手県","N03_002":null,"N03_003":null,"N03_004":"遠野市","N03_007":"03208"},"geometry":{"type":"Polygon","coordinates":[[[-37.36699597803226,76.82713339738913],[-37.36685264361355,76.82613604611335],[-37.39439923349477,76.82475876242736],[-37.406536023342184,76.82329013750723],[-37.408825901531614,76.82226474307215],[-37.4240164892366,76.82116041165715],[-37.46656712908369,76.81939203128083],[-37.47910064953336,76.81921338923758],[-37.489836854965134,76.81823916330713],[-37.49152199697874,76.81753614000192],[-37.47768918545596,76.81739676585028],[-37.47967154283321,76.81647184142736],[-37.46551050989363,76.81509230194297],[-37.468471413718255,76.81411853171105],[-37.45732096418918,76.81309582672083],[-37.466059552342266,76.81151831393065],[-37.45457242591679,76.81101757964576],[-37.45079331501895,76.80797555889876],[-37.4313663959949,76.80841371181413],[-37.41152318051525,76.81051775032871],[-37.406134301464164,76.81223883910768],[-37.38479612604406,76.81352579493795],[-37.371976720723985,76.81373371373282],[-37.35977601053958,76.81481195864076],[-37.34364051835198,76.8142594912703],[-37.321441964995856,76.81490770692542],[-37.3086133112219,76.81434511839336],[-37.28627544137263,76.815714489831],[-37.30286935599038,76.81906324141414],[-37.30522176418158,76.8210189838318],[-37.297159670028016,76.82321115367286],[-37.27730596264254,76.82535716639629],[-37.250681563576975,76.82627309034208],[-37.26059407590075,76.82719607990387],[-37.25884044191988,76.82825549790157],[-37.273469917726985,76.82759328678121],[-37.299864710323284,76.82671185834187],[-37.314200743249735,76.82784998823713],[-37.334056856711385,76.82763339863043],[-37.362839050704025,76.82653501469278],[-37.36699597803226,76.82713339738913]]]}},{"type":"Feature","properties":{"N03_001":"岩手県","N03_002":null,"N03_003":null,"N03_004":"一関市","N03_007":"03209"},"geometry":{"type":"Polygon","coordinates":[[[-37.43872855843848,76.80200735103288],[-37.46246152272508,76.8003742842243],[-37.46001339828232,76.8027463330589],[-37.466202738217575,76.80425077137882],[-37.50113791024093,76.79953197945251],[-37.51285044137085,76.79877441143194],[-37.51630083461531,76.79633706883678],[-37.529962099042415,76.7956628803121],[-37.54106207394754,76.79525732914742],[-37.55262730843651,76.79520150384901],[-37.5564499686442,76.79521094677284],[-37.56402500401403,76.79517042573477],[-37.56201621897619,76.79485339745052],[-37.5886325479392,76.79421592930076],[-37.618829628733266,76.79397885227777],[-37.62811158493242,76.79432371608878],[-37.639028292918816,76.79456670501538],[-37.66989524172288,76.79442396877792],[-37.69502124469325,76.79647707772023],[-37.721669373224174,76.79608874641497],[-37.72690333896449,76.79554863120855],[-37.76239645555454,76.79556292421796],[-37.77478729321704,76.79475338694618],[-37.76948271941375,76.79292194798705],[-37.738731311055425,76.79328086100867],[-37.707582428375495,76.79216776859784],[-37.68582533860452,76.79227316392551],[-37.654223440989135,76.7921105355713],[-37.64314835014611,76.79151629420751],[-37.6186606798843,76.79208904937202],[-37.594895395428246,76.79224743520518],[-37.57616046861508,76.79183007550229],[-37.57250828042921,76.79156387287502],[-37.589721397338735,76.79129534209574],[-37.578685935428375,76.79090822335121],[-37.567717764942564,76.78971445256967],[-37.55768453898142,76.78987841787414],[-37.54679267527799,76.78873307037762],[-37.541611891763985,76.78659474979007],[-37.52337823944011,76.7874724933594],[-37.521121086917525,76.78976808852013],[-37.50529606389783,76.78915633353726],[-37.48434465881979,76.7890190414055],[-37.44436591387251,76.7853496876235],[-37.44456880230993,76.78441407140713],[-37.43418957583246,76.78477942902165],[-37.43503596537677,76.78615556783379],[-37.424841659182164,76.78717059367513],[-37.43797856057212,76.78850335919847],[-37.41693275289248,76.78821833111857],[-37.43054168211746,76.7901180282006],[-37.43689522734027,76.79071810676903],[-37.450855226196694,76.79188365447413],[-37.44853970484608,76.79272915430393],[-37.45424330655887,76.79530924877818],[-37.44353870150754,76.7973297413661],[-37.435556864216764,76.80074705193623],[-37.43872855843848,76.80200735103288]]]}},{"type":"Feature","properties":{"N03_001":"岩手県","N03_002":null,"N03_003":null,"N03_004":"二戸市","N03_007":"03213"},"geometry":{"type":"Polygon","coordinates":[[[-37.652752991213625,76.85996982238194],[-37.65032988622882,76.85606878988561],[-37.6294866087838,76.85362620650073],[-37.6049355567621,76.85291789140096],[-37.587080931924504,76.85134629878384],[-37.571058054427375,76.85103924218659],[-37.54914448634833,76.85209108493605],[-37.55458573006398,76.85342106991298],[-37.547697037819276,76.85646298639523],[-37.4969726862336,76.85987791402144],[-37.495650030408974,76.86150927624519],[-37.471396361911154,76.8630681399031],[-37.44055864225167,76.86046517005575],[-37.42610204946543,76.8613637347166],[-37.43271909119415,76.86420657411703],[-37.448284008921746,76.86869302365633],[-37.47027096167153,76.87149663828322],[-37.48322452061111,76.87070589651624],[-37.50912492130051,76.87089495320099],[-37.542534788254834,76.86940739146087],[-37.570919082917015,76.86904933090511],[-37.61353939622783,76.86608641992939],[-37.60740777679512,76.86407679742047],[-37.628921253032026,76.86296865782006],[-37.652752991213625,76.85996982238194]]]}},{"type":"Feature","properties":{"N03_001":"岩手県","N03_002":null,"N03_003":null,"N03_004":"八幡平市","N03_007":"03214"},"geometry":{"type":"Polygon","coordinates":[[[-37.667289839679455,76.84455874838208],[-37.66456136637561,76.84523675133589],[-37.62281841040302,76.84726334258136],[-37.60568009782575,76.84709685743591],[-37.58978613293173,76.8466213634648],[-37.563408990754155,76.8452070011736],[-37.54570150629832,76.84487710468808],[-37.55827828968736,76.84617031422366],[-37.578982887794936,76.84786163580722],[-37.56942149646999,76.84779145887012],[-37.58427512367162,76.84885391986414],[-37.58797632987757,76.84995703740402],[-37.57513353680915,76.8500977149384],[-37.57022108876048,76.85081196863374],[-37.571058054427375,76.85103924218659],[-37.587080931924504,76.85134629878384],[-37.6049355567621,76.85291789140096],[-37.6294866087838,76.85362620650073],[-37.65032988622882,76.85606878988561],[-37.652752991213625,76.85996982238194],[-37.67515113738958,76.86001486889488],[-37.68817100638313,76.86222099043603],[-37.69448426408935,76.86085550519445],[-37.71332511597557,76.86054231147422],[-37.7191497087923,76.8585714799874],[-37.735839807953234,76.85749237865963],[-37.7218163032326,76.85607955771708],[-37.728802573885375,76.85487103341778],[-37.72201454672111,76.85326647713988],[-37.73865191090552,76.85246204548106],[-37.73255566094666,76.85137008334267],[-37.73731787165351,76.84809528005054],[-37.73573942982097,76.84646844191708],[-37.729326293765794,76.84601126994743],[-37.72747741083333,76.84374418316833],[-37.718756339843736,76.84202719333345],[-37.69946389331932,76.84219243751993],[-37.68378308801056,76.84393173364597],[-37.667289839679455,76.84455874838208]]]}},{"type":"Feature","properties":{"N03_001":"岩手県","N03_002":null,"N03_003":null,"N03_004":"奥州市","N03_007":"03215"},"geometry":{"type":"Polygon","coordinates":[[[-37.5202521817076,76.81405427280585],[-37.514607211699605,76.81047648088337],[-37.52924369311535,76.80857026405931],[-37.540162230837815,76.80950269227172],[-37.5610043986001,76.8056499245013],[-37.56641498065759,76.80412710438667],[-37.585599958831935,76.8022363088647],[-37.575307331413626,76.80217014044415],[-37.579160670281205,76.80108266053212],[-37.59813230056081,76.79895968495913],[-37.620360361388215,76.79807054026966],[-37.62560587619287,76.79751629494538],[-37.64287752833121,76.79795134448672],[-37.70399539444793,76.80079342289982],[-37.724529209135326,76.80136640858858],[-37.73830126447929,76.80126047970678],[-37.754601447216864,76.80227973373196],[-37.77382313224812,76.80216927549453],[-37.78664209112906,76.80106714858816],[-37.77393594729121,76.8001436467698],[-37.78284601444597,76.7985320233111],[-37.754064110751365,76.79787814665498],[-37.750346865185925,76.7968518307785],[-37.76239645555454,76.79556292421796],[-37.72690333896449,76.79554863120855],[-37.721669373224174,76.79608874641497],[-37.69502124469325,76.79647707772023],[-37.66989524172288,76.79442396877792],[-37.639028292918816,76.79456670501538],[-37.62811158493242,76.79432371608878],[-37.61207487354013,76.79466161246079],[-37.59212692661366,76.79484210204282],[-37.5880456376968,76.79491530526826],[-37.56402500401403,76.79517042573477],[-37.5564499686442,76.79521094677284],[-37.55262730843651,76.79520150384901],[-37.54106207394754,76.79525732914742],[-37.529962099042415,76.7956628803121],[-37.51630083461531,76.79633706883678],[-37.51285044137085,76.79877441143194],[-37.50113791024093,76.79953197945251],[-37.466202738217575,76.80425077137882],[-37.46157037250524,76.8062001667797],[-37.45079331501895,76.80797555889876],[-37.45457242591679,76.81101757964576],[-37.466059552342266,76.81151831393065],[-37.48783624652145,76.81300426165367],[-37.49498358298038,76.81527692386743],[-37.5202521817076,76.81405427280585]]]}},{"type":"Feature","properties":{"N03_001":"岩手県","N03_002":null,"N03_003":null,"N03_004":"滝沢市","N03_007":"03216"},"geometry":{"type":"Polygon","coordinates":[[[-37.58978613293173,76.8466213634648],[-37.60568009782575,76.84709685743591],[-37.62281841040302,76.84726334258136],[-37.66456136637561,76.84523675133589],[-37.667289839679455,76.84455874838208],[-37.66714871349702,76.84344757924353],[-37.67464710015854,76.83402780035071],[-37.65735877782175,76.83124011325583],[-37.64563937107423,76.8272423426484],[-37.631031767101184,76.82625562751728],[-37.61525268882036,76.82565504976492],[-37.59080082685514,76.82567187108916],[-37.53856980423322,76.83092097002806],[-37.51961683184878,76.83340864524014],[-37.527380064586126,76.83861692190649],[-37.56612156967031,76.84466690248482],[-37.58978613293173,76.8466213634648]]]}}]}