{"type":"FeatureCollection","features":[{"type":"Feature","properties":{"N03_001":"埼玉県","N03_002":null,"N03_003":"さいたま市","N03_004":"西区","N03_007":"11101"},"geometry":{"type":"Polygon","coordinates":[[[-38.51900675544297,76.6384390153359],[-38.51945180786146,76.63641489378297],[-38.495163624446874,76.63430930985952],[-38.47901816948346,76.63521716896977],[-38.48202461117848,76.63802980688047],[-38.482798330136895,76.6401061098612],[-38.487333282501474,76.64030374814078],[-38.51900675544297,76.6384390153359]]]}},{"type":"Feature","properties":{"N03_001":"埼玉県","N03_002":null,"N03_003":"さいたま市","N03_004":"北区","N03_007":"11102"},"geometry":{"type":"Polygon","coordinates":[[[-38.48202461117848,76.63802980688047],[-38.426377466868836,76.63956869646591],[-38.443829284518074,76.64240493983188],[-38.471780465686635,76.64206363066589],[-38.482798330136895,76.6401061098612],[-38.48202461117848,76.63802980688047]]]}},{"type":"Feature","properties":{"N03_001":"埼玉県","N03_002":null,"N03_003":"さいたま市","N03_004":"大宮区","N03_007":"11103"},"geometry":{"type":"Polygon","coordinates":[[[-38.47901816948346,76.63521716896977],[-38.47860213950729,76.63528019150527],[-38.42871107182177,76.63728245956133],[-38.417241525689576,76.63764470439389],[-38.426377466868836,76.63956869646591],[-38.48202461117848,76.63802980688047],[-38.47901816948346,76.63521716896977]]]}},{"type":"Feature","properties":{"N03_001":"埼玉県","N03_002":null,"N03_003":"さいたま市","N03_004":"見沼区","N03_007":"11104"},"geometry":{"type":"Polygon","coordinates":[[[-38.426377466868836,76.63956869646591],[-38.417241525689576,76.63764470439389],[-38.404636111066935,76.6371573627915],[-38.37765955778927,76.63670118579581],[-38.3791649541728,76.63758192371108],[-38.39614131579974,76.64030140481404],[-38.419689573337216,76.64106738557814],[-38.42709669408277,76.64134471145152],[-38.443829284518074,76.64240493983188],[-38.426377466868836,76.63956869646591]]]}},{"type":"Feature","properties":{"N03_001":"埼玉県","N03_002":null,"N03_003":"さいたま市","N03_004":"中央区","N03_007":"11105"},"geometry":{"type":"Polygon","coordinates":[[[-38.47860213950729,76.63528019150527],[-38.43702199374304,76.6294395285156],[-38.43441521539517,76.62950799038832],[-38.42871107182177,76.63728245956133],[-38.47860213950729,76.63528019150527]]]}},{"type":"Feature","properties":{"N03_001":"埼玉県","N03_002":null,"N03_003":"さいたま市","N03_004":"桜区","N03_007":"11106"},"geometry":{"type":"Polygon","coordinates":[[[-38.495163624446874,76.63430930985952],[-38.48975137637113,76.63312415717697],[-38.45790893276183,76.62754051391643],[-38.452225407584976,76.62750889900916],[-38.43702199374304,76.6294395285156],[-38.47860213950729,76.63528019150527],[-38.47901816948346,76.63521716896977],[-38.495163624446874,76.63430930985952]]]}},{"type":"Feature","properties":{"N03_001":"埼玉県","N03_002":null,"N03_003":"さいたま市","N03_004":"浦和区","N03_007":"11107"},"geometry":{"type":"Polygon","coordinates":[[[-38.42871107182177,76.63728245956133],[-38.43441521539517,76.62950799038832],[-38.39853163806616,76.63246140668572],[-38.404636111066935,76.6371573627915],[-38.417241525689576,76.63764470439389],[-38.42871107182177,76.63728245956133]]]}},{"type":"Feature","properties":{"N03_001":"埼玉県","N03_002":null,"N03_003":"さいたま市","N03_004":"南区","N03_007":"11108"},"geometry":{"type":"Polygon","coordinates":[[[-38.43702199374304,76.6294395285156],[-38.452225407584976,76.62750889900916],[-38.450728690752385,76.62730500051937],[-38.42145547133398,76.62612109595054],[-38.384929508416576,76.63257238828592],[-38.371926518093396,76.63114159242711],[-38.39853163806616,76.63246140668572],[-38.43441521539517,76.62950799038832],[-38.43702199374304,76.6294395285156]]]}},{"type":"Feature","properties":{"N03_001":"埼玉県","N03_002":null,"N03_003":"さいたま市","N03_004":"緑区","N03_007":"11109"},"geometry":{"type":"Polygon","coordinates":[[[-38.404636111066935,76.6371573627915],[-38.39853163806616,76.63246140668572],[-38.371926518093396,76.63114159242711],[-38.3537554097688,76.63347443877944],[-38.35238035860356,76.63459742633947],[-38.3791649541728,76.63758192371108],[-38.37765955778927,76.63670118579581],[-38.404636111066935,76.6371573627915]]]}},{"type":"Feature","properties":{"N03_001":"埼玉県","N03_002":null,"N03_003":"さいたま市","N03_004":"岩槻区","N03_007":"11110"},"geometry":{"type":"Polygon","coordinates":[[[-38.3791649541728,76.63758192371108],[-38.35238035860356,76.63459742633947],[-38.34870695956633,76.63405517159319],[-38.35153738132712,76.63850792740773],[-38.37063029261235,76.63984267359986],[-38.36962941759077,76.6408722272976],[-38.38035808743414,76.64124547871546],[-38.390559438912625,76.64113372216376],[-38.39722859781028,76.64074619404838],[-38.419689573337216,76.64106738557814],[-38.39614131579974,76.64030140481404],[-38.3791649541728,76.63758192371108]]]}},{"type":"Feature","properties":{"N03_001":"埼玉県","N03_002":null,"N03_003":null,"N03_004":"川越市","N03_007":"11201"},"geometry":{"type":"Polygon","coordinates":[[[-38.5232093289407,76.6385872560578],[-38.55500847953862,76.63760332241631],[-38.56701287608531,76.63684441803314],[-38.574130486241785,76.63823553094242],[-38.569239513775756,76.63666021639798],[-38.57855657970832,76.63551115008221],[-38.61306394197273,76.6349679824675],[-38.594716602216224,76.63433025838405],[-38.58536065205828,76.6349811092235],[-38.56664396044241,76.63533620601251],[-38.55978699177698,76.62904233641339],[-38.5581929497626,76.6287702835424],[-38.55441422746276,76.62879078546366],[-38.56715720092413,76.63173770293069],[-38.541015646051804,76.63732359329455],[-38.51970230323194,76.63634710407057],[-38.51945180786146,76.63641489378297],[-38.51900675544297,76.6384390153359],[-38.5209924251677,76.63839944325387],[-38.5232093289407,76.6385872560578]]]}},{"type":"Feature","properties":{"N03_001":"埼玉県","N03_002":null,"N03_003":null,"N03_004":"熊谷市","N03_007":"11202"},"geometry":{"type":"Polygon","coordinates":[[[-38.61746405146158,76.64549843447476],[-38.613741673378506,76.64510081352643],[-38.61773530721296,76.64523107808263],[-38.63481516894007,76.64566412173961],[-38.625132880680056,76.64622142015423],[-38.63511367495054,76.64578053772632],[-38.626958926885145,76.64503733089477],[-38.612701063393104,76.64654587450414],[-38.595285979408345,76.64676132671748],[-38.58381836790557,76.64622148315209],[-38.578727707735226,76.64489019540795],[-38.56386339682416,76.64553956901058],[-38.57587604375921,76.64670271917397],[-38.57431274975202,76.64622644850651],[-38.565098339564315,76.64667179911167],[-38.578001759075434,76.6460805099169],[-38.59107682589421,76.64622119362988],[-38.601212924601676,76.64691953093866],[-38.61746405146158,76.64549843447476]]]}},{"type":"Feature","properties":{"N03_001":"埼玉県","N03_002":null,"N03_003":null,"N03_004":"川口市","N03_007":"11203"},"geometry":{"type":"Polygon","coordinates":[[[-38.384929508416576,76.63257238828592],[-38.369111492168855,76.62383204888076],[-38.38276743541305,76.62196849520248],[-38.36149076969462,76.62243027066211],[-38.344820914695525,76.62686101387337],[-38.34211012283558,76.62838169720308],[-38.34236076841838,76.63293044745285],[-38.34870695956633,76.63405517159319],[-38.35238035860356,76.63459742633947],[-38.3537554097688,76.63347443877944],[-38.371926518093396,76.63114159242711],[-38.384929508416576,76.63257238828592]]]}},{"type":"Feature","properties":{"N03_001":"埼玉県","N03_002":null,"N03_003":null,"N03_004":"行田市","N03_007":"11206"},"geometry":{"type":"Polygon","coordinates":[[[-38.565098339564315,76.64667179911167],[-38.57431274975202,76.64622644850651],[-38.57587604375921,76.64670271917397],[-38.55121837508871,76.64599629208388],[-38.53690014250497,76.64586426441743],[-38.51981706601345,76.64634700158905],[-38.50520806980817,76.64655124320944],[-38.50932313473609,76.64669345019962],[-38.53370888146007,76.6474007889793],[-38.52732679328907,76.64802206317287],[-38.52873072459018,76.64798538719586],[-38.565098339564315,76.64667179911167]]]}},{"type":"Feature","properties":{"N03_001":"埼玉県","N03_002":null,"N03_003":null,"N03_004":"秩父市","N03_007":"11207"},"geometry":{"type":"Polygon","coordinates":[[[-38.75587611561459,76.63784946815372],[-38.74407162559365,76.63679868027585],[-38.774467769032995,76.63845852175216],[-38.77933721076893,76.63648151132806],[-38.773821844411565,76.63515920019209],[-38.72150350149707,76.63573283734476],[-38.72061131834492,76.63600910261417],[-38.73377740076489,76.63649555567234],[-38.754610922702405,76.63552308584306],[-38.75429848977929,76.63575040204145],[-38.775803870030515,76.63349529860088],[-38.786149086210216,76.63304844882502],[-38.799149083997975,76.6318557074291],[-38.79790693343776,76.6315664873235],[-38.804885880831065,76.63124688185063],[-38.80890771567591,76.6316024678391],[-38.81041452709482,76.63113914615282],[-38.816685887294916,76.63179571064494],[-38.80734406980536,76.63384352254114],[-38.79742043788573,76.6344204029067],[-38.78768692579989,76.63579472449163],[-38.79251643408981,76.63670622681619],[-38.797015986500675,76.63629878718412],[-38.80874157955923,76.63641809012992],[-38.82108883593517,76.63672017411616],[-38.83012734597534,76.63650477671465],[-38.838350646004415,76.63544136257751],[-38.83799651951626,76.63417648772749],[-38.84095623724279,76.63386758967482],[-38.84963067120503,76.6342227387117],[-38.874760126852514,76.63540941657422],[-38.87900175232672,76.63588281002878],[-38.906374110746114,76.63649018387285],[-38.9070685228739,76.63643273515949],[-38.883077865101434,76.636962247589],[-38.898438162960424,76.63633218190958],[-38.85053719085633,76.63995868121026],[-38.845465126604275,76.64104186802865],[-38.836645478156726,76.6411994659306],[-38.83263761902157,76.6415703220584],[-38.82579447232857,76.64234518378194],[-38.821393690702074,76.6418097874579],[-38.813668153984125,76.64169256821937],[-38.811197020329445,76.64078368337536],[-38.80011538966703,76.64034730362636],[-38.794617284911155,76.6397674985447],[-38.78838537027103,76.64062550415028],[-38.75587611561459,76.63784946815372]]]}},{"type":"Feature","properties":{"N03_001":"埼玉県","N03_002":null,"N03_003":null,"N03_004":"所沢市","N03_007":"11208"},"geometry":{"type":"Polygon","coordinates":[[[-38.55978699177698,76.62904233641339],[-38.582965108829875,76.62878778282996],[-38.600046045822374,76.62879983142923],[-38.59997955426991,76.62732976401041],[-38.60114470613243,76.6272254112841],[-38.593171903411694,76.62662942524967],[-38.56754630568481,76.62610923780264],[-38.54103682938866,76.62536908220751],[-38.51969254267026,76.62655395736417],[-38.524106749341236,76.62713496528657],[-38.541778537154386,76.62711635560272],[-38.5581929497626,76.6287702835424],[-38.55978699177698,76.62904233641339]]]}},{"type":"Feature","properties":{"N03_001":"埼玉県","N03_002":null,"N03_003":null,"N03_004":"飯能市","N03_007":"11209"},"geometry":{"type":"Polygon","coordinates":[[[-38.75587611561459,76.63784946815372],[-38.720849017752066,76.63598090976232],[-38.71078587800679,76.63618797499406],[-38.70233478153491,76.63622904985297],[-38.675545571366655,76.63570772326626],[-38.64887420862182,76.63237608719557],[-38.63233365063892,76.6318484208173],[-38.63652820940548,76.63273405084472],[-38.624387404211774,76.6326970334251],[-38.61435325742827,76.63298950545123],[-38.659550388602625,76.6343296867027],[-38.67222470950973,76.63503243800723],[-38.677990128750935,76.63498175205889],[-38.67821344483687,76.63448328352312],[-38.68284861759097,76.63384741225838],[-38.69067549846598,76.63368154931837],[-38.69780664381895,76.6328991766042],[-38.71655116499943,76.63485072322659],[-38.71693727185655,76.63422731512787],[-38.774467769032995,76.63845852175216],[-38.74407162559365,76.63679868027585],[-38.75587611561459,76.63784946815372]]]}},{"type":"Feature","properties":{"N03_001":"埼玉県","N03_002":null,"N03_003":null,"N03_004":"加須市","N03_007":"11210"},"geometry":{"type":"Polygon","coordinates":[[[-38.45318855478168,76.64730064548485],[-38.45509935489332,76.6476382254361],[-38.47312941460579,76.64738657159327],[-38.50932313473609,76.64669345019962],[-38.50520806980817,76.64655124320944],[-38.48887556424025,76.64696917351553],[-38.50179557548868,76.64672057744139],[-38.48612442104266,76.64707628943351],[-38.44756140532492,76.64877518936403],[-38.4319256656703,76.6483700132174],[-38.40770148104038,76.64827120490935],[-38.41205445163175,76.64912127684921],[-38.425634060703324,76.64888168034688],[-38.449733810222256,76.64724047636187],[-38.45318855478168,76.64730064548485]]]}},{"type":"Feature","properties":{"N03_001":"埼玉県","N03_002":null,"N03_003":null,"N03_004":"本庄市","N03_007":"11211"},"geometry":{"type":"Polygon","coordinates":[[[-38.68531521759745,76.64425556676095],[-38.657584837345766,76.64485542666424],[-38.69433531350222,76.64674154886805],[-38.6952633287717,76.6468032118219],[-38.70357845011794,76.64478736329623],[-38.6988995844067,76.64423054048804],[-38.71298142308041,76.64399139257708],[-38.71724111406844,76.64394620054908],[-38.744637144777904,76.64241818936048],[-38.7663132654692,76.63777884809745],[-38.75328609829128,76.63872599947294],[-38.73444764714778,76.6416741707916],[-38.71737359302173,76.643419007468],[-38.70142854103906,76.64411069504706],[-38.68531521759745,76.64425556676095]]]}},{"type":"Feature","properties":{"N03_001":"埼玉県","N03_002":null,"N03_003":null,"N03_004":"東松山市","N03_007":"11212"},"geometry":{"type":"Polygon","coordinates":[[[-38.595285979408345,76.64676132671748],[-38.60051884522965,76.64415574686684],[-38.59854180794536,76.64320190910846],[-38.627520165046306,76.64222437847448],[-38.62600513044076,76.64088255731717],[-38.60883881924652,76.64069955671378],[-38.5757627269401,76.6415724322379],[-38.562031846941665,76.64216936267128],[-38.57140776761905,76.64231215086055],[-38.58225431952027,76.64321743451289],[-38.578727707735226,76.64489019540795],[-38.58381836790557,76.64622148315209],[-38.595285979408345,76.64676132671748]]]}},{"type":"Feature","properties":{"N03_001":"埼玉県","N03_002":null,"N03_003":null,"N03_004":"春日部市","N03_007":"11214"},"geometry":{"type":"Polygon","coordinates":[[[-38.35153738132712,76.63850792740773],[-38.334766772919004,76.63904330574776],[-38.32618413710601,76.63809720722125],[-38.310133945425726,76.63925855104594],[-38.322235483831044,76.64053752772786],[-38.327104374444,76.64284019713278],[-38.342281762313526,76.64203902681695],[-38.34200788861222,76.64117656851663],[-38.359314136172046,76.6412234175741],[-38.37672330681285,76.64167316086903],[-38.38035808743414,76.64124547871546],[-38.36962941759077,76.6408722272976],[-38.37063029261235,76.63984267359986],[-38.35153738132712,76.63850792740773]]]}},{"type":"Feature","properties":{"N03_001":"埼玉県","N03_002":null,"N03_003":null,"N03_004":"狭山市","N03_007":"11215"},"geometry":{"type":"Polygon","coordinates":[[[-38.594716602216224,76.63433025838405],[-38.61435325742827,76.63298950545123],[-38.624387404211774,76.6326970334251],[-38.592828684405994,76.63112429367777],[-38.582965108829875,76.62878778282996],[-38.55978699177698,76.62904233641339],[-38.56664396044241,76.63533620601251],[-38.58536065205828,76.6349811092235],[-38.594716602216224,76.63433025838405]]]}},{"type":"Feature","properties":{"N03_001":"埼玉県","N03_002":null,"N03_003":null,"N03_004":"羽生市","N03_007":"11216"},"geometry":{"type":"Polygon","coordinates":[[[-38.52732679328907,76.64802206317287],[-38.53370888146007,76.6474007889793],[-38.50932313473609,76.64669345019962],[-38.47312941460579,76.64738657159327],[-38.45509935489332,76.6476382254361],[-38.45318855478168,76.64730064548485],[-38.464166548357795,76.64838961304113],[-38.4992042662464,76.64850579606333],[-38.52732679328907,76.64802206317287]]]}},{"type":"Feature","properties":{"N03_001":"埼玉県","N03_002":null,"N03_003":null,"N03_004":"鴻巣市","N03_007":"11217"},"geometry":{"type":"Polygon","coordinates":[[[-38.56386339682416,76.64553956901058],[-38.54198992180108,76.6445182368758],[-38.52159517815993,76.64614410085552],[-38.50926898019476,76.64690989966769],[-38.483451928346476,76.64643958921216],[-38.47978130926773,76.64660286426101],[-38.48612442104266,76.64707628943351],[-38.50179557548868,76.64672057744139],[-38.48887556424025,76.64696917351553],[-38.50520806980817,76.64655124320944],[-38.51981706601345,76.64634700158905],[-38.53690014250497,76.64586426441743],[-38.55121837508871,76.64599629208388],[-38.57587604375921,76.64670271917397],[-38.56386339682416,76.64553956901058]]]}},{"type":"Feature","properties":{"N03_001":"埼玉県","N03_002":null,"N03_003":null,"N03_004":"深谷市","N03_007":"11218"},"geometry":{"type":"Polygon","coordinates":[[[-38.657584837345766,76.64485542666424],[-38.68531521759745,76.64425556676095],[-38.689166623564404,76.64456756924307],[-38.67069185721369,76.64507506518133],[-38.6858760375185,76.64435831964138],[-38.67921576265303,76.6439480702002],[-38.64881978973614,76.64570742122545],[-38.642567583132355,76.64530386555975],[-38.63511367495054,76.64578053772632],[-38.625132880680056,76.64622142015423],[-38.63481516894007,76.64566412173961],[-38.61773530721296,76.64523107808263],[-38.613741673378506,76.64510081352643],[-38.61746405146158,76.64549843447476],[-38.644433688883964,76.64525887624609],[-38.657584837345766,76.64485542666424]]]}},{"type":"Feature","properties":{"N03_001":"埼玉県","N03_002":null,"N03_003":null,"N03_004":"上尾市","N03_007":"11219"},"geometry":{"type":"Polygon","coordinates":[[[-38.51900675544297,76.6384390153359],[-38.487333282501474,76.64030374814078],[-38.482798330136895,76.6401061098612],[-38.471780465686635,76.64206363066589],[-38.443829284518074,76.64240493983188],[-38.42709669408277,76.64134471145152],[-38.43385590910374,76.64178419010824],[-38.45242602987269,76.6428366445571],[-38.46889642964246,76.64460130493298],[-38.49210808459063,76.64087932772082],[-38.51715598189532,76.64023173982675],[-38.52204830452442,76.63909813664078],[-38.5232093289407,76.6385872560578],[-38.5209924251677,76.63839944325387],[-38.51900675544297,76.6384390153359]]]}},{"type":"Feature","properties":{"N03_001":"埼玉県","N03_002":null,"N03_003":null,"N03_004":"草加市","N03_007":"11221"},"geometry":{"type":"Polygon","coordinates":[[[-38.344820914695525,76.62686101387337],[-38.33303537805358,76.62490660799557],[-38.32058394652709,76.62522654958951],[-38.30195366239718,76.6322880315421],[-38.303055819822326,76.6324478117293],[-38.304878317477495,76.63288524154247],[-38.32321321265504,76.63290670081399],[-38.34236076841838,76.63293044745285],[-38.34211012283558,76.62838169720308],[-38.344820914695525,76.62686101387337]]]}},{"type":"Feature","properties":{"N03_001":"埼玉県","N03_002":null,"N03_003":null,"N03_004":"越谷市","N03_007":"11222"},"geometry":{"type":"Polygon","coordinates":[[[-38.34870695956633,76.63405517159319],[-38.34236076841838,76.63293044745285],[-38.32321321265504,76.63290670081399],[-38.304878317477495,76.63288524154247],[-38.309288090831835,76.63634583567197],[-38.323433917687886,76.63664388174807],[-38.32618413710601,76.63809720722125],[-38.334766772919004,76.63904330574776],[-38.35153738132712,76.63850792740773],[-38.34870695956633,76.63405517159319]]]}},{"type":"Feature","properties":{"N03_001":"埼玉県","N03_002":null,"N03_003":null,"N03_004":"蕨市","N03_007":"11223"},"geometry":{"type":"Polygon","coordinates":[[[-38.42145547133398,76.62612109595054],[-38.369111492168855,76.62383204888076],[-38.384929508416576,76.63257238828592],[-38.42145547133398,76.62612109595054]]]}},{"type":"Feature","properties":{"N03_001":"埼玉県","N03_002":null,"N03_003":null,"N03_004":"戸田市","N03_007":"11224"},"geometry":{"type":"Polygon","coordinates":[[[-38.450728690752385,76.62730500051937],[-38.44523135980926,76.62638117621717],[-38.41840786921114,76.622476096791],[-38.383215057919635,76.62195617028841],[-38.38276743541305,76.62196849520248],[-38.369111492168855,76.62383204888076],[-38.42145547133398,76.62612109595054],[-38.450728690752385,76.62730500051937]]]}},{"type":"Feature","properties":{"N03_001":"埼玉県","N03_002":null,"N03_003":null,"N03_004":"入間市","N03_007":"11225"},"geometry":{"type":"Polygon","coordinates":[[[-38.582965108829875,76.62878778282996],[-38.592828684405994,76.63112429367777],[-38.624387404211774,76.6326970334251],[-38.63652820940548,76.63273405084472],[-38.63233365063892,76.6318484208173],[-38.64887420862182,76.63237608719557],[-38.63444462860299,76.6298342721676],[-38.60932282728263,76.62826148450507],[-38.59997955426991,76.62732976401041],[-38.600046045822374,76.62879983142923],[-38.582965108829875,76.62878778282996]]]}},{"type":"Feature","properties":{"N03_001":"埼玉県","N03_002":null,"N03_003":null,"N03_004":"朝霞市","N03_007":"11227"},"geometry":{"type":"Polygon","coordinates":[[[-38.45790893276183,76.62754051391643],[-38.493063740184226,76.62595257490815],[-38.482283422570156,76.62221487683404],[-38.47242522359631,76.62093258907922],[-38.470563436233114,76.62076160501493],[-38.44523135980926,76.62638117621717],[-38.450728690752385,76.62730500051937],[-38.452225407584976,76.62750889900916],[-38.45790893276183,76.62754051391643]]]}},{"type":"Feature","properties":{"N03_001":"埼玉県","N03_002":null,"N03_003":null,"N03_004":"志木市","N03_007":"11228"},"geometry":{"type":"Polygon","coordinates":[[[-38.48975137637113,76.63312415717697],[-38.51286345490589,76.62734378997024],[-38.51251580513104,76.62719352698349],[-38.493063740184226,76.62595257490815],[-38.45790893276183,76.62754051391643],[-38.48975137637113,76.63312415717697]]]}},{"type":"Feature","properties":{"N03_001":"埼玉県","N03_002":null,"N03_003":null,"N03_004":"和光市","N03_007":"11229"},"geometry":{"type":"Polygon","coordinates":[[[-38.44523135980926,76.62638117621717],[-38.470563436233114,76.62076160501493],[-38.44014310078163,76.61861639990884],[-38.41840786921114,76.622476096791],[-38.44523135980926,76.62638117621717]]]}},{"type":"Feature","properties":{"N03_001":"埼玉県","N03_002":null,"N03_003":null,"N03_004":"新座市","N03_007":"11230"},"geometry":{"type":"Polygon","coordinates":[[[-38.51969254267026,76.62655395736417],[-38.513034125469666,76.62329072763504],[-38.52750212905083,76.62344812888495],[-38.50392987997946,76.62124715352503],[-38.490933145586624,76.6209222490113],[-38.47242522359631,76.62093258907922],[-38.482283422570156,76.62221487683404],[-38.493063740184226,76.62595257490815],[-38.51251580513104,76.62719352698349],[-38.524106749341236,76.62713496528657],[-38.51969254267026,76.62655395736417]]]}},{"type":"Feature","properties":{"N03_001":"埼玉県","N03_002":null,"N03_003":null,"N03_004":"桶川市","N03_007":"11231"},"geometry":{"type":"Polygon","coordinates":[[[-38.483451928346476,76.64643958921216],[-38.4914445593202,76.64425491217418],[-38.52902277313175,76.64174979515612],[-38.53626791817072,76.64071949847921],[-38.52204830452442,76.63909813664078],[-38.51715598189532,76.64023173982675],[-38.49210808459063,76.64087932772082],[-38.46889642964246,76.64460130493298],[-38.465963032509045,76.64605519820567],[-38.469770814306884,76.64610313912173],[-38.47978130926773,76.64660286426101],[-38.483451928346476,76.64643958921216]]]}},{"type":"Feature","properties":{"N03_001":"埼玉県","N03_002":null,"N03_003":null,"N03_004":"久喜市","N03_007":"11232"},"geometry":{"type":"Polygon","coordinates":[[[-38.40770148104038,76.64827120490935],[-38.4319256656703,76.6483700132174],[-38.44756140532492,76.64877518936403],[-38.48612442104266,76.64707628943351],[-38.47978130926773,76.64660286426101],[-38.469770814306884,76.64610313912173],[-38.46070460212674,76.6468303600406],[-38.41475018831443,76.64807724924047],[-38.404819969347386,76.64769129912065],[-38.40404576646227,76.64768717773921],[-38.416264343520695,76.64811976766548],[-38.38850592541971,76.64808746097324],[-38.402310651071005,76.64827711454257],[-38.40770148104038,76.64827120490935]]]}},{"type":"Feature","properties":{"N03_001":"埼玉県","N03_002":null,"N03_003":null,"N03_004":"北本市","N03_007":"11233"},"geometry":{"type":"Polygon","coordinates":[[[-38.54198992180108,76.6445182368758],[-38.54143787873144,76.64221122142595],[-38.53626791817072,76.64071949847921],[-38.52902277313175,76.64174979515612],[-38.4914445593202,76.64425491217418],[-38.483451928346476,76.64643958921216],[-38.50926898019476,76.64690989966769],[-38.52159517815993,76.64614410085552],[-38.54198992180108,76.6445182368758]]]}},{"type":"Feature","properties":{"N03_001":"埼玉県","N03_002":null,"N03_003":null,"N03_004":"八潮市","N03_007":"11234"},"geometry":{"type":"Polygon","coordinates":[[[-38.32058394652709,76.62522654958951],[-38.29836949100796,76.62332274474333],[-38.28917117863036,76.6236055459602],[-38.277435250888935,76.62790030773742],[-38.2967473910806,76.63005638248706],[-38.30195366239718,76.6322880315421],[-38.32058394652709,76.62522654958951]]]}},{"type":"Feature","properties":{"N03_001":"埼玉県","N03_002":null,"N03_003":null,"N03_004":"富士見市","N03_007":"11235"},"geometry":{"type":"Polygon","coordinates":[[[-38.51945180786146,76.63641489378297],[-38.51970230323194,76.63634710407057],[-38.53214947444366,76.63553191432268],[-38.527187247273986,76.62886601724338],[-38.51286345490589,76.62734378997024],[-38.48975137637113,76.63312415717697],[-38.495163624446874,76.63430930985952],[-38.51945180786146,76.63641489378297]]]}},{"type":"Feature","properties":{"N03_001":"埼玉県","N03_002":null,"N03_003":null,"N03_004":"三郷市","N03_007":"11237"},"geometry":{"type":"Polygon","coordinates":[[[-38.30195366239718,76.6322880315421],[-38.2967473910806,76.63005638248706],[-38.277435250888935,76.62790030773742],[-38.28917117863036,76.6236055459602],[-38.26862783917418,76.62421253497612],[-38.26430618717057,76.6287157503021],[-38.26165597625459,76.63219531084268],[-38.303055819822326,76.6324478117293],[-38.30195366239718,76.6322880315421]]]}},{"type":"Feature","properties":{"N03_001":"埼玉県","N03_002":null,"N03_003":null,"N03_004":"蓮田市","N03_007":"11238"},"geometry":{"type":"Polygon","coordinates":[[[-38.419689573337216,76.64106738557814],[-38.39722859781028,76.64074619404838],[-38.390559438912625,76.64113372216376],[-38.40495427781556,76.6407779466408],[-38.43932514856587,76.6474395065448],[-38.46070460212674,76.6468303600406],[-38.469770814306884,76.64610313912173],[-38.465963032509045,76.64605519820567],[-38.446061483612816,76.64438340847046],[-38.43385590910374,76.64178419010824],[-38.42709669408277,76.64134471145152],[-38.419689573337216,76.64106738557814]]]}},{"type":"Feature","properties":{"N03_001":"埼玉県","N03_002":null,"N03_003":null,"N03_004":"坂戸市","N03_007":"11239"},"geometry":{"type":"Polygon","coordinates":[[[-38.55500847953862,76.63760332241631],[-38.5757627269401,76.6415724322379],[-38.60883881924652,76.64069955671378],[-38.63110401493697,76.63854358375586],[-38.62908230471183,76.63772781115567],[-38.65625256739275,76.6350831618852],[-38.63522137918969,76.63641656067034],[-38.60166543051839,76.63956400068598],[-38.574130486241785,76.63823553094242],[-38.56701287608531,76.63684441803314],[-38.55500847953862,76.63760332241631]]]}},{"type":"Feature","properties":{"N03_001":"埼玉県","N03_002":null,"N03_003":null,"N03_004":"幸手市","N03_007":"11240"},"geometry":{"type":"Polygon","coordinates":[[[-38.38850592541971,76.64808746097324],[-38.416264343520695,76.64811976766548],[-38.40404576646227,76.64768717773921],[-38.364856333596975,76.64319380278769],[-38.357473866307174,76.64387666936167],[-38.3417293231407,76.64310547596227],[-38.33734468284337,76.64404988947659],[-38.347528377706524,76.64618310912749],[-38.35190258200262,76.64585655882662],[-38.38702174614161,76.64791193746093],[-38.38850592541971,76.64808746097324]]]}},{"type":"Feature","properties":{"N03_001":"埼玉県","N03_002":null,"N03_003":null,"N03_004":"鶴ヶ島市","N03_007":"11241"},"geometry":{"type":"Polygon","coordinates":[[[-38.574130486241785,76.63823553094242],[-38.60166543051839,76.63956400068598],[-38.63522137918969,76.63641656067034],[-38.61306394197273,76.6349679824675],[-38.57855657970832,76.63551115008221],[-38.569239513775756,76.63666021639798],[-38.574130486241785,76.63823553094242]]]}},{"type":"Feature","properties":{"N03_001":"埼玉県","N03_002":null,"N03_003":null,"N03_004":"日高市","N03_007":"11242"},"geometry":{"type":"Polygon","coordinates":[[[-38.61306394197273,76.6349679824675],[-38.63522137918969,76.63641656067034],[-38.65625256739275,76.6350831618852],[-38.67821344483687,76.63448328352312],[-38.677990128750935,76.63498175205889],[-38.67222470950973,76.63503243800723],[-38.659550388602625,76.6343296867027],[-38.61435325742827,76.63298950545123],[-38.594716602216224,76.63433025838405],[-38.61306394197273,76.6349679824675]]]}},{"type":"Feature","properties":{"N03_001":"埼玉県","N03_002":null,"N03_003":null,"N03_004":"吉川市","N03_007":"11243"},"geometry":{"type":"Polygon","coordinates":[[[-38.303055819822326,76.6324478117293],[-38.26165597625459,76.63219531084268],[-38.2804644141637,76.63681300315382],[-38.29971784464328,76.63785297476409],[-38.309288090831835,76.63634583567197],[-38.304878317477495,76.63288524154247],[-38.303055819822326,76.6324478117293]]]}},{"type":"Feature","properties":{"N03_001":"埼玉県","N03_002":null,"N03_003":null,"N03_004":"ふじみ野市","N03_007":"11245"},"geometry":{"type":"Polygon","coordinates":[[[-38.55441422746276,76.62879078546366],[-38.527187247273986,76.62886601724338],[-38.53214947444366,76.63553191432268],[-38.51970230323194,76.63634710407057],[-38.541015646051804,76.63732359329455],[-38.56715720092413,76.63173770293069],[-38.55441422746276,76.62879078546366]]]}},{"type":"Feature","properties":{"N03_001":"埼玉県","N03_002":null,"N03_003":null,"N03_004":"白岡市","N03_007":"11246"},"geometry":{"type":"Polygon","coordinates":[[[-38.38035808743414,76.64124547871546],[-38.37672330681285,76.64167316086903],[-38.41475018831443,76.64807724924047],[-38.46070460212674,76.6468303600406],[-38.43932514856587,76.6474395065448],[-38.40495427781556,76.6407779466408],[-38.390559438912625,76.64113372216376],[-38.38035808743414,76.64124547871546]]]}}]}