{"type":"FeatureCollection","features":[{"type":"Feature","properties":{"N03_001":"福井県","N03_002":null,"N03_003":null,"N03_004":"福井市","N03_007":"18201"},"geometry":{"type":"Polygon","coordinates":[[[-40.310609113007956,76.63787497262383],[-40.331299826560176,76.63788207682471],[-40.356702322498585,76.63753975748297],[-40.36506992650497,76.6374391511415],[-40.3826851910246,76.64122079042075],[-40.41360055294618,76.64467291804522],[-40.415257521736436,76.6433842087469],[-40.43401100800527,76.64270623614154],[-40.443277121226345,76.64183416526635],[-40.45731449048991,76.6393588899696],[-40.48538854059024,76.63762310196037],[-40.463799798906884,76.63729592867188],[-40.4452899481026,76.63808666049343],[-40.42318933649468,76.63958226741103],[-40.40157387188402,76.64003182171446],[-40.37550890825829,76.64152324144577],[-40.366618798986856,76.64208517838163],[-40.34447027307126,76.64308785186357],[-40.3102093205146,76.64243419901726],[-40.26751241034617,76.6371302056676],[-40.25466624721493,76.63367038148164],[-40.24263997051185,76.63438145950244],[-40.21232172261913,76.6333502084902],[-40.174909797519945,76.63225732728566],[-40.17361185191578,76.63218163573227],[-40.18855032551633,76.63295673487838],[-40.18988760608423,76.63382048244257],[-40.21231420916711,76.63630218994047],[-40.243695232006594,76.63780648389006],[-40.25408335163361,76.63800723624453],[-40.27907973257558,76.63874622512874],[-40.2886328919207,76.63941524746613],[-40.299684560298715,76.63935281104126],[-40.29892237876061,76.6384521856533],[-40.310609113007956,76.63787497262383]]]}},{"type":"Feature","properties":{"N03_001":"福井県","N03_002":null,"N03_003":null,"N03_004":"敦賀市","N03_007":"18202"},"geometry":{"type":"Polygon","coordinates":[[[-40.37523541449458,76.62272964961208],[-40.37532107887815,76.6227478467463],[-40.39945217951892,76.62570176963479],[-40.40812289240506,76.625749583777],[-40.407310086575414,76.62418977660407],[-40.41940533763286,76.62329666863198],[-40.423347070149774,76.62070056845543],[-40.43788565002659,76.62054281034204],[-40.45161075887754,76.6219229465371],[-40.44260046310155,76.6230184923572],[-40.448327663506184,76.62537593354934],[-40.45436592538495,76.62585098500328],[-40.47691315149401,76.6244113343133],[-40.4863717228908,76.6242447403707],[-40.46301368814459,76.62430913116764],[-40.45981338405259,76.62108401414143],[-40.46866552665157,76.62029387199843],[-40.46218759122477,76.61903728780715],[-40.46131838068122,76.61637145807038],[-40.451393702212435,76.61626254375098],[-40.449788269445314,76.6135378338522],[-40.42505321139061,76.61333410574977],[-40.41682014030184,76.61397347925259],[-40.4038286735038,76.61350259413656],[-40.398686967788876,76.61552919523884],[-40.36687373695967,76.61639792444903],[-40.36020225429854,76.61713027769302],[-40.37613544788877,76.62093581118513],[-40.38434650186217,76.62136044239935],[-40.37523541449458,76.62272964961208]]]}},{"type":"Feature","properties":{"N03_001":"福井県","N03_002":null,"N03_003":null,"N03_004":"小浜市","N03_007":"18204"},"geometry":{"type":"Polygon","coordinates":[[[-40.56989340136397,76.61652359777956],[-40.55802876029821,76.61468054118143],[-40.584101996489956,76.61490108867655],[-40.60264902847582,76.6155502149913],[-40.616530623498974,76.61669232370922],[-40.62878097306828,76.61658420052507],[-40.64401833801579,76.61551115748817],[-40.60685943970535,76.61507022511402],[-40.61587249660195,76.61240356625626],[-40.64518780077005,76.61204465665277],[-40.663395417586266,76.61221507798662],[-40.67164082980955,76.6113069273733],[-40.67047253524611,76.60953498155814],[-40.701716438238975,76.60856612138075],[-40.686911580458364,76.60764177408444],[-40.6781311150397,76.60823209969988],[-40.65893299873665,76.6071180709833],[-40.6501824411364,76.60738969722392],[-40.63105550128591,76.6066302763271],[-40.60446687303931,76.60672886632312],[-40.58324493589982,76.6056360636292],[-40.57044129454555,76.6068334130921],[-40.54651458035924,76.60732309319327],[-40.54254336821162,76.60849857589712],[-40.563800832611996,76.60944126360906],[-40.569729085609005,76.61050083657729],[-40.549833868475,76.61182861768754],[-40.55264652412277,76.61527404280648],[-40.56989340136397,76.61652359777956]]]}},{"type":"Feature","properties":{"N03_001":"福井県","N03_002":null,"N03_003":null,"N03_004":"大野市","N03_007":"18205"},"geometry":{"type":"Polygon","coordinates":[[[-40.09721532564224,76.63476758045181],[-40.11830732203787,76.63163422839007],[-40.143621594820225,76.63148712529889],[-40.15197539855896,76.63152126483466],[-40.184104439280794,76.6338659411466],[-40.18988760608423,76.63382048244257],[-40.18855032551633,76.63295673487838],[-40.17361185191578,76.63218163573227],[-40.174909797519945,76.63225732728566],[-40.190022915524104,76.6323054799354],[-40.18588889335306,76.63228726491197],[-40.20363133690178,76.63082272430078],[-40.203753420619705,76.6295789002246],[-40.21493974701569,76.62845239307913],[-40.18878538299396,76.62944647301649],[-40.16314760647067,76.62996175201827],[-40.1525223229512,76.63243532312515],[-40.13435046379542,76.632757895122],[-40.12410601383979,76.63303534956417],[-40.11969717526026,76.63305755273602],[-40.104797456143835,76.63305838060494],[-40.09966276480911,76.63296464263546],[-40.08285220690517,76.63271161055222],[-40.077961322355094,76.63283825567942],[-40.06398032308221,76.63223743370953],[-40.040548773329306,76.63042243629918],[-40.03902233928213,76.63173310878803],[-40.01962785016198,76.63147232423702],[-40.03557353241125,76.63255092493314],[-40.055148574453426,76.6324332465083],[-40.0512346860064,76.63251465593147],[-40.06772654651123,76.63219752675447],[-40.06754275498385,76.63222514058081],[-40.07662289570003,76.6320082263781],[-40.06431287988279,76.63487165374436],[-40.04620217816665,76.63706203400379],[-40.049555385427304,76.63811795256363],[-40.069712593381716,76.63709531494764],[-40.090689100825585,76.63484546266426],[-40.09721532564224,76.63476758045181]]]}},{"type":"Feature","properties":{"N03_001":"福井県","N03_002":null,"N03_003":null,"N03_004":"勝山市","N03_007":"18206"},"geometry":{"type":"Polygon","coordinates":[[[-40.21173852359737,76.6418542762614],[-40.237915276039054,76.64052001747622],[-40.23325434820795,76.63934634428449],[-40.21298641917778,76.6379767451602],[-40.21231420916711,76.63630218994047],[-40.18988760608423,76.63382048244257],[-40.184104439280794,76.6338659411466],[-40.15197539855896,76.63152126483466],[-40.143621594820225,76.63148712529889],[-40.11830732203787,76.63163422839007],[-40.09721532564224,76.63476758045181],[-40.10263824223704,76.63761552815663],[-40.115097247339186,76.63863604081043],[-40.121278057723714,76.6405195752941],[-40.150047395880875,76.64298767394834],[-40.172183296757694,76.64263337195673],[-40.18355416582973,76.64339000295578],[-40.19887872694046,76.64206779914767],[-40.21173852359737,76.6418542762614]]]}},{"type":"Feature","properties":{"N03_001":"福井県","N03_002":null,"N03_003":null,"N03_004":"鯖江市","N03_007":"18207"},"geometry":{"type":"Polygon","coordinates":[[[-40.37550890825829,76.64152324144577],[-40.40251767681139,76.63638023103516],[-40.39934130037173,76.63537102627512],[-40.3197136055728,76.62965104669316],[-40.28981163931203,76.63477462230902],[-40.267359005482604,76.63514941020743],[-40.25466624721493,76.63367038148164],[-40.26751241034617,76.6371302056676],[-40.3102093205146,76.64243419901726],[-40.34447027307126,76.64308785186357],[-40.366618798986856,76.64208517838163],[-40.37550890825829,76.64152324144577]]]}},{"type":"Feature","properties":{"N03_001":"福井県","N03_002":null,"N03_003":null,"N03_004":"あわら市","N03_007":"18208"},"geometry":{"type":"Polygon","coordinates":[[[-40.3700905941535,76.65116835740041],[-40.367103117319466,76.64958962511946],[-40.37793733111107,76.64835318326388],[-40.37763923765471,76.64549848600878],[-40.360969358130426,76.64449679094058],[-40.29840819375018,76.64007650092388],[-40.26496601430574,76.64653053509073],[-40.26679358758449,76.64884517639138],[-40.28713176046432,76.65147358707026],[-40.31174069178913,76.65272546122767],[-40.32785692278827,76.65367993506148],[-40.3700905941535,76.65116835740041]]]}},{"type":"Feature","properties":{"N03_001":"福井県","N03_002":null,"N03_003":null,"N03_004":"越前市","N03_007":"18209"},"geometry":{"type":"Polygon","coordinates":[[[-40.39934130037173,76.63537102627512],[-40.40199340864012,76.63342211598217],[-40.42086005687186,76.63430554613741],[-40.44109453846128,76.63377371209933],[-40.45606035255138,76.63241590252663],[-40.45617975154745,76.63155120500046],[-40.435854832741,76.62985121857383],[-40.394213704387006,76.62877608550731],[-40.38749799779623,76.62737023753579],[-40.35990308647759,76.62847081062884],[-40.33008175731574,76.62822889378714],[-40.30848926134394,76.62813609949139],[-40.26826227194443,76.63104987779586],[-40.25466624721493,76.63367038148164],[-40.267359005482604,76.63514941020743],[-40.28981163931203,76.63477462230902],[-40.3197136055728,76.62965104669316],[-40.39934130037173,76.63537102627512]]]}},{"type":"Feature","properties":{"N03_001":"福井県","N03_002":null,"N03_003":null,"N03_004":"坂井市","N03_007":"18210"},"geometry":{"type":"Polygon","coordinates":[[[-40.26496601430574,76.64653053509073],[-40.29840819375018,76.64007650092388],[-40.360969358130426,76.64449679094058],[-40.37763923765471,76.64549848600878],[-40.37793733111107,76.64835318326388],[-40.367103117319466,76.64958962511946],[-40.3700905941535,76.65116835740041],[-40.40205121201267,76.65002335703409],[-40.398799799186236,76.64757892042769],[-40.41360055294618,76.64467291804522],[-40.3826851910246,76.64122079042075],[-40.36506992650497,76.6374391511415],[-40.356702322498585,76.63753975748297],[-40.331299826560176,76.63788207682471],[-40.310609113007956,76.63787497262383],[-40.30376427834989,76.63707784782164],[-40.28769037949589,76.63746180670574],[-40.237915276039054,76.64052001747622],[-40.21173852359737,76.6418542762614],[-40.22649917128587,76.64399504721447],[-40.23577663263812,76.64352640869164],[-40.25703397156422,76.64351501668692],[-40.26496601430574,76.64653053509073]]]}}]}