{"type":"FeatureCollection","features":[{"type":"Feature","properties":{"N03_001":"山形県","N03_002":null,"N03_003":null,"N03_004":"鶴岡市","N03_007":"06203"},"geometry":{"type":"Polygon","coordinates":[[[-38.32116261729687,76.78105304550017],[-38.3497567110998,76.77854470320669],[-38.35540294736718,76.77557053682135],[-38.36754839909561,76.7733204957768],[-38.36935941974432,76.77269963519132],[-38.40014962835194,76.77336309381947],[-38.43862291245226,76.77385704252572],[-38.40672449195121,76.77486386403756],[-38.38973961124471,76.77540594673864],[-38.373410664733505,76.77550240033146],[-38.36486720579318,76.77561965998794],[-38.36731794785193,76.77606946178217],[-38.36496662822372,76.77632846689693],[-38.37611629755906,76.77384844573724],[-38.370960497252696,76.77038521848188],[-38.34799993586443,76.76870490603719],[-38.336233203805286,76.76964008769083],[-38.30959511420565,76.76552028872557],[-38.30072560994974,76.76663725402211],[-38.29340497194884,76.76985117680796],[-38.30123081187636,76.77535823617646],[-38.29624461715527,76.77625022973899],[-38.300022043210085,76.77647600333647],[-38.29621858970258,76.77583214867006],[-38.27433732396755,76.77566325013073],[-38.26621246164411,76.77563054558394],[-38.268489985663486,76.77515935644466],[-38.27826108988872,76.77473310171261],[-38.27549185422408,76.77447545889513],[-38.27910318806707,76.77414849777185],[-38.271464571700406,76.7751898554292],[-38.25777418594283,76.77764200517234],[-38.255075760774226,76.77940661789262],[-38.27377687272914,76.77926133982999],[-38.28738761796983,76.78315335806543],[-38.297991543854415,76.78325855614705],[-38.301586610229904,76.78184246231135],[-38.29676521162171,76.77938936432751],[-38.31062261601399,76.7749328770668],[-38.32583178190327,76.77825236611459],[-38.32116261729687,76.78105304550017]]]}},{"type":"Feature","properties":{"N03_001":"山形県","N03_002":null,"N03_003":null,"N03_004":"山形市","N03_007":"06201"},"geometry":{"type":"Polygon","coordinates":[[[-37.91011169363972,76.75853705164633],[-37.91340199102064,76.75857503602444],[-37.93851514586582,76.75639630574955],[-37.95117112071093,76.75562524382035],[-37.97957846611241,76.75265703966775],[-38.05124949541413,76.75575531332537],[-38.0648996135767,76.75780518229057],[-38.07633189326154,76.75665938355813],[-38.07573181100238,76.75535929981736],[-38.09058307369439,76.75564928902833],[-38.118820034888664,76.75676459736256],[-38.11238320779651,76.75568624541597],[-38.13199990987812,76.75536639118086],[-38.12845080727691,76.75525068511502],[-38.110983904305535,76.75439549890217],[-38.0915744763851,76.75390540352316],[-38.083236888099094,76.7526521262676],[-38.04842852819872,76.75239145774547],[-38.0424291972813,76.75144930561666],[-38.00691799655554,76.74979850929009],[-37.96230625018346,76.74793016505225],[-37.95144986309328,76.74853114209263],[-37.94501816111512,76.74977142037108],[-37.95220609997548,76.75168741620931],[-37.949552799177155,76.75246613321501],[-37.947859199797826,76.75309734183743],[-37.93159505703486,76.75400713352325],[-37.93176921484399,76.75486891319818],[-37.915062362930136,76.75587524011775],[-37.90774738257082,76.75704352103004],[-37.91011169363972,76.75853705164633]]]}},{"type":"Feature","properties":{"N03_001":"山形県","N03_002":null,"N03_003":null,"N03_004":"米沢市","N03_007":"06202"},"geometry":{"type":"Polygon","coordinates":[[[-38.07765881666808,76.7339514392306],[-38.100774661157175,76.73334372884851],[-38.11163309087692,76.7326896671555],[-38.12032084302584,76.73277032449654],[-38.12370950799696,76.73345801236427],[-38.13528421834868,76.73355021095745],[-38.13695979253529,76.73441247201235],[-38.16313450515596,76.73520087090692],[-38.18651158888346,76.73542655956216],[-38.201467404895425,76.73448547249232],[-38.199426643860434,76.73370858181445],[-38.212836190578706,76.73337765125837],[-38.22826543312323,76.73374750532453],[-38.245777057445046,76.73343979036214],[-38.252038810728976,76.733243618714],[-38.25177712625063,76.73182616373568],[-38.23874129021234,76.7313477929491],[-38.237796132367436,76.73065951146907],[-38.220174997365746,76.72939350571153],[-38.19503804458869,76.73023646399072],[-38.171190190246875,76.72997575571112],[-38.16370413192915,76.72923084911066],[-38.15144008401927,76.72899665285418],[-38.14277225443173,76.7297261439748],[-38.13021437335529,76.72972076097882],[-38.09378549922563,76.72836594950701],[-38.06989828067065,76.730081595738],[-38.059864085732144,76.7303432314718],[-38.08421467487712,76.73138457372602],[-38.07847212220596,76.7325059176973],[-38.07765881666808,76.7339514392306]]]}},{"type":"Feature","properties":{"N03_001":"山形県","N03_002":null,"N03_003":null,"N03_004":"酒田市","N03_007":"06204"},"geometry":{"type":"Polygon","coordinates":[[[-38.32116261729687,76.78105304550017],[-38.30008953292295,76.78333823304331],[-38.293560714273866,76.7858950100789],[-38.26337919359719,76.78716983426352],[-38.25990238999563,76.78622796363884],[-38.23516441781685,76.78447162077184],[-38.23067834071055,76.78320667230436],[-38.20411425159194,76.78560464113541],[-38.20726470560699,76.78668621229346],[-38.18658973292182,76.78693908313205],[-38.20181359748136,76.78797921118692],[-38.198813655870666,76.78855441993397],[-38.18531004916498,76.78897118715511],[-38.18251809192343,76.79004061089233],[-38.16261214220502,76.79182121241982],[-38.182708106753545,76.79141761307956],[-38.17421636249733,76.79369108869373],[-38.15057754874789,76.79583494864447],[-38.17435608751087,76.79707411399198],[-38.19521173990684,76.79717047616273],[-38.20865346853985,76.79518685727628],[-38.22679793067929,76.79086505246421],[-38.2375278562792,76.79069881417246],[-38.26500031831893,76.78999548963709],[-38.2844737404174,76.7902449997831],[-38.28844635270185,76.78961724956265],[-38.301295456500405,76.78990791941612],[-38.31660201543089,76.7880595057775],[-38.34152660957313,76.7817580747759],[-38.3497567110998,76.77854470320669],[-38.32116261729687,76.78105304550017]]]}},{"type":"Feature","properties":{"N03_001":"山形県","N03_002":null,"N03_003":null,"N03_004":"新庄市","N03_007":"06205"},"geometry":{"type":"Polygon","coordinates":[[[-37.94867905013143,76.7914279924582],[-38.00034146551481,76.79046991454906],[-38.00940862098875,76.79001855293834],[-38.079263628241925,76.78988791685894],[-38.08140722591747,76.78943632383448],[-38.066207647513856,76.78915388334532],[-38.10550165308884,76.78568099229001],[-38.100840727046794,76.78468850146439],[-38.1312990929936,76.7841115402967],[-38.14229952454602,76.7817782164832],[-38.12279199192382,76.78215908328244],[-38.1052271389449,76.78180958501768],[-38.10230953000477,76.7811776696732],[-38.073825466258,76.7809699101367],[-38.066259747763084,76.78111389433745],[-38.006519583732334,76.78292267022069],[-37.9819719513426,76.786172416772],[-37.9860131817713,76.78677757688395],[-37.97043847563527,76.78882366095627],[-37.951408893460936,76.78957049749228],[-37.94740659143454,76.79126734463847],[-37.94867905013143,76.7914279924582]]]}},{"type":"Feature","properties":{"N03_001":"山形県","N03_002":null,"N03_003":null,"N03_004":"寒河江市","N03_007":"06206"},"geometry":{"type":"Polygon","coordinates":[[[-38.14547948237846,76.77621174440856],[-38.165140287590276,76.77593911391666],[-38.185483365335024,76.77497388124179],[-38.16553981273159,76.77427849817758],[-38.173726383173246,76.77301391246098],[-38.15285869078548,76.76872031841842],[-38.1651725207525,76.763427049787],[-38.13934656188212,76.76100120323966],[-38.117631340874446,76.75929751737256],[-38.118152722023304,76.75896342610955],[-38.10067165300662,76.75886028022374],[-38.067911837371064,76.75820569242086],[-38.05997035913968,76.76111547552566],[-38.07209355162549,76.76180441190894],[-38.091226748654115,76.76559905889505],[-38.10598169634927,76.77391479158364],[-38.12625872275452,76.77596865577928],[-38.14547948237846,76.77621174440856]]]}},{"type":"Feature","properties":{"N03_001":"山形県","N03_002":null,"N03_003":null,"N03_004":"上山市","N03_007":"06207"},"geometry":{"type":"Polygon","coordinates":[[[-37.96230625018346,76.74793016505225],[-38.00691799655554,76.74979850929009],[-38.0424291972813,76.75144930561666],[-38.04842852819872,76.75239145774547],[-38.083236888099094,76.7526521262676],[-38.0915744763851,76.75390540352316],[-38.110983904305535,76.75439549890217],[-38.12845080727691,76.75525068511502],[-38.113886488166024,76.7535451545955],[-38.099192649334896,76.746256266798],[-38.08448510537802,76.74179133980043],[-38.06264185043676,76.74023149856399],[-38.02177595863119,76.74089017148064],[-38.00362762067462,76.74163698865551],[-37.978454662916405,76.74363850567862],[-37.9775594934986,76.74515767115479],[-37.96275395298292,76.74700849874226],[-37.96295180574347,76.74786979546208],[-37.96230625018346,76.74793016505225]]]}},{"type":"Feature","properties":{"N03_001":"山形県","N03_002":null,"N03_003":null,"N03_004":"村山市","N03_007":"06208"},"geometry":{"type":"Polygon","coordinates":[[[-38.10598169634927,76.77391479158364],[-38.073855820178146,76.77112276530788],[-38.03412715975091,76.7681471623343],[-38.02815629236584,76.76960248332176],[-37.97388342398832,76.77151025492815],[-37.95388828388474,76.77296141244862],[-37.954213539148206,76.77361624548747],[-37.97240127883284,76.77463696433033],[-37.97033271653015,76.77582309588396],[-37.991978965819946,76.77734589937366],[-38.01726772549808,76.77697462884558],[-38.05333380961224,76.77817953403564],[-38.06627120909268,76.77902055711003],[-38.095390082457364,76.7781468858556],[-38.11714536719244,76.77769379654679],[-38.1208280592007,76.77758439673674],[-38.126036728201484,76.77698457465999],[-38.14547948237846,76.77621174440856],[-38.12625872275452,76.77596865577928],[-38.10598169634927,76.77391479158364]]]}},{"type":"Feature","properties":{"N03_001":"山形県","N03_002":null,"N03_003":null,"N03_004":"長井市","N03_007":"06209"},"geometry":{"type":"Polygon","coordinates":[[[-38.19594571765725,76.74121546133343],[-38.18926219909936,76.74205241128305],[-38.175800377619304,76.75025777335709],[-38.205030892041385,76.75146956560475],[-38.20355823693278,76.75265286922144],[-38.22784058452569,76.75486777606888],[-38.25218730338037,76.75554823849988],[-38.27454033582478,76.75768793136476],[-38.27232659932881,76.75890392887206],[-38.2871462806684,76.7599219202134],[-38.29659305112534,76.75788339917627],[-38.30836947025214,76.7565041931028],[-38.30915635327978,76.7540318588481],[-38.29872661572437,76.7474848278484],[-38.26305262809265,76.74414699027177],[-38.24428805093193,76.74427255440173],[-38.22523508526491,76.74280708848134],[-38.21530767670666,76.74040785362692],[-38.19594571765725,76.74121546133343]]]}},{"type":"Feature","properties":{"N03_001":"山形県","N03_002":null,"N03_003":null,"N03_004":"天童市","N03_007":"06210"},"geometry":{"type":"Polygon","coordinates":[[[-37.91340199102064,76.75857503602444],[-37.92068869351676,76.7583972724626],[-37.97475950639824,76.7667253977637],[-37.99977269011107,76.76580995958864],[-38.048702253622544,76.76427462022782],[-38.05997035913968,76.76111547552566],[-38.067911837371064,76.75820569242086],[-38.0648996135767,76.75780518229057],[-38.05124949541413,76.75575531332537],[-37.97957846611241,76.75265703966775],[-37.95117112071093,76.75562524382035],[-37.93851514586582,76.75639630574955],[-37.91340199102064,76.75857503602444]]]}},{"type":"Feature","properties":{"N03_001":"山形県","N03_002":null,"N03_003":null,"N03_004":"東根市","N03_007":"06211"},"geometry":{"type":"Polygon","coordinates":[[[-37.87515312632533,76.76661837923119],[-37.892593170794335,76.768756351961],[-37.90558262552536,76.76919850580279],[-37.91801909435308,76.77171790555661],[-37.95388828388474,76.77296141244862],[-37.97388342398832,76.77151025492815],[-38.02815629236584,76.76960248332176],[-38.03412715975091,76.7681471623343],[-38.03637506472915,76.76690584799958],[-38.048702253622544,76.76427462022782],[-37.99977269011107,76.76580995958864],[-37.97475950639824,76.7667253977637],[-37.92068869351676,76.7583972724626],[-37.91340199102064,76.75857503602444],[-37.91011169363972,76.75853705164633],[-37.88661673979183,76.76122148600417],[-37.88102521160424,76.7644969230933],[-37.87515312632533,76.76661837923119]]]}},{"type":"Feature","properties":{"N03_001":"山形県","N03_002":null,"N03_003":null,"N03_004":"尾花沢市","N03_007":"06212"},"geometry":{"type":"Polygon","coordinates":[[[-37.991978965819946,76.77734589937366],[-37.97033271653015,76.77582309588396],[-37.97240127883284,76.77463696433033],[-37.954213539148206,76.77361624548747],[-37.95388828388474,76.77296141244862],[-37.91801909435308,76.77171790555661],[-37.90558262552536,76.76919850580279],[-37.892593170794335,76.768756351961],[-37.87515312632533,76.76661837923119],[-37.85922247396744,76.76736723157042],[-37.85906302011287,76.7673999598475],[-37.873066511109066,76.76994241726204],[-37.88677714539295,76.77087703783465],[-37.902891588326206,76.77383492027793],[-37.89097448955166,76.77478247839815],[-37.89777622493341,76.7760630902153],[-37.91768788714235,76.77799891427786],[-37.91319825199331,76.77858740988161],[-37.9179838039592,76.78020733751865],[-37.93790899141759,76.78082244990883],[-37.95757345187802,76.78086103575603],[-37.96434301340003,76.78197313359833],[-37.9856286053108,76.78113051734923],[-38.00120589945255,76.78099171766266],[-38.01999025327385,76.78046766267695],[-38.05622614975878,76.78043727498613],[-38.06317821519685,76.77993546191115],[-38.02462468973488,76.7796018727366],[-38.00762277331812,76.77843485928514],[-37.991978965819946,76.77734589937366]]]}},{"type":"Feature","properties":{"N03_001":"山形県","N03_002":null,"N03_003":null,"N03_004":"南陽市","N03_007":"06213"},"geometry":{"type":"Polygon","coordinates":[[[-38.13199990987812,76.75536639118086],[-38.13638203947194,76.75545573591464],[-38.14987425372638,76.75402978389272],[-38.175800377619304,76.75025777335709],[-38.18926219909936,76.74205241128305],[-38.19594571765725,76.74121546133343],[-38.157392185946485,76.7374530194204],[-38.13801424399765,76.73711176046257],[-38.08448510537802,76.74179133980043],[-38.099192649334896,76.746256266798],[-38.113886488166024,76.7535451545955],[-38.12845080727691,76.75525068511502],[-38.13199990987812,76.75536639118086]]]}}]}