{"type":"FeatureCollection","features":[{"type":"Feature","properties":{"N03_001":"静岡県","N03_002":null,"N03_003":"静岡市","N03_004":"葵区","N03_007":"22101"},"geometry":{"type":"Polygon","coordinates":[[[-39.225430830494155,76.61283095818476],[-39.24217436832377,76.60832178538008],[-39.22161329311325,76.61101076480352],[-39.21223870870835,76.60660465901627],[-39.20994475478068,76.60398568341604],[-39.19753031069981,76.60632835046978],[-39.16909680023167,76.6029233428012],[-39.14027892333405,76.60420470565558],[-39.13917727694515,76.60502601374057],[-39.16654984162482,76.61222086295152],[-39.16594889090136,76.6117249478723],[-39.17687731474451,76.61080645553629],[-39.17594963224792,76.60620003120789],[-39.17810100493667,76.60415017139071],[-39.18211692834141,76.60310130107196],[-39.18056642753316,76.60188869132769],[-39.189051368111,76.60079284430549],[-39.19908129364028,76.60123891288856],[-39.20231129447342,76.60172200626722],[-39.21089104997207,76.60124411583736],[-39.212217930141556,76.59932603202948],[-39.21713216752682,76.59893925824437],[-39.209770592245256,76.5976410145648],[-39.208977731095736,76.59680528078145],[-39.21238427687327,76.5960478187223],[-39.208424983326246,76.59552280393753],[-39.20514790749914,76.6031267771442],[-39.211086333648645,76.60437945640008],[-39.218057564432314,76.61051004234822],[-39.2180050912221,76.61201614547662],[-39.22273160063126,76.611900829451],[-39.229979008430035,76.61094780018847],[-39.228405526410725,76.60894168214921],[-39.23710715100854,76.60573682041579],[-39.251615005032264,76.60592913179791],[-39.24556710095699,76.60300277662108],[-39.25065395194566,76.60069932978335],[-39.24253684597411,76.59701957825696],[-39.23535953732179,76.59602933179423],[-39.2343219681035,76.59593318145062],[-39.24369996251642,76.5962365148225],[-39.243110789607584,76.59679229335997],[-39.23584841621891,76.59770654299692],[-39.23856077131758,76.59875312109038],[-39.24447864528263,76.59893134564057],[-39.25066384984959,76.60002941227623],[-39.25161302450985,76.60058082802972],[-39.23931415772988,76.60234687022799],[-39.23731817281501,76.60356389902873],[-39.23026141916762,76.60339778815842],[-39.22456093393154,76.60426081079333],[-39.22857339982425,76.60617768802364],[-39.219250443908074,76.60603909791712],[-39.21531640488907,76.6071774161613],[-39.22220627521714,76.60865221629966],[-39.22822650254642,76.60907942574191],[-39.22711812471518,76.61108670817204],[-39.22238770864737,76.6121160014517],[-39.225430830494155,76.61283095818476]]]}},{"type":"Feature","properties":{"N03_001":"静岡県","N03_002":null,"N03_003":"静岡市","N03_004":"駿河区","N03_007":"22102"},"geometry":{"type":"Polygon","coordinates":[[[-39.20994475478068,76.60398568341604],[-39.195032971794184,76.59860052141164],[-39.16316811852304,76.59379703274477],[-39.16343338174593,76.59381881430342],[-39.116210608089645,76.59428408451951],[-39.091034577013374,76.59604267578945],[-39.13917727694515,76.60502601374057],[-39.14027892333405,76.60420470565558],[-39.16909680023167,76.6029233428012],[-39.19753031069981,76.60632835046978],[-39.20994475478068,76.60398568341604]]]}},{"type":"Feature","properties":{"N03_001":"静岡県","N03_002":null,"N03_003":"静岡市","N03_004":"清水区","N03_007":"22103"},"geometry":{"type":"Polygon","coordinates":[[[-39.17594963224792,76.60620003120789],[-39.17687731474451,76.61080645553629],[-39.16594889090136,76.6117249478723],[-39.16654984162482,76.61222086295152],[-39.13917727694515,76.60502601374057],[-39.091034577013374,76.59604267578945],[-39.078371880811176,76.59644558729582],[-39.07234109045427,76.59837542214528],[-39.089398195616404,76.59954817359262],[-39.09727783269216,76.60114882916437],[-39.08478912226647,76.60075432895512],[-39.07868678629151,76.60345357218166],[-39.06442986720681,76.60290108427105],[-39.029064744432205,76.60093923023638],[-39.05642810153584,76.60352957855929],[-39.0989430648417,76.60646875967886],[-39.122870110835514,76.60766655736909],[-39.14241197772085,76.60744018857537],[-39.14128716801483,76.60681470188625],[-39.15249485462531,76.60793101181103],[-39.161124900086065,76.607321972443],[-39.1685775314957,76.60718453387116],[-39.17594963224792,76.60620003120789]]]}},{"type":"Feature","properties":{"N03_001":"静岡県","N03_002":null,"N03_003":"浜松市","N03_004":"中区","N03_007":"22131"},"geometry":{"type":"Polygon","coordinates":[[[-39.50185727893248,76.58939417242135],[-39.51914312807304,76.59019398297544],[-39.52783085355539,76.5896402482342],[-39.52149065251553,76.58850492768448],[-39.53137166296084,76.58335212490951],[-39.52982563350473,76.5728769200408],[-39.52388637968029,76.57148087505212],[-39.463232858864494,76.57934187376772],[-39.47883270969304,76.58430077596832],[-39.50185727893248,76.58939417242135]]]}},{"type":"Feature","properties":{"N03_001":"静岡県","N03_002":null,"N03_003":"浜松市","N03_004":"東区","N03_007":"22132"},"geometry":{"type":"Polygon","coordinates":[[[-39.463232858864494,76.57934187376772],[-39.43369171873397,76.57842085221301],[-39.41298400813859,76.59039661491938],[-39.465236961326006,76.59125019404857],[-39.498941809266114,76.59069399378518],[-39.50185727893248,76.58939417242135],[-39.47883270969304,76.58430077596832],[-39.463232858864494,76.57934187376772]]]}},{"type":"Feature","properties":{"N03_001":"静岡県","N03_002":null,"N03_003":"浜松市","N03_004":"西区","N03_007":"22133"},"geometry":{"type":"Polygon","coordinates":[[[-39.51914312807304,76.59019398297544],[-39.52730392322172,76.58991275418413],[-39.54312175168385,76.58907327214057],[-39.55622143373644,76.58865429976412],[-39.57667093284398,76.58684978466798],[-39.59207349743092,76.5835372897606],[-39.58880824776621,76.57417082693752],[-39.57979202607023,76.57144060070341],[-39.53980751544984,76.57035159201797],[-39.54078888534099,76.57282708664656],[-39.52982563350473,76.5728769200408],[-39.53137166296084,76.58335212490951],[-39.52149065251553,76.58850492768448],[-39.52783085355539,76.5896402482342],[-39.51914312807304,76.59019398297544]]]}},{"type":"Feature","properties":{"N03_001":"静岡県","N03_002":null,"N03_003":"浜松市","N03_004":"南区","N03_007":"22134"},"geometry":{"type":"Polygon","coordinates":[[[-39.52982563350473,76.5728769200408],[-39.54078888534099,76.57282708664656],[-39.53980751544984,76.57035159201797],[-39.44027219970316,76.56756676672883],[-39.436895913085834,76.56997193505886],[-39.43369171873397,76.57842085221301],[-39.463232858864494,76.57934187376772],[-39.52388637968029,76.57148087505212],[-39.52982563350473,76.5728769200408]]]}},{"type":"Feature","properties":{"N03_001":"静岡県","N03_002":null,"N03_003":"浜松市","N03_004":"北区","N03_007":"22135"},"geometry":{"type":"Polygon","coordinates":[[[-39.50185727893248,76.58939417242135],[-39.498941809266114,76.59069399378518],[-39.47297313372158,76.59476032034183],[-39.49254824038939,76.59402218572303],[-39.461096548739874,76.59814084129965],[-39.47986401309344,76.5966390316007],[-39.48181425416328,76.59684927772352],[-39.46636033148019,76.5983567205548],[-39.498020812595875,76.59578172049167],[-39.50980287020704,76.59486981617248],[-39.532725656271936,76.59169516852164],[-39.55791156872527,76.5902240988316],[-39.565787863149225,76.5894825590059],[-39.57601561369726,76.58907892695852],[-39.602377017768646,76.58783996085523],[-39.62109626154914,76.58661092244134],[-39.63112549392482,76.5856180105354],[-39.63200411029476,76.58470071709539],[-39.62266163878703,76.58482526109066],[-39.6017286965869,76.58594591981021],[-39.59207349743092,76.5835372897606],[-39.57667093284398,76.58684978466798],[-39.55622143373644,76.58865429976412],[-39.54312175168385,76.58907327214057],[-39.52730392322172,76.58991275418413],[-39.51914312807304,76.59019398297544],[-39.50185727893248,76.58939417242135]]]}},{"type":"Feature","properties":{"N03_001":"静岡県","N03_002":null,"N03_003":"浜松市","N03_004":"浜北区","N03_007":"22136"},"geometry":{"type":"Polygon","coordinates":[[[-39.41298400813859,76.59039661491938],[-39.404625252596205,76.59531505067987],[-39.40938041858119,76.6000247540446],[-39.42910943459642,76.60006895536088],[-39.46383591690622,76.59779856607145],[-39.461096548739874,76.59814084129965],[-39.49254824038939,76.59402218572303],[-39.47297313372158,76.59476032034183],[-39.498941809266114,76.59069399378518],[-39.465236961326006,76.59125019404857],[-39.41298400813859,76.59039661491938]]]}},{"type":"Feature","properties":{"N03_001":"静岡県","N03_002":null,"N03_003":"浜松市","N03_004":"天竜区","N03_007":"22137"},"geometry":{"type":"Polygon","coordinates":[[[-39.46636033148019,76.5983567205548],[-39.48181425416328,76.59684927772352],[-39.47986401309344,76.5966390316007],[-39.461096548739874,76.59814084129965],[-39.46383591690622,76.59779856607145],[-39.42910943459642,76.60006895536088],[-39.40938041858119,76.6000247540446],[-39.39136661581833,76.6022802599507],[-39.37388842806352,76.60342508155105],[-39.37576834852136,76.60374778948967],[-39.36750378075526,76.60329629845211],[-39.34127993226283,76.60273308323741],[-39.33261983134507,76.60229989741235],[-39.33659913190958,76.60158169169098],[-39.327766162486235,76.60145619334808],[-39.32938910498019,76.60065414080836],[-39.3153923815677,76.60061157822341],[-39.33819841931183,76.59806165213641],[-39.335359609946416,76.5976994826174],[-39.2657459189005,76.60526008836469],[-39.263703144357905,76.60478066591325],[-39.27534184490017,76.60352757933745],[-39.26785653341909,76.60168751485116],[-39.280481275384396,76.60143248417691],[-39.31083440636744,76.60022797154807],[-39.34302113026216,76.59841296605738],[-39.355304509702826,76.5966518644764],[-39.36616622015655,76.5961948579911],[-39.37871650112265,76.59513276372556],[-39.39098377401573,76.59509697384695],[-39.40117389829323,76.59594392217065],[-39.398402778040165,76.5969000930972],[-39.4070250612897,76.59729543894923],[-39.40663529585588,76.59791984408616],[-39.413513764620106,76.59796123605776],[-39.41473993110836,76.5985803366169],[-39.42555815597747,76.59911122205227],[-39.44910661423991,76.5992817080267],[-39.46636033148019,76.5983567205548]]]}},{"type":"Feature","properties":{"N03_001":"静岡県","N03_002":null,"N03_003":null,"N03_004":"沼津市","N03_007":"22203"},"geometry":{"type":"Polygon","coordinates":[[[-38.940629341777516,76.60232699015994],[-38.96201201899152,76.60143085631282],[-38.95674175275723,76.60045244269207],[-38.96751538069543,76.59925997127404],[-38.9346060554569,76.59740749650878],[-38.90927529008513,76.59459848875501],[-38.88871681096087,76.59173186434442],[-38.874680162337775,76.5877198063683],[-38.896582861260804,76.58800462231412],[-38.93527636006607,76.59073372829312],[-38.938428315647585,76.58855292508723],[-38.92504875887602,76.58666075618282],[-38.89585322400959,76.5855497768027],[-38.8915217968414,76.58586310882201],[-38.861445586420295,76.58466369144456],[-38.866872003454425,76.59055683431683],[-38.86112614333628,76.5916271073659],[-38.87021456831064,76.59217819766812],[-38.88663678427633,76.59518146206793],[-38.89385042129073,76.5979516868494],[-38.92215445385814,76.60013475110749],[-38.940629341777516,76.60232699015994]]]}},{"type":"Feature","properties":{"N03_001":"静岡県","N03_002":null,"N03_003":null,"N03_004":"熱海市","N03_007":"22205"},"geometry":{"type":"Polygon","coordinates":[[[-38.789121579671026,76.59179658110388],[-38.76743729939832,76.58660479038893],[-38.75903830947652,76.58668656012377],[-38.72327592663901,76.58792186841585],[-38.7389559422517,76.58742856381011],[-38.72815660644554,76.5955465288738],[-38.71505416099074,76.5990021768842],[-38.77338899572475,76.60093302397738],[-38.76652398139635,76.60060814938768],[-38.789121579671026,76.59179658110388]]]}},{"type":"Feature","properties":{"N03_001":"静岡県","N03_002":null,"N03_003":null,"N03_004":"三島市","N03_007":"22206"},"geometry":{"type":"Polygon","coordinates":[[[-38.79269310758426,76.6026282336942],[-38.83064613263551,76.6031795799705],[-38.85699815045941,76.60198669233499],[-38.882116011400974,76.59864140478753],[-38.8787235316207,76.59526746940739],[-38.87021456831064,76.59217819766812],[-38.86112614333628,76.5916271073659],[-38.84594205554148,76.5924273329053],[-38.83566680066655,76.5932039264647],[-38.79543058559213,76.60015592259586],[-38.78439822137384,76.60220114625643],[-38.79269310758426,76.6026282336942]]]}},{"type":"Feature","properties":{"N03_001":"静岡県","N03_002":null,"N03_003":null,"N03_004":"富士宮市","N03_007":"22207"},"geometry":{"type":"Polygon","coordinates":[[[-39.14128716801483,76.60681470188625],[-39.14241197772085,76.60744018857537],[-39.122870110835514,76.60766655736909],[-39.0989430648417,76.60646875967886],[-39.1035415842492,76.60644448242603],[-39.084652474272495,76.60574535947633],[-39.05141147623355,76.60421755666374],[-39.03669374648113,76.60435192223905],[-39.031812962190145,76.60415170248689],[-39.001209198390455,76.60387976716281],[-38.97807876263023,76.60479037482418],[-38.980850800284756,76.60528483292781],[-38.981018175054764,76.60530071177494],[-38.98168635838382,76.6053388947276],[-39.0168588801416,76.60391790326874],[-39.016084313284665,76.60459746327888],[-39.0351934702664,76.60387669391223],[-39.05375704710953,76.60311493397542],[-39.053536946858635,76.60453683669685],[-39.06081859416049,76.60480683001764],[-39.10199450017862,76.60185736283995],[-39.110763160199205,76.60139213048437],[-39.11502643400773,76.60235196508232],[-39.13929868869812,76.60228775196578],[-39.13598514284217,76.60356441451863],[-39.14255029129666,76.6042847057004],[-39.13393437811283,76.60594344348912],[-39.14128716801483,76.60681470188625]]]}},{"type":"Feature","properties":{"N03_001":"静岡県","N03_002":null,"N03_003":null,"N03_004":"伊東市","N03_007":"22208"},"geometry":{"type":"Polygon","coordinates":[[[-38.75903830947652,76.58668656012377],[-38.76455685372562,76.5860863909266],[-38.77723941664577,76.58471800813832],[-38.75553151767357,76.58585173289771],[-38.78537385531719,76.58273025747816],[-38.77121232104766,76.58168721314952],[-38.78481973318127,76.58165824832696],[-38.7440485061291,76.5793373636747],[-38.70857784086572,76.58016075874355],[-38.69347954133712,76.58396823232897],[-38.70592660942602,76.58637201381273],[-38.72325129553035,76.58628867617196],[-38.739123026430946,76.58695822702998],[-38.72327592663901,76.58792186841585],[-38.75903830947652,76.58668656012377]]]}},{"type":"Feature","properties":{"N03_001":"静岡県","N03_002":null,"N03_003":null,"N03_004":"島田市","N03_007":"22209"},"geometry":{"type":"Polygon","coordinates":[[[-39.225430830494155,76.61283095818476],[-39.2285652001264,76.61231296984548],[-39.23878222263832,76.61162977878143],[-39.28590653410113,76.60271708015769],[-39.30171766522633,76.60189014210559],[-39.31693186954288,76.60237693552205],[-39.33261983134507,76.60229989741235],[-39.34127993226283,76.60273308323741],[-39.3386518815421,76.60323199565832],[-39.32075201396739,76.60131054193923],[-39.3135306289833,76.60040533686407],[-39.31644593581747,76.59914847733816],[-39.31512670051476,76.5974759470536],[-39.30649226002552,76.59731342985215],[-39.297928637610084,76.59609988633791],[-39.29763212235258,76.5933428847476],[-39.279953895066434,76.59274019419023],[-39.26903157475299,76.59300281578287],[-39.22307063483618,76.58826437606471],[-39.21280644346035,76.58742605021223],[-39.22907983146818,76.59082936975565],[-39.25905044884844,76.59837586319318],[-39.269767799423555,76.5990838753674],[-39.27424476986073,76.60089323349575],[-39.26628161812786,76.60265662923334],[-39.257596017253626,76.60348665073313],[-39.24217436832377,76.60832178538008],[-39.225430830494155,76.61283095818476]]]}},{"type":"Feature","properties":{"N03_001":"静岡県","N03_002":null,"N03_003":null,"N03_004":"富士市","N03_007":"22210"},"geometry":{"type":"Polygon","coordinates":[[[-39.029064744432205,76.60093923023638],[-38.99212203466293,76.6004591409405],[-38.96751538069543,76.59925997127404],[-38.95674175275723,76.60045244269207],[-38.96201201899152,76.60143085631282],[-38.940629341777516,76.60232699015994],[-38.94052239178342,76.60242389271899],[-38.94744628566491,76.60272479251302],[-38.969529674239055,76.60440091297589],[-38.97246512177421,76.60499808278115],[-38.980850800284756,76.60528483292781],[-38.97807876263023,76.60479037482418],[-39.001209198390455,76.60387976716281],[-39.031812962190145,76.60415170248689],[-39.03669374648113,76.60435192223905],[-39.05141147623355,76.60421755666374],[-39.084652474272495,76.60574535947633],[-39.1035415842492,76.60644448242603],[-39.0989430648417,76.60646875967886],[-39.05642810153584,76.60352957855929],[-39.029064744432205,76.60093923023638]]]}},{"type":"Feature","properties":{"N03_001":"静岡県","N03_002":null,"N03_003":null,"N03_004":"磐田市","N03_007":"22211"},"geometry":{"type":"Polygon","coordinates":[[[-39.43369171873397,76.57842085221301],[-39.436895913085834,76.56997193505886],[-39.44027219970316,76.56756676672883],[-39.383725614946876,76.57250121757346],[-39.393441379729516,76.57507456247822],[-39.385642458088284,76.5858820244692],[-39.37748833270435,76.5912005791652],[-39.39039531965181,76.59141274810555],[-39.39530258985218,76.5940014710794],[-39.38632119515363,76.59537139836283],[-39.38432286748776,76.59948104721411],[-39.37388842806352,76.60342508155105],[-39.39136661581833,76.6022802599507],[-39.40938041858119,76.6000247540446],[-39.404625252596205,76.59531505067987],[-39.41298400813859,76.59039661491938],[-39.43369171873397,76.57842085221301]]]}},{"type":"Feature","properties":{"N03_001":"静岡県","N03_002":null,"N03_003":null,"N03_004":"焼津市","N03_007":"22212"},"geometry":{"type":"Polygon","coordinates":[[[-39.195032971794184,76.59860052141164],[-39.211593941160174,76.59694125042826],[-39.20489905906203,76.58796418425263],[-39.22907983146818,76.59082936975565],[-39.21280644346035,76.58742605021223],[-39.172316511682205,76.58201219311474],[-39.145694757953706,76.58553453603483],[-39.166029993770096,76.59346445832976],[-39.16316811852304,76.59379703274477],[-39.195032971794184,76.59860052141164]]]}},{"type":"Feature","properties":{"N03_001":"静岡県","N03_002":null,"N03_003":null,"N03_004":"掛川市","N03_007":"22213"},"geometry":{"type":"Polygon","coordinates":[[[-39.32075201396739,76.60131054193923],[-39.33571590257327,76.60220878019454],[-39.34381436569226,76.59983296557509],[-39.35147433364731,76.59846152543895],[-39.35650763136926,76.59404965053444],[-39.3539898071433,76.59140819416585],[-39.34701457298743,76.59143322442334],[-39.33068021311662,76.5908280709988],[-39.34279318422108,76.57988605712345],[-39.35556061000821,76.57517540029029],[-39.35530385339897,76.57285134910299],[-39.30621994204359,76.57070148329538],[-39.30407090967026,76.5729986541427],[-39.30316861861994,76.57618958855166],[-39.319276061009745,76.59127383987878],[-39.31502005791559,76.59146130022148],[-39.29763212235258,76.5933428847476],[-39.297928637610084,76.59609988633791],[-39.30649226002552,76.59731342985215],[-39.31512670051476,76.5974759470536],[-39.31644593581747,76.59914847733816],[-39.3135306289833,76.60040533686407],[-39.32075201396739,76.60131054193923]]]}},{"type":"Feature","properties":{"N03_001":"静岡県","N03_002":null,"N03_003":null,"N03_004":"藤枝市","N03_007":"22214"},"geometry":{"type":"Polygon","coordinates":[[[-39.24217436832377,76.60832178538008],[-39.257596017253626,76.60348665073313],[-39.26628161812786,76.60265662923334],[-39.27424476986073,76.60089323349575],[-39.269767799423555,76.5990838753674],[-39.25905044884844,76.59837586319318],[-39.22907983146818,76.59082936975565],[-39.20489905906203,76.58796418425263],[-39.211593941160174,76.59694125042826],[-39.195032971794184,76.59860052141164],[-39.20994475478068,76.60398568341604],[-39.21223870870835,76.60660465901627],[-39.22161329311325,76.61101076480352],[-39.24217436832377,76.60832178538008]]]}},{"type":"Feature","properties":{"N03_001":"静岡県","N03_002":null,"N03_003":null,"N03_004":"御殿場市","N03_007":"22215"},"geometry":{"type":"Polygon","coordinates":[[[-38.981018175054764,76.60530071177494],[-38.980850800284756,76.60528483292781],[-38.97246512177421,76.60499808278115],[-38.93666228632811,76.60441503515793],[-38.90518403635533,76.606016069592],[-38.887523130878,76.60624790324792],[-38.87145857338002,76.60422517735734],[-38.85291891264063,76.6038507596178],[-38.81203144168595,76.60430481319979],[-38.81367725208952,76.60518027745881],[-38.803052267868466,76.60568773462577],[-38.821847698616985,76.6066333584672],[-38.826102681196154,76.60730080687988],[-38.856062438949934,76.6076568073957],[-38.89103132544379,76.60738501524433],[-38.981018175054764,76.60530071177494]]]}},{"type":"Feature","properties":{"N03_001":"静岡県","N03_002":null,"N03_003":null,"N03_004":"袋井市","N03_007":"22216"},"geometry":{"type":"Polygon","coordinates":[[[-39.383725614946876,76.57250121757346],[-39.35530385339897,76.57285134910299],[-39.35556061000821,76.57517540029029],[-39.34279318422108,76.57988605712345],[-39.33068021311662,76.5908280709988],[-39.34701457298743,76.59143322442334],[-39.3539898071433,76.59140819416585],[-39.35650763136926,76.59404965053444],[-39.361847505615444,76.5921573853345],[-39.3786617177273,76.59242144865041],[-39.37783257984883,76.59428452560286],[-39.38632119515363,76.59537139836283],[-39.39530258985218,76.5940014710794],[-39.39039531965181,76.59141274810555],[-39.37748833270435,76.5912005791652],[-39.385642458088284,76.5858820244692],[-39.393441379729516,76.57507456247822],[-39.383725614946876,76.57250121757346]]]}},{"type":"Feature","properties":{"N03_001":"静岡県","N03_002":null,"N03_003":null,"N03_004":"下田市","N03_007":"22219"},"geometry":{"type":"Polygon","coordinates":[[[-38.78335648348049,76.57454906399576],[-38.79746958857967,76.57552572159014],[-38.81887240641191,76.57941980561719],[-38.8522837376486,76.58038118636806],[-38.85588269862448,76.5797454643922],[-38.87802367634682,76.5776341915014],[-38.88213418809098,76.57487457382426],[-38.855740689026966,76.57351719723755],[-38.858572912028535,76.5707341206222],[-38.84053987967667,76.56874261475568],[-38.832423196548156,76.56932041001839],[-38.80429759425503,76.57061362817518],[-38.78335648348049,76.57454906399576]]]}},{"type":"Feature","properties":{"N03_001":"静岡県","N03_002":null,"N03_003":null,"N03_004":"裾野市","N03_007":"22220"},"geometry":{"type":"Polygon","coordinates":[[[-38.81203144168595,76.60430481319979],[-38.85291891264063,76.6038507596178],[-38.87145857338002,76.60422517735734],[-38.887523130878,76.60624790324792],[-38.90518403635533,76.606016069592],[-38.93666228632811,76.60441503515793],[-38.97246512177421,76.60499808278115],[-38.969529674239055,76.60440091297589],[-38.94744628566491,76.60272479251302],[-38.94052239178342,76.60242389271899],[-38.9040227618045,76.60097960519147],[-38.882116011400974,76.59864140478753],[-38.85699815045941,76.60198669233499],[-38.83064613263551,76.6031795799705],[-38.79269310758426,76.6026282336942],[-38.80259055740707,76.60317383285275],[-38.81203144168595,76.60430481319979]]]}},{"type":"Feature","properties":{"N03_001":"静岡県","N03_002":null,"N03_003":null,"N03_004":"湖西市","N03_007":"22221"},"geometry":{"type":"Polygon","coordinates":[[[-39.59207349743092,76.5835372897606],[-39.6017286965869,76.58594591981021],[-39.62266163878703,76.58482526109066],[-39.63200411029476,76.58470071709539],[-39.64501976314289,76.58335756252161],[-39.65365950656572,76.58114775932573],[-39.646807622948145,76.57370747156094],[-39.64586387595892,76.57176014474987],[-39.59336404046439,76.5714756722952],[-39.57979202607023,76.57144060070341],[-39.58880824776621,76.57417082693752],[-39.59207349743092,76.5835372897606]]]}},{"type":"Feature","properties":{"N03_001":"静岡県","N03_002":null,"N03_003":null,"N03_004":"伊豆市","N03_007":"22222"},"geometry":{"type":"Polygon","coordinates":[[[-38.92504875887602,76.58666075618282],[-38.91302511346798,76.58522001109061],[-38.93208755783448,76.584908568769],[-38.924615828593005,76.58371008327612],[-38.91782939103824,76.58413151036574],[-38.88384791684115,76.58432360588341],[-38.88029154788248,76.58403392120246],[-38.85737053891717,76.58360883318404],[-38.85394740020439,76.58334000011365],[-38.83933652145405,76.58287366177755],[-38.81860939611807,76.58266251670705],[-38.80344910571156,76.5823855978121],[-38.78921721284548,76.5814344038729],[-38.78481973318127,76.58165824832696],[-38.77121232104766,76.58168721314952],[-38.78537385531719,76.58273025747816],[-38.75553151767357,76.58585173289771],[-38.77723941664577,76.58471800813832],[-38.76455685372562,76.5860863909266],[-38.789105179691845,76.58422828955655],[-38.85462505710608,76.58393902441365],[-38.861445586420295,76.58466369144456],[-38.8915217968414,76.58586310882201],[-38.89585322400959,76.5855497768027],[-38.92504875887602,76.58666075618282]]]}},{"type":"Feature","properties":{"N03_001":"静岡県","N03_002":null,"N03_003":null,"N03_004":"御前崎市","N03_007":"22223"},"geometry":{"type":"Polygon","coordinates":[[[-39.30621994204359,76.57070148329538],[-39.22295759769316,76.56731082205587],[-39.21057457210022,76.56915417241487],[-39.23053228662605,76.56759972300134],[-39.21451600469613,76.57384597844182],[-39.22435555799536,76.57757375902504],[-39.248864641268966,76.57901753775727],[-39.28391994012354,76.57625197795821],[-39.29749702485928,76.57274968524086],[-39.30407090967026,76.5729986541427],[-39.30621994204359,76.57070148329538]]]}},{"type":"Feature","properties":{"N03_001":"静岡県","N03_002":null,"N03_003":null,"N03_004":"菊川市","N03_007":"22224"},"geometry":{"type":"Polygon","coordinates":[[[-39.29763212235258,76.5933428847476],[-39.31502005791559,76.59146130022148],[-39.319276061009745,76.59127383987878],[-39.30316861861994,76.57618958855166],[-39.30407090967026,76.5729986541427],[-39.29749702485928,76.57274968524086],[-39.28391994012354,76.57625197795821],[-39.248864641268966,76.57901753775727],[-39.279953895066434,76.59274019419023],[-39.29763212235258,76.5933428847476]]]}},{"type":"Feature","properties":{"N03_001":"静岡県","N03_002":null,"N03_003":null,"N03_004":"伊豆の国市","N03_007":"22225"},"geometry":{"type":"Polygon","coordinates":[[[-38.861445586420295,76.58466369144456],[-38.85462505710608,76.58393902441365],[-38.789105179691845,76.58422828955655],[-38.76455685372562,76.5860863909266],[-38.75903830947652,76.58668656012377],[-38.76743729939832,76.58660479038893],[-38.789121579671026,76.59179658110388],[-38.822443292701465,76.59316554442469],[-38.866872003454425,76.59055683431683],[-38.861445586420295,76.58466369144456]]]}},{"type":"Feature","properties":{"N03_001":"静岡県","N03_002":null,"N03_003":null,"N03_004":"牧之原市","N03_007":"22226"},"geometry":{"type":"Polygon","coordinates":[[[-39.279953895066434,76.59274019419023],[-39.248864641268966,76.57901753775727],[-39.22435555799536,76.57757375902504],[-39.21451600469613,76.57384597844182],[-39.23053228662605,76.56759972300134],[-39.21057457210022,76.56915417241487],[-39.21194174591246,76.57132327957825],[-39.210047501362745,76.57433844581605],[-39.20233881072329,76.58014245682108],[-39.19314269782223,76.58153844576812],[-39.20993416569126,76.58579716195982],[-39.22307063483618,76.58826437606471],[-39.26903157475299,76.59300281578287],[-39.279953895066434,76.59274019419023]]]}}]}