{"type":"FeatureCollection","features":[{"type":"Feature","properties":{"N03_001":"宮城県","N03_002":null,"N03_003":"仙台市","N03_004":"青葉区","N03_007":"04101"},"geometry":{"type":"Polygon","coordinates":[[[-37.90382340837611,76.7665386550076],[-37.88905258169498,76.76442065663466],[-37.8944936921938,76.7619644259945],[-37.87916500045489,76.76101522776356],[-37.86277250736105,76.76115274687322],[-37.84896830127033,76.76068945503734],[-37.831738835038145,76.75948890475765],[-37.80929226223117,76.75988063739348],[-37.7586413428182,76.76039525696744],[-37.755635487361005,76.76100899056628],[-37.744385019226996,76.76291133554251],[-37.74554443049822,76.76346924446078],[-37.80424548883203,76.76137745897967],[-37.837955466912675,76.76498836046387],[-37.83148070461667,76.76729312556265],[-37.84670696199787,76.76846475254104],[-37.83662939988891,76.772394062586],[-37.834737687447436,76.77341845503355],[-37.85876619829386,76.77267289071425],[-37.86565407431763,76.77306180917276],[-37.86763370520648,76.77347712732615],[-37.887173909269,76.77152885594512],[-37.89701061447645,76.76938046185062],[-37.90382340837611,76.7665386550076]]]}},{"type":"Feature","properties":{"N03_001":"宮城県","N03_002":null,"N03_003":"仙台市","N03_004":"若林区","N03_007":"04103"},"geometry":{"type":"Polygon","coordinates":[[[-37.7586413428182,76.76039525696744],[-37.68507149511833,76.74903538642455],[-37.65827829155208,76.748549564552],[-37.62934070620011,76.75274059061873],[-37.64358109043223,76.75409411297693],[-37.70043161067664,76.76154080555813],[-37.755635487361005,76.76100899056628],[-37.7586413428182,76.76039525696744]]]}},{"type":"Feature","properties":{"N03_001":"宮城県","N03_002":null,"N03_003":"仙台市","N03_004":"太白区","N03_007":"04104"},"geometry":{"type":"Polygon","coordinates":[[[-37.90382340837611,76.7665386550076],[-37.926684050238286,76.7644010166868],[-37.92265744265333,76.76292921591966],[-37.928742238340995,76.76190863901938],[-37.943967645164506,76.76131835096291],[-37.94232244464219,76.76016831457704],[-37.95571450099835,76.75932484930144],[-37.95670009148501,76.75812773281686],[-37.907259503393014,76.75968383174948],[-37.88235164991533,76.75983124571518],[-37.863984886201045,76.75936561044281],[-37.85110225160593,76.75828582238468],[-37.82914424517429,76.75761876772451],[-37.82404894102618,76.75574286847892],[-37.806502727489686,76.75540168017616],[-37.7976245364856,76.75694847315641],[-37.808457173850215,76.75811343384458],[-37.79370694197845,76.75868731700014],[-37.76835506453568,76.75813428532017],[-37.76187880575519,76.75604611271147],[-37.68507149511833,76.74903538642455],[-37.7586413428182,76.76039525696744],[-37.80929226223117,76.75988063739348],[-37.831738835038145,76.75948890475765],[-37.84896830127033,76.76068945503734],[-37.86277250736105,76.76115274687322],[-37.87916500045489,76.76101522776356],[-37.8944936921938,76.7619644259945],[-37.88905258169498,76.76442065663466],[-37.90382340837611,76.7665386550076]]]}},{"type":"Feature","properties":{"N03_001":"宮城県","N03_002":null,"N03_003":"仙台市","N03_004":"泉区","N03_007":"04105"},"geometry":{"type":"Polygon","coordinates":[[[-37.744385019226996,76.76291133554251],[-37.72156981044347,76.76506725779593],[-37.7157450940367,76.76692332915762],[-37.726870738655855,76.76606077674053],[-37.76062280088408,76.76879759323143],[-37.77069595814677,76.7686268113201],[-37.784407292934794,76.77549450336944],[-37.812550611253386,76.77474685578332],[-37.822060425014286,76.77523988011387],[-37.83662939988891,76.772394062586],[-37.84670696199787,76.76846475254104],[-37.83148070461667,76.76729312556265],[-37.837955466912675,76.76498836046387],[-37.80424548883203,76.76137745897967],[-37.74554443049822,76.76346924446078],[-37.744385019226996,76.76291133554251]]]}},{"type":"Feature","properties":{"N03_001":"宮城県","N03_002":null,"N03_003":null,"N03_004":"気仙沼市","N03_007":"04205"},"geometry":{"type":"Polygon","coordinates":[[[-37.44952544295906,76.7838534435299],[-37.44979814446672,76.7831867810247],[-37.42205273544682,76.78374686759555],[-37.407865887391104,76.78438802157503],[-37.39264250331728,76.78411381388189],[-37.37559994774906,76.78447574447559],[-37.38506775068117,76.78548148631663],[-37.38027120947675,76.78655752288378],[-37.34159254301141,76.78757273505926],[-37.34773699791194,76.7878726819646],[-37.33729941206344,76.78853445105425],[-37.30940255857413,76.78940120268902],[-37.316137307195994,76.79206267016815],[-37.350752086492335,76.79269848887058],[-37.37436185929469,76.79203582159045],[-37.390520051254015,76.79242933230549],[-37.395142391438505,76.79108985425815],[-37.39214568871066,76.79042059297069],[-37.39338753584315,76.7887352868914],[-37.412744947913055,76.78784312868034],[-37.40700474677223,76.78752639825565],[-37.42563976589698,76.78608649837435],[-37.43332353822773,76.78481689382743],[-37.44952544295906,76.7838534435299]]]}},{"type":"Feature","properties":{"N03_001":"宮城県","N03_002":null,"N03_003":null,"N03_004":"塩竈市","N03_007":"04203"},"geometry":{"type":"Polygon","coordinates":[[[-37.681248177477926,76.77002310148859],[-37.59256410594336,76.75991245935735],[-37.591829137300415,76.76044473109684],[-37.58841170929019,76.7688146614876],[-37.615899749785726,76.77558104329003],[-37.6546952397934,76.77652735798223],[-37.681248177477926,76.77002310148859]]]}},{"type":"Feature","properties":{"N03_001":"宮城県","N03_002":null,"N03_003":null,"N03_004":"東松島市","N03_007":"04214"},"geometry":{"type":"Polygon","coordinates":[[[-37.56927392461703,76.78034667888532],[-37.5892438824461,76.77935247130425],[-37.599265379265745,76.7794391559845],[-37.59228135389162,76.77739461527193],[-37.59080089814313,76.77459625581969],[-37.57419581292402,76.7707024482738],[-37.561619864652215,76.76776599752235],[-37.54690371827846,76.76642651830348],[-37.540535938739225,76.76684397621652],[-37.497875694769284,76.76978090334369],[-37.500690058906834,76.77480216810322],[-37.52721271899532,76.77885756816677],[-37.54317621404606,76.77876232855455],[-37.56927392461703,76.78034667888532]]]}},{"type":"Feature","properties":{"N03_001":"宮城県","N03_002":null,"N03_003":null,"N03_004":"白石市","N03_007":"04206"},"geometry":{"type":"Polygon","coordinates":[[[-37.852492592411515,76.73938644714416],[-37.84520463369782,76.742906301027],[-37.85044068815505,76.74371806457934],[-37.86244402844702,76.7436603965984],[-37.890516001824885,76.74526683227327],[-37.89363803099523,76.7467500161962],[-37.92561348055453,76.74782210857511],[-37.95708458508365,76.74761667897715],[-37.94810764920565,76.74435824562406],[-37.93726946331507,76.74343582727067],[-37.928155081795744,76.74123564360517],[-37.93816633155782,76.7400930244731],[-37.95562110129793,76.73977025270953],[-37.959138340932604,76.73807761424906],[-37.95136590446098,76.73712031858946],[-37.94938579534653,76.73702041758277],[-37.9042060641416,76.73786836096566],[-37.892092630083845,76.73713802908003],[-37.88196394967706,76.7371951874425],[-37.87759306688771,76.73886598162721],[-37.85543817710543,76.73840030705827],[-37.852492592411515,76.73938644714416]]]}},{"type":"Feature","properties":{"N03_001":"宮城県","N03_002":null,"N03_003":null,"N03_004":"名取市","N03_007":"04207"},"geometry":{"type":"Polygon","coordinates":[[[-37.68507149511833,76.74903538642455],[-37.76187880575519,76.75604611271147],[-37.76835506453568,76.75813428532017],[-37.79370694197845,76.75868731700014],[-37.808457173850215,76.75811343384458],[-37.7976245364856,76.75694847315641],[-37.806502727489686,76.75540168017616],[-37.80397880855782,76.7521728584234],[-37.79694716770702,76.75101114899033],[-37.76265028887812,76.75083623648872],[-37.7072969503501,76.74565704134031],[-37.692706145231625,76.7486428558629],[-37.66800439078492,76.74666031083662],[-37.65827829155208,76.748549564552],[-37.68507149511833,76.74903538642455]]]}},{"type":"Feature","properties":{"N03_001":"宮城県","N03_002":null,"N03_003":null,"N03_004":"角田市","N03_007":"04208"},"geometry":{"type":"Polygon","coordinates":[[[-37.852492592411515,76.73938644714416],[-37.837899979073306,76.73809382903379],[-37.834221830758885,76.73693007839923],[-37.78666751089087,76.73561738805078],[-37.78113073451659,76.73462455802748],[-37.75206224185234,76.73483805314],[-37.74016426249168,76.73425001399023],[-37.73641975040549,76.73630637002233],[-37.74254630441795,76.73790872526739],[-37.78151489776968,76.74362667413601],[-37.7884947553519,76.743277193427],[-37.81873052590353,76.74409002976851],[-37.84520463369782,76.742906301027],[-37.852492592411515,76.73938644714416]]]}},{"type":"Feature","properties":{"N03_001":"宮城県","N03_002":null,"N03_003":null,"N03_004":"多賀城市","N03_007":"04209"},"geometry":{"type":"Polygon","coordinates":[[[-37.59256410594336,76.75991245935735],[-37.681248177477926,76.77002310148859],[-37.70372110009672,76.76670193812788],[-37.707596761156736,76.76327069545297],[-37.615817259393204,76.75442850357133],[-37.60168053028987,76.75641619814394],[-37.60072460156392,76.75645583456094],[-37.60069362718273,76.75644539208906],[-37.60032010230962,76.75647082738229],[-37.591606099235115,76.75884499736935],[-37.59256410594336,76.75991245935735]]]}},{"type":"Feature","properties":{"N03_001":"宮城県","N03_002":null,"N03_003":null,"N03_004":"岩沼市","N03_007":"04211"},"geometry":{"type":"Polygon","coordinates":[[[-37.80397880855782,76.7521728584234],[-37.80791282176065,76.75102041516675],[-37.793045105862106,76.74948960575094],[-37.77661752418657,76.74330818610177],[-37.7535715805759,76.74035287234244],[-37.711595190610154,76.74145031835805],[-37.693122206894756,76.74052670122165],[-37.689623249527024,76.73997603319351],[-37.66800439078492,76.74666031083662],[-37.692706145231625,76.7486428558629],[-37.7072969503501,76.74565704134031],[-37.76265028887812,76.75083623648872],[-37.79694716770702,76.75101114899033],[-37.80397880855782,76.7521728584234]]]}},{"type":"Feature","properties":{"N03_001":"宮城県","N03_002":null,"N03_003":null,"N03_004":"登米市","N03_007":"04212"},"geometry":{"type":"Polygon","coordinates":[[[-37.591047077044685,76.78204232262246],[-37.58234571310739,76.78232868472568],[-37.60509769475775,76.78222879773534],[-37.66766425498519,76.77918489334337],[-37.677779632495536,76.78028979633542],[-37.66981362850501,76.78060288824338],[-37.63883027459948,76.78282740460952],[-37.574850516445046,76.78443408725973],[-37.555029442312204,76.78427609229186],[-37.552703194053194,76.78423171971575],[-37.537519454032534,76.78302972352502],[-37.53612533547188,76.7840078518562],[-37.52610014977592,76.78385823455054],[-37.525640531000064,76.78375349855641],[-37.51457956554685,76.78358015282211],[-37.514040277891965,76.78342813075649],[-37.49545958772393,76.78180598561102],[-37.45076117814119,76.78071015043092],[-37.47756092007105,76.7826364812853],[-37.47391473707148,76.78255760444804],[-37.480123427671096,76.78245667352734],[-37.44979814446672,76.7831867810247],[-37.44952544295906,76.7838534435299],[-37.44400484673144,76.78456200735391],[-37.481012077719974,76.78394640780348],[-37.51149919312871,76.78199051944974],[-37.52814361326425,76.78182081771244],[-37.53387680551167,76.78218467942285],[-37.55385436624049,76.78222568258953],[-37.55840409090679,76.78182382183222],[-37.57282833673335,76.78176640314754],[-37.591047077044685,76.78204232262246]]]}},{"type":"Feature","properties":{"N03_001":"宮城県","N03_002":null,"N03_003":null,"N03_004":"栗原市","N03_007":"04213"},"geometry":{"type":"Polygon","coordinates":[[[-37.79632189544679,76.78396546467475],[-37.77877343025012,76.77853809207024],[-37.77050880028537,76.7751970124695],[-37.76706927987204,76.77726633039188],[-37.77019368555771,76.77800559527367],[-37.76345304720505,76.77863174372827],[-37.75879877407357,76.77838662927464],[-37.74410027253348,76.77968304038653],[-37.736639442515695,76.77930857296957],[-37.71572681983201,76.77922618344716],[-37.70584953749452,76.77976562399533],[-37.70415749910832,76.78114144966554],[-37.69653228886384,76.78163751763731],[-37.6925289608363,76.78257542791512],[-37.656203632316476,76.78280696111476],[-37.63883027459948,76.78282740460952],[-37.66981362850501,76.78060288824338],[-37.677779632495536,76.78028979633542],[-37.66766425498519,76.77918489334337],[-37.60509769475775,76.78222879773534],[-37.58234571310739,76.78232868472568],[-37.591047077044685,76.78204232262246],[-37.6137210508236,76.78141581360245],[-37.63652230866031,76.77877961352614],[-37.598121259729304,76.78324337850972],[-37.600697774518785,76.78386560810821],[-37.62777755515181,76.782528517628],[-37.680491524438395,76.77638766345444],[-37.69745402662061,76.77549540006821],[-37.70234998998602,76.77521381249285],[-37.71793530952173,76.77491585785066],[-37.73075943062976,76.77498389534061],[-37.74628433862854,76.78512055857446],[-37.76856972497587,76.78545248452296],[-37.77694075956351,76.7859036775793],[-37.787532319994696,76.785732298991],[-37.79632189544679,76.78396546467475]]]}},{"type":"Feature","properties":{"N03_001":"宮城県","N03_002":null,"N03_003":null,"N03_004":"大崎市","N03_007":"04215"},"geometry":{"type":"Polygon","coordinates":[[[-37.63883027459948,76.78282740460952],[-37.656203632316476,76.78280696111476],[-37.6925289608363,76.78257542791512],[-37.69653228886384,76.78163751763731],[-37.70415749910832,76.78114144966554],[-37.70584953749452,76.77976562399533],[-37.71572681983201,76.77922618344716],[-37.736639442515695,76.77930857296957],[-37.74410027253348,76.77968304038653],[-37.75879877407357,76.77838662927464],[-37.76345304720505,76.77863174372827],[-37.77019368555771,76.77800559527367],[-37.76706927987204,76.77726633039188],[-37.77050880028537,76.7751970124695],[-37.77877343025012,76.77853809207024],[-37.79632189544679,76.78396546467475],[-37.807151490266946,76.78464887317128],[-37.81157397589521,76.78365968475258],[-37.825092755229626,76.78426226766868],[-37.847060502162705,76.78572425865599],[-37.874072973970684,76.78601714610184],[-37.88508655935058,76.78698694348294],[-37.888601154906745,76.78638496065665],[-37.84377806882864,76.78314871964473],[-37.832196286218775,76.78175774533366],[-37.798810900650246,76.77944069645189],[-37.81996231762009,76.78178618705961],[-37.80287831714685,76.78176842014354],[-37.77709083120478,76.78099194458974],[-37.77306205133026,76.78078882746387],[-37.76717170161967,76.7815507021964],[-37.76326433664223,76.7814108679173],[-37.7388574040986,76.78271640743255],[-37.72889944168008,76.78390770204288],[-37.73000663481534,76.78476934586233],[-37.724129255978774,76.78553356176799],[-37.7269658526929,76.78674821417484],[-37.72592685430274,76.78749047870384],[-37.719181884125085,76.78799825665034],[-37.705581797954636,76.78775487766758],[-37.696229100618176,76.7872443246897],[-37.629299854049435,76.78028065691198],[-37.618810069585024,76.78032175442043],[-37.6020610015182,76.7794969036195],[-37.59455635659999,76.78069345336046],[-37.596327541474494,76.78173148747892],[-37.61951491581467,76.78321480139367],[-37.67772166475525,76.78609975401153],[-37.68940990108584,76.7843440866044],[-37.67516906254125,76.78414815366104],[-37.67219083545447,76.78493798801195],[-37.62642480448407,76.78386776964592],[-37.640212189504595,76.78406242130114],[-37.58742882797692,76.78432458524357],[-37.574850516445046,76.78443408725973],[-37.63883027459948,76.78282740460952]]]}},{"type":"Feature","properties":{"N03_001":"宮城県","N03_002":null,"N03_003":null,"N03_004":"富谷市","N03_007":"04216"},"geometry":{"type":"Polygon","coordinates":[[[-37.76062280088408,76.76879759323143],[-37.726870738655855,76.76606077674053],[-37.7157450940367,76.76692332915762],[-37.707282284319064,76.76804731380237],[-37.693772387249155,76.7703200521908],[-37.69129811236955,76.78213990820204],[-37.711120747677214,76.78415552861374],[-37.72315772511615,76.78537260508345],[-37.73704873805865,76.78389596016866],[-37.76062280088408,76.76879759323143]]]}}]}