{"type":"FeatureCollection","features":[{"type":"Feature","properties":{"N03_001":"和歌山県","N03_002":null,"N03_003":null,"N03_004":"和歌山市","N03_007":"30201"},"geometry":{"type":"Polygon","coordinates":[[[-40.92105229365989,76.54704481320682],[-40.91460547459214,76.54778406477193],[-40.8851722861743,76.54672663913152],[-40.85557868594825,76.54459740947311],[-40.855658945588345,76.54534058699046],[-40.868103512187986,76.54612644347235],[-40.83476293492669,76.54539670580934],[-40.84088032995289,76.54513673369583],[-40.88180747765257,76.54738145988597],[-40.88555137383054,76.5555777964473],[-40.89469636388251,76.55499961928223],[-40.91110190144967,76.55310895943936],[-40.9190157258738,76.55347553270632],[-40.922024740584185,76.55215537631956],[-40.958706492875784,76.55156105983373],[-40.97116790253058,76.55168273189803],[-40.98104732292847,76.55354365384602],[-40.99151219336549,76.55319931410799],[-40.99163968219832,76.55201854398977],[-40.98329341242241,76.55108946735915],[-40.96354249014009,76.55024542865903],[-40.96457197348838,76.54957347655298],[-40.95096631799453,76.54923104117461],[-40.95373161799046,76.54842962786711],[-40.932089525204255,76.5481562557073],[-40.92105229365989,76.54704481320682]]]}},{"type":"Feature","properties":{"N03_001":"和歌山県","N03_002":null,"N03_003":null,"N03_004":"海南市","N03_007":"30202"},"geometry":{"type":"Polygon","coordinates":[[[-40.92105229365989,76.54704481320682],[-40.93808705487926,76.5461087178381],[-40.96107689994262,76.54643440286767],[-40.961318242126424,76.54609989352873],[-40.97832925326143,76.54512087354671],[-40.95605994507676,76.54508934034669],[-40.90263944409527,76.54024174220469],[-40.892713948534116,76.53934826958093],[-40.873403795066814,76.54087538437923],[-40.845697492419056,76.54021443063428],[-40.83993531330619,76.54134128028791],[-40.84307598437766,76.54322457952819],[-40.832525349265474,76.54451254108248],[-40.855658945588345,76.54534058699046],[-40.85557868594825,76.54459740947311],[-40.8851722861743,76.54672663913152],[-40.91460547459214,76.54778406477193],[-40.92105229365989,76.54704481320682]]]}},{"type":"Feature","properties":{"N03_001":"和歌山県","N03_002":null,"N03_003":null,"N03_004":"橋本市","N03_007":"30203"},"geometry":{"type":"Polygon","coordinates":[[[-40.73004247838104,76.55411482032383],[-40.73162296036235,76.55235509055304],[-40.723945696768816,76.55011059624775],[-40.6939217951692,76.5474972102078],[-40.67172540034872,76.54796142694113],[-40.66914850073435,76.54610414062361],[-40.657107160126316,76.54586682771969],[-40.64084458795559,76.54784885543322],[-40.64946616445095,76.55201118916546],[-40.6487058899241,76.55444513170666],[-40.65815004070989,76.55618496748588],[-40.702929304986824,76.55613641695564],[-40.73004247838104,76.55411482032383]]]}},{"type":"Feature","properties":{"N03_001":"和歌山県","N03_002":null,"N03_003":null,"N03_004":"有田市","N03_007":"30204"},"geometry":{"type":"Polygon","coordinates":[[[-40.97832925326143,76.54512087354671],[-40.99223302782687,76.54242094810014],[-40.990284805946736,76.53908441755505],[-40.94893122505664,76.53363844883518],[-40.90045594203411,76.53649468434845],[-40.90263944409527,76.54024174220469],[-40.95605994507676,76.54508934034669],[-40.97832925326143,76.54512087354671]]]}},{"type":"Feature","properties":{"N03_001":"和歌山県","N03_002":null,"N03_003":null,"N03_004":"御坊市","N03_007":"30205"},"geometry":{"type":"Polygon","coordinates":[[[-40.87536514309253,76.52935627220499],[-40.91745812685376,76.53490888388822],[-40.91660104427719,76.53440345868604],[-40.93247139789233,76.53421111029793],[-40.951186838150306,76.53318636090144],[-40.95102714073372,76.52793946949815],[-40.91465601023028,76.52402839588677],[-40.89423994608807,76.52458649301599],[-40.87536514309253,76.52935627220499]]]}},{"type":"Feature","properties":{"N03_001":"和歌山県","N03_002":null,"N03_003":null,"N03_004":"田辺市","N03_007":"30206"},"geometry":{"type":"Polygon","coordinates":[[[-40.712031021721145,76.53414776955287],[-40.717191237144334,76.53262084962066],[-40.730235858685326,76.5321081146116],[-40.71841212373529,76.52951739450793],[-40.70898271776609,76.5254079659307],[-40.710834892079724,76.5256499888747],[-40.72750133482997,76.5261508758692],[-40.748180139253094,76.52662212299889],[-40.75938248112219,76.52728419102793],[-40.75322121839638,76.52741486404058],[-40.738460714872254,76.5281777416113],[-40.74056254455506,76.52848975309637],[-40.75620146225757,76.52856427119414],[-40.78117695526908,76.52844351511641],[-40.807249379011395,76.52650108683306],[-40.77432096359469,76.52787670485513],[-40.78704440370642,76.52605695781173],[-40.77910763631313,76.52644140484543],[-40.77115563796373,76.52773857254792],[-40.744704490994316,76.53117878965458],[-40.74128538074424,76.5310821985979],[-40.72747667016045,76.5308320844018],[-40.73032472310453,76.53149322628913],[-40.72515177700085,76.53215841841131],[-40.72028329748703,76.53224960610676],[-40.71033370987853,76.53252466960053],[-40.70843792731299,76.53167514564618],[-40.690961176726375,76.52880945104687],[-40.67109813210854,76.52912950992659],[-40.677839140576005,76.53242106387681],[-40.670522059116934,76.53212905636326],[-40.667185926295886,76.53197698284704],[-40.65724142778344,76.5314528183252],[-40.64453639070736,76.53058392231195],[-40.636213227603996,76.52992226043976],[-40.61381258337924,76.52877871406106],[-40.59273833307663,76.52872051871304],[-40.62328994001475,76.52886668924367],[-40.60729319093751,76.52927564768666],[-40.609472434274274,76.52931868619103],[-40.64637310915491,76.52776073283094],[-40.65701047237647,76.52715802826451],[-40.66821640065611,76.52713410692888],[-40.67795036470572,76.52799225953301],[-40.690864544887575,76.52763221416791],[-40.68806034544058,76.52584489287419],[-40.68251922415409,76.52594163065135],[-40.68127857269029,76.52591582653673],[-40.68341372593119,76.52797889282337],[-40.69302320988043,76.527653396319],[-40.689977477670624,76.53054599447245],[-40.697389941767184,76.53299938457585],[-40.710622940450804,76.5341610226733],[-40.712031021721145,76.53414776955287]]]}},{"type":"Feature","properties":{"N03_001":"和歌山県","N03_002":null,"N03_003":null,"N03_004":"紀の川市","N03_007":"30208"},"geometry":{"type":"Polygon","coordinates":[[[-40.82897474225085,76.55606623116299],[-40.81758160411694,76.55415143085654],[-40.82040095942088,76.54597477465133],[-40.83476293492669,76.54539670580934],[-40.868103512187986,76.54612644347235],[-40.855658945588345,76.54534058699046],[-40.832525349265474,76.54451254108248],[-40.811483279087916,76.54397246029436],[-40.78969873089929,76.5442090581396],[-40.773061925498446,76.54305316656678],[-40.750168609370654,76.54433564909289],[-40.7482030638093,76.54614740730631],[-40.76837249563336,76.54934058711444],[-40.75914511778827,76.55117050245494],[-40.77213186207684,76.5540765755498],[-40.77707898899186,76.55423648681067],[-40.78905047714934,76.55420551735791],[-40.80159492402256,76.55395876077598],[-40.82819511665697,76.556312938186],[-40.82897474225085,76.55606623116299]]]}},{"type":"Feature","properties":{"N03_001":"和歌山県","N03_002":null,"N03_003":null,"N03_004":"岩出市","N03_007":"30209"},"geometry":{"type":"Polygon","coordinates":[[[-40.88555137383054,76.5555777964473],[-40.88180747765257,76.54738145988597],[-40.84088032995289,76.54513673369583],[-40.83476293492669,76.54539670580934],[-40.82040095942088,76.54597477465133],[-40.81758160411694,76.55415143085654],[-40.82897474225085,76.55606623116299],[-40.87573907132561,76.55649507450366],[-40.88555137383054,76.5555777964473]]]}}]}