{"type":"FeatureCollection","features":[{"type":"Feature","properties":{"N03_001":"愛媛県","N03_002":null,"N03_003":null,"N03_004":"宇和島市","N03_007":"38203"},"geometry":{"type":"Polygon","coordinates":[[[-42.350263227127165,76.50574116653155],[-42.356036534735495,76.50564215400827],[-42.394170033150466,76.50518220479823],[-42.40966250403641,76.50501280009918],[-42.42611504862694,76.50345863695883],[-42.43730780159161,76.50160873163497],[-42.42594739923907,76.50139231890626],[-42.40982933784647,76.50049154279266],[-42.410520843432295,76.5001052025299],[-42.42883779556796,76.49915211243756],[-42.42677325091583,76.49830191520599],[-42.43816043606166,76.4978344743046],[-42.45831418153314,76.49828993488828],[-42.466689908231466,76.49737568852679],[-42.45727887129258,76.49658853124774],[-42.44203346392831,76.49638365685485],[-42.45046350163886,76.4949395465848],[-42.44593668070847,76.49334109684433],[-42.47456637827988,76.49298194245584],[-42.476080853454675,76.49346257501568],[-42.4921271438691,76.49282809911819],[-42.49344193183946,76.49145823291369],[-42.50345407076078,76.49112849593769],[-42.49512917320625,76.4911758526536],[-42.48741051868746,76.49225988360128],[-42.48865982540966,76.49281312791456],[-42.47782656829009,76.49309388098585],[-42.47144708573078,76.4927969836092],[-42.451183687179835,76.4932146851622],[-42.43181576425204,76.49257604496896],[-42.39452923898762,76.49301189417093],[-42.36254183097363,76.49401410202499],[-42.35135315707092,76.49355454468707],[-42.34529002243311,76.49422889608987],[-42.35033902592802,76.49621086251682],[-42.3594387279599,76.49659565318153],[-42.36646060225729,76.4978089299085],[-42.37434377743961,76.49848894999059],[-42.36380725598819,76.49912917798767],[-42.353176890278945,76.5003337443078],[-42.37523518115617,76.49980204232652],[-42.374502731258694,76.5011128746303],[-42.37886809166397,76.501790744946],[-42.36807476126235,76.50410295912205],[-42.35315028066842,76.50422551044274],[-42.34426149806792,76.50485640861267],[-42.345847538489586,76.50575487735426],[-42.350263227127165,76.50574116653155]]]}},{"type":"Feature","properties":{"N03_001":"愛媛県","N03_002":null,"N03_003":null,"N03_004":"八幡浜市","N03_007":"38204"},"geometry":{"type":"Polygon","coordinates":[[[-42.50388306289364,76.50509300853678],[-42.49116432972258,76.50481714514203],[-42.48398421333326,76.50490374197193],[-42.45030028020051,76.50471248563707],[-42.42827732394536,76.50537783366129],[-42.409421123627105,76.50688970179246],[-42.43146271860626,76.51363585617676],[-42.43630724128632,76.51506718229429],[-42.477353266306245,76.51715116792145],[-42.47945299809124,76.51733149444193],[-42.50443499614052,76.5163390373178],[-42.525579825452766,76.5147816516729],[-42.51853982590569,76.51330233799106],[-42.52176390200996,76.510820171121],[-42.49678569967126,76.50917193033095],[-42.49015029160325,76.50615240284503],[-42.50406709592692,76.50601841128572],[-42.49317624412669,76.50505049156368],[-42.50388306289364,76.50509300853678]]]}},{"type":"Feature","properties":{"N03_001":"愛媛県","N03_002":null,"N03_003":null,"N03_004":"新居浜市","N03_007":"38205"},"geometry":{"type":"Polygon","coordinates":[[[-41.93136265578868,76.53758626009332],[-41.951623972526576,76.5378269882701],[-41.97537802019113,76.53839147109045],[-42.003797901647715,76.53751647558923],[-42.031914364512325,76.53519154150426],[-42.028893733150234,76.53348467469705],[-42.03388204998522,76.53281228899296],[-42.00776100823935,76.52879340791849],[-41.974122210350394,76.52772451320939],[-41.95360902832703,76.52851134894712],[-41.931670244269455,76.52874551948717],[-41.92506798084587,76.52946790496972],[-41.894853368138484,76.53052145975067],[-41.896135071519,76.53312585821377],[-41.92069427107497,76.53255802117019],[-41.94048957530338,76.53142354278071],[-41.94557845500542,76.53325642292194],[-41.940083686804506,76.5367724525752],[-41.93136265578868,76.53758626009332]]]}},{"type":"Feature","properties":{"N03_001":"愛媛県","N03_002":null,"N03_003":null,"N03_004":"西条市","N03_007":"38206"},"geometry":{"type":"Polygon","coordinates":[[[-42.16861049829922,76.53418006730764],[-42.16914656612079,76.53377207240747],[-42.15728889779711,76.53231816298774],[-42.14468580652357,76.53011556734688],[-42.13097769854069,76.5301954302653],[-42.12953053264776,76.52696785133544],[-42.10274027440746,76.52758406535621],[-42.08663919303337,76.52831172433162],[-42.067205217368624,76.52707495145658],[-42.05556721825507,76.52793335204636],[-42.05281970459502,76.52900456467654],[-42.03734616336448,76.52791348628533],[-42.01678753040557,76.52781556476472],[-42.00776100823935,76.52879340791849],[-42.03388204998522,76.53281228899296],[-42.028893733150234,76.53348467469705],[-42.031914364512325,76.53519154150426],[-42.056642975897994,76.5337808734921],[-42.082011467684374,76.53314859145036],[-42.09652288517405,76.53353508637372],[-42.11486949467329,76.53593866311529],[-42.12780029531258,76.53594742489949],[-42.13035782191222,76.53506554485968],[-42.16090550192372,76.53548877684278],[-42.15923520127044,76.5341321920035],[-42.16861049829922,76.53418006730764]]]}},{"type":"Feature","properties":{"N03_001":"愛媛県","N03_002":null,"N03_003":null,"N03_004":"大洲市","N03_007":"38207"},"geometry":{"type":"Polygon","coordinates":[[[-42.382819785737965,76.51689011035349],[-42.39481817016577,76.5176164443433],[-42.40277840781394,76.51657275745819],[-42.422131787409846,76.51928074774894],[-42.434142075745314,76.51921315794007],[-42.46105123647956,76.51831333818181],[-42.47945299809124,76.51733149444193],[-42.477353266306245,76.51715116792145],[-42.43630724128632,76.51506718229429],[-42.43146271860626,76.51363585617676],[-42.409421123627105,76.50688970179246],[-42.398593089202514,76.50711055924802],[-42.389785789516296,76.50702845981485],[-42.38150546206934,76.50736190347372],[-42.37574276925542,76.50731940907558],[-42.3583117194756,76.5075767407069],[-42.34913955895777,76.50745495927008],[-42.32824789987157,76.50718257665474],[-42.32387339908741,76.50756486125343],[-42.30938912035106,76.50778277636768],[-42.30301750557084,76.50891293820267],[-42.27972241807794,76.51015237381877],[-42.26928486102287,76.5111182041071],[-42.25596389906461,76.51143206590358],[-42.248391144460996,76.51238015371901],[-42.257975999885716,76.51343958366121],[-42.279673415643984,76.51199473481019],[-42.30115342500117,76.51137356573665],[-42.32072101134828,76.50962178039708],[-42.34573281061702,76.5083714609942],[-42.359143098961624,76.50969728374962],[-42.356624080590365,76.51134891123216],[-42.36208775416595,76.51351817392371],[-42.382819785737965,76.51689011035349]]]}},{"type":"Feature","properties":{"N03_001":"愛媛県","N03_002":null,"N03_003":null,"N03_004":"伊予市","N03_007":"38210"},"geometry":{"type":"Polygon","coordinates":[[[-42.422131787409846,76.51928074774894],[-42.40277840781394,76.51657275745819],[-42.39481817016577,76.5176164443433],[-42.382819785737965,76.51689011035349],[-42.37689605072205,76.51838776968177],[-42.35814772508655,76.51810151637254],[-42.355909258925095,76.51559540750179],[-42.31766685607564,76.51448412845657],[-42.29330968866827,76.51603282546107],[-42.273839605316276,76.51989390073246],[-42.27105916308616,76.521992928319],[-42.300280892885894,76.52646779941927],[-42.28370429014823,76.52781804399554],[-42.285205214629,76.52850632397205],[-42.29882321744689,76.52812750834177],[-42.3269342822731,76.52841629714935],[-42.35365679083375,76.52372887970996],[-42.39543787323991,76.51947323893737],[-42.422131787409846,76.51928074774894]]]}},{"type":"Feature","properties":{"N03_001":"愛媛県","N03_002":null,"N03_003":null,"N03_004":"四国中央市","N03_007":"38213"},"geometry":{"type":"Polygon","coordinates":[[[-41.93136265578868,76.53758626009332],[-41.940083686804506,76.5367724525752],[-41.94557845500542,76.53325642292194],[-41.94048957530338,76.53142354278071],[-41.92069427107497,76.53255802117019],[-41.896135071519,76.53312585821377],[-41.894853368138484,76.53052145975067],[-41.87870222400249,76.53052470022217],[-41.86750793512976,76.53115950671035],[-41.86624903554316,76.53185128900365],[-41.846582581371706,76.53304640669555],[-41.830702951104726,76.53265980408334],[-41.82432491308161,76.53304842769681],[-41.808312879220544,76.53263024443885],[-41.78961779183314,76.532701592104],[-41.774522798019866,76.53394962433559],[-41.781604788323065,76.53461639599634],[-41.77184398158134,76.53578367178169],[-41.78046909434212,76.53696280656614],[-41.77803250825031,76.5378811412131],[-41.785597497887146,76.53847897373333],[-41.81441042807414,76.5383103199665],[-41.82189263630402,76.53882830325524],[-41.85537710332865,76.53645407483819],[-41.87579850284337,76.53600011286245],[-41.89382471271822,76.53654413504105],[-41.91836838582346,76.5374057696357],[-41.93136265578868,76.53758626009332]]]}},{"type":"Feature","properties":{"N03_001":"愛媛県","N03_002":null,"N03_003":null,"N03_004":"西予市","N03_007":"38214"},"geometry":{"type":"Polygon","coordinates":[[[-42.350263227127165,76.50574116653155],[-42.34724459697967,76.50587034833873],[-42.317007442183964,76.50625928676368],[-42.296768501140974,76.50622667441603],[-42.27723080749342,76.50572603934967],[-42.263669991051195,76.50659341503584],[-42.246382448286084,76.50716191073037],[-42.26282642067302,76.50818559092754],[-42.26062990451391,76.50900613290692],[-42.26876236925845,76.50958346611945],[-42.246135600626545,76.51058712021619],[-42.215317396882384,76.51069598792428],[-42.21694426054507,76.5118650657697],[-42.234385837904966,76.51170472622559],[-42.248391144460996,76.51238015371901],[-42.25596389906461,76.51143206590358],[-42.26928486102287,76.5111182041071],[-42.27972241807794,76.51015237381877],[-42.30301750557084,76.50891293820267],[-42.30938912035106,76.50778277636768],[-42.32387339908741,76.50756486125343],[-42.32824789987157,76.50718257665474],[-42.34913955895777,76.50745495927008],[-42.3583117194756,76.5075767407069],[-42.37574276925542,76.50731940907558],[-42.38150546206934,76.50736190347372],[-42.389785789516296,76.50702845981485],[-42.398593089202514,76.50711055924802],[-42.409421123627105,76.50688970179246],[-42.42827732394536,76.50537783366129],[-42.45030028020051,76.50471248563707],[-42.48398421333326,76.50490374197193],[-42.49116432972258,76.50481714514203],[-42.50388306289364,76.50509300853678],[-42.48181059119065,76.50392925523238],[-42.498269752135485,76.50309865755577],[-42.47270439648369,76.50249112361422],[-42.44477384605929,76.50323283709027],[-42.42611504862694,76.50345863695883],[-42.40966250403641,76.50501280009918],[-42.394170033150466,76.50518220479823],[-42.356036534735495,76.50564215400827],[-42.350263227127165,76.50574116653155]]]}},{"type":"Feature","properties":{"N03_001":"愛媛県","N03_002":null,"N03_003":null,"N03_004":"東温市","N03_007":"38215"},"geometry":{"type":"Polygon","coordinates":[[[-42.12953053264776,76.52696785133544],[-42.13097769854069,76.5301954302653],[-42.14468580652357,76.53011556734688],[-42.15728889779711,76.53231816298774],[-42.16914656612079,76.53377207240747],[-42.16861049829922,76.53418006730764],[-42.19159196250269,76.53466772063507],[-42.21843842174178,76.53393962868434],[-42.22124911739331,76.53251929698524],[-42.23531662670778,76.52906733242577],[-42.25316385986715,76.52835812896393],[-42.250036882206736,76.52701099545561],[-42.22360889118854,76.52311281475167],[-42.22156252287328,76.52282594584098],[-42.174243388822724,76.52317787945738],[-42.16409360064382,76.52411739126468],[-42.12953053264776,76.52696785133544]]]}}]}