{"type":"FeatureCollection","features":[{"type":"Feature","properties":{"N03_001":"新潟県","N03_002":null,"N03_003":"新潟市","N03_004":"北区","N03_007":"15101"},"geometry":{"type":"Polygon","coordinates":[[[-38.68715434683373,76.75627050691848],[-38.65200847792577,76.74123822054493],[-38.6278958142358,76.7337963879842],[-38.58964581171897,76.73589262709434],[-38.563720739084815,76.7382246330323],[-38.58418631533547,76.74545276418392],[-38.60224419006013,76.75050746335248],[-38.62520723477046,76.75321412384703],[-38.640212716126854,76.75384758278332],[-38.68715434683373,76.75627050691848]]]}},{"type":"Feature","properties":{"N03_001":"新潟県","N03_002":null,"N03_003":"新潟市","N03_004":"東区","N03_007":"15102"},"geometry":{"type":"Polygon","coordinates":[[[-38.68715434683373,76.75627050691848],[-38.771177408627146,76.75411065611269],[-38.716608665896175,76.73723065077357],[-38.65200847792577,76.74123822054493],[-38.68715434683373,76.75627050691848]]]}},{"type":"Feature","properties":{"N03_001":"新潟県","N03_002":null,"N03_003":"新潟市","N03_004":"中央区","N03_007":"15103"},"geometry":{"type":"Polygon","coordinates":[[[-38.771177408627146,76.75411065611269],[-38.83623762667043,76.74619985405607],[-38.8036310642334,76.73546742474713],[-38.78446365441254,76.73301097416834],[-38.716608665896175,76.73723065077357],[-38.771177408627146,76.75411065611269]]]}},{"type":"Feature","properties":{"N03_001":"新潟県","N03_002":null,"N03_003":"新潟市","N03_004":"江南区","N03_007":"15104"},"geometry":{"type":"Polygon","coordinates":[[[-38.65200847792577,76.74123822054493],[-38.716608665896175,76.73723065077357],[-38.78446365441254,76.73301097416834],[-38.8036310642334,76.73546742474713],[-38.795287028193556,76.73325105888689],[-38.763695132645736,76.73075630062097],[-38.7107432424526,76.72913435207198],[-38.644776198664644,76.72795872283645],[-38.640208531728426,76.73135770449038],[-38.6278958142358,76.7337963879842],[-38.65200847792577,76.74123822054493]]]}},{"type":"Feature","properties":{"N03_001":"新潟県","N03_002":null,"N03_003":"新潟市","N03_004":"秋葉区","N03_007":"15105"},"geometry":{"type":"Polygon","coordinates":[[[-38.763695132645736,76.73075630062097],[-38.75349136456859,76.72560607119905],[-38.727287631691986,76.71995921347319],[-38.739065873027364,76.7158823037337],[-38.697955538544626,76.71686503333568],[-38.675683601227504,76.71701168415105],[-38.6587029563494,76.71913079676199],[-38.634960522222194,76.72127176138171],[-38.644776198664644,76.72795872283645],[-38.7107432424526,76.72913435207198],[-38.763695132645736,76.73075630062097]]]}},{"type":"Feature","properties":{"N03_001":"新潟県","N03_002":null,"N03_003":"新潟市","N03_004":"南区","N03_007":"15106"},"geometry":{"type":"Polygon","coordinates":[[[-38.795287028193556,76.73325105888689],[-38.82661072462893,76.72908002662355],[-38.80978673891013,76.72112279233255],[-38.82565068323861,76.71981649614472],[-38.79963790085186,76.71472717320395],[-38.80338851585169,76.71404298185409],[-38.807277758543115,76.71417368339802],[-38.792677992010255,76.71353487824618],[-38.79429723691772,76.71427170707828],[-38.77895296234125,76.71426469550563],[-38.7680383426655,76.71409984995977],[-38.739065873027364,76.7158823037337],[-38.727287631691986,76.71995921347319],[-38.75349136456859,76.72560607119905],[-38.763695132645736,76.73075630062097],[-38.795287028193556,76.73325105888689]]]}},{"type":"Feature","properties":{"N03_001":"新潟県","N03_002":null,"N03_003":"新潟市","N03_004":"西区","N03_007":"15107"},"geometry":{"type":"Polygon","coordinates":[[[-38.83623762667043,76.74619985405607],[-38.913806660189806,76.73753952981771],[-38.926799848137215,76.73441268993611],[-38.92717289003561,76.73204976928537],[-38.879412895881316,76.72894094337073],[-38.84352345488828,76.72973510808563],[-38.82661072462893,76.72908002662355],[-38.795287028193556,76.73325105888689],[-38.8036310642334,76.73546742474713],[-38.83623762667043,76.74619985405607]]]}},{"type":"Feature","properties":{"N03_001":"新潟県","N03_002":null,"N03_003":"新潟市","N03_004":"西蒲区","N03_007":"15108"},"geometry":{"type":"Polygon","coordinates":[[[-38.82661072462893,76.72908002662355],[-38.84352345488828,76.72973510808563],[-38.879412895881316,76.72894094337073],[-38.92717289003561,76.73204976928537],[-38.926799848137215,76.73441268993611],[-38.946412649368675,76.73015151191939],[-38.95829434171483,76.72231312592],[-38.94778846029706,76.72216582961745],[-38.94435107277812,76.723146559139],[-38.91564402702695,76.7223830583491],[-38.865900296638316,76.72211226810376],[-38.82663473809613,76.717144699446],[-38.80338851585169,76.71404298185409],[-38.79963790085186,76.71472717320395],[-38.82565068323861,76.71981649614472],[-38.80978673891013,76.72112279233255],[-38.82661072462893,76.72908002662355]]]}},{"type":"Feature","properties":{"N03_001":"新潟県","N03_002":null,"N03_003":null,"N03_004":"三条市","N03_007":"15204"},"geometry":{"type":"Polygon","coordinates":[[[-38.619415501929986,76.7056341564525],[-38.63540117839192,76.70696411172936],[-38.675432212776414,76.70383585454337],[-38.69866043945369,76.70243869088107],[-38.7419920028021,76.70534554004175],[-38.763449004447814,76.70657137073285],[-38.77092841664507,76.71090029811762],[-38.792677992010255,76.71353487824618],[-38.807277758543115,76.71417368339802],[-38.81113205461463,76.71265144239675],[-38.83479254280719,76.71068034385722],[-38.88476494144275,76.7092722526864],[-38.891671167259396,76.70920138923914],[-38.859466886077804,76.71075454877045],[-38.80131728053756,76.70905001609205],[-38.783889190806725,76.70537253646226],[-38.77067844054149,76.70388390037262],[-38.76274084591054,76.70256756369923],[-38.7443964583282,76.70207837317113],[-38.729364970817535,76.70199106919421],[-38.714924248046216,76.70219629843264],[-38.71929688382224,76.70194142293828],[-38.728041370846945,76.70138512787358],[-38.726200295131676,76.70040575914052],[-38.71401540271144,76.69853812603488],[-38.71489399967939,76.69693831596146],[-38.707317431770825,76.69619108878487],[-38.6953445955693,76.69816929046095],[-38.678591767794956,76.69877029655225],[-38.660453389440626,76.70151934971294],[-38.64325910914173,76.70222013266255],[-38.619445422187496,76.7044721499539],[-38.619415501929986,76.7056341564525]]]}},{"type":"Feature","properties":{"N03_001":"新潟県","N03_002":null,"N03_003":null,"N03_004":"柏崎市","N03_007":"15205"},"geometry":{"type":"Polygon","coordinates":[[[-39.12555694610998,76.6946328105017],[-39.089187641875085,76.69504900243444],[-39.06750246435732,76.69470379811298],[-39.090635480716344,76.69258996534114],[-39.07770199165417,76.69283998543446],[-39.051380163075066,76.69217428153434],[-39.037253535680904,76.69183090284535],[-39.01514979641064,76.69127968781852],[-38.99786248868664,76.69077178722337],[-38.98851396761374,76.69093619491673],[-38.99243489011138,76.69266575279904],[-39.01168814163105,76.69548987446004],[-39.005579241956426,76.69683923108622],[-38.98482313458206,76.69867465599916],[-38.97276452385993,76.70016486011643],[-38.98320049539764,76.70063149581279],[-38.99364303785478,76.70164197918018],[-38.98669035855077,76.7025610067663],[-38.9717485617833,76.70525058629812],[-39.00612785623182,76.70833279223486],[-39.02547131656402,76.70529147847478],[-39.039061365381855,76.70151409716259],[-39.05990926851749,76.69907287323312],[-39.087889761091255,76.6978453667225],[-39.12555694610998,76.6946328105017]],[[-39.01845318424574,76.70370941446983],[-39.011050890127706,76.70206683886086],[-39.02250159300842,76.70052001193037],[-39.03753030985319,76.70053638702953],[-39.01845318424574,76.70370941446983]]]}},{"type":"Feature","properties":{"N03_001":"新潟県","N03_002":null,"N03_003":null,"N03_004":"新発田市","N03_007":"15206"},"geometry":{"type":"Polygon","coordinates":[[[-38.41502328837762,76.73748917071613],[-38.42826402962357,76.73731807105328],[-38.438090378756584,76.73656620026462],[-38.45248887911886,76.73690045267767],[-38.45404968162748,76.737400490949],[-38.47094555625113,76.73737912038702],[-38.46825239801988,76.73797505477408],[-38.475909201969486,76.73852063436237],[-38.47681574222478,76.74092026094083],[-38.50673448219162,76.74611949274708],[-38.55220325937564,76.75025787381772],[-38.554766628001374,76.74868775745831],[-38.574600397600946,76.75276531238218],[-38.58592966315813,76.75207581515876],[-38.57689124600761,76.75021360323012],[-38.58779699914532,76.75005694793529],[-38.56136068912365,76.745356170227],[-38.55748018907165,76.74214247358152],[-38.58418631533547,76.74545276418392],[-38.563720739084815,76.7382246330323],[-38.54777632532408,76.73741736893074],[-38.53688799151004,76.73751782956641],[-38.52108608799896,76.73663742289222],[-38.5237300769089,76.7347855443744],[-38.51374920404237,76.73552471282059],[-38.50199161868642,76.73466055887197],[-38.48477453726985,76.73154480770513],[-38.460755840500134,76.73171517091023],[-38.403444884733126,76.73367588519784],[-38.38461379436049,76.7346053287497],[-38.38516104660339,76.73462163250693],[-38.41502328837762,76.73748917071613]]]}},{"type":"Feature","properties":{"N03_001":"新潟県","N03_002":null,"N03_003":null,"N03_004":"小千谷市","N03_007":"15208"},"geometry":{"type":"Polygon","coordinates":[[[-38.81254368646117,76.69296542149031],[-38.80631411329252,76.69286043370285],[-38.81225709812621,76.69338232487341],[-38.84022090635031,76.69533133312633],[-38.83858837154642,76.6958789767385],[-38.88485948549264,76.69877217729996],[-38.89207738171224,76.69950181678944],[-38.91918643839732,76.70033565292702],[-38.94311652596027,76.70028714860885],[-38.95775181046811,76.69851514489082],[-38.95759509927531,76.69192287502523],[-38.96308663931206,76.69040987973074],[-38.957137532695654,76.68983667507024],[-38.887143229900175,76.68965961186477],[-38.875527016000966,76.69016413080917],[-38.86486927953128,76.69071299655732],[-38.87316688538293,76.69253835521239],[-38.84993363546334,76.69510675906638],[-38.81254368646117,76.69296542149031]]]}},{"type":"Feature","properties":{"N03_001":"新潟県","N03_002":null,"N03_003":null,"N03_004":"加茂市","N03_007":"15209"},"geometry":{"type":"Polygon","coordinates":[[[-38.792677992010255,76.71353487824618],[-38.77092841664507,76.71090029811762],[-38.763449004447814,76.70657137073285],[-38.7419920028021,76.70534554004175],[-38.69866043945369,76.70243869088107],[-38.675432212776414,76.70383585454337],[-38.63540117839192,76.70696411172936],[-38.632571083833696,76.7100567851358],[-38.64158214467282,76.710398575566],[-38.65226861666509,76.70775313480145],[-38.664814126081566,76.70709486919252],[-38.67393774397772,76.71562406230403],[-38.701566599463675,76.7160676613097],[-38.71241647083183,76.71710514483296],[-38.76232217456743,76.7136195889095],[-38.7680383426655,76.71409984995977],[-38.77895296234125,76.71426469550563],[-38.79429723691772,76.71427170707828],[-38.792677992010255,76.71353487824618]]]}},{"type":"Feature","properties":{"N03_001":"新潟県","N03_002":null,"N03_003":null,"N03_004":"十日町市","N03_007":"15210"},"geometry":{"type":"Polygon","coordinates":[[[-38.875527016000966,76.69016413080917],[-38.887143229900175,76.68965961186477],[-38.957137532695654,76.68983667507024],[-38.96308663931206,76.69040987973074],[-38.99243489011138,76.69266575279904],[-38.98851396761374,76.69093619491673],[-38.99786248868664,76.69077178722337],[-39.01514979641064,76.69127968781852],[-39.037253535680904,76.69183090284535],[-39.051380163075066,76.69217428153434],[-39.0534568125573,76.69202637532207],[-39.081388461741696,76.6922027064311],[-39.085883687032585,76.69247373976916],[-39.06307043505142,76.69213366004377],[-39.06242751808392,76.69204500786618],[-39.07341849910856,76.69229310973667],[-39.04047358178555,76.69137018567896],[-39.01888209460374,76.69122839697519],[-39.00435113271107,76.69094124888733],[-38.98457104112604,76.69047061291552],[-38.973569865573026,76.69018492670276],[-38.97347113053209,76.69025593678923],[-38.95493485111674,76.6898081200746],[-38.95701724892241,76.68932397809772],[-38.981630397377124,76.68885261355184],[-38.9874819304433,76.68730731417917],[-38.9753158712726,76.68585668002474],[-38.96068715405229,76.68505678523753],[-38.920022871547324,76.68909466277029],[-38.92656036410424,76.68946384487876],[-38.9239866797059,76.6902363778481],[-38.908268052795684,76.69016019607533],[-38.879231974001115,76.68995296409175],[-38.84983587846116,76.69079107027525],[-38.87098169344081,76.69016450297892],[-38.87851959811038,76.68998446451492],[-38.875527016000966,76.69016413080917]]]}},{"type":"Feature","properties":{"N03_001":"新潟県","N03_002":null,"N03_003":null,"N03_004":"見附市","N03_007":"15211"},"geometry":{"type":"Polygon","coordinates":[[[-38.76274084591054,76.70256756369923],[-38.77067844054149,76.70388390037262],[-38.783889190806725,76.70537253646226],[-38.80131728053756,76.70905001609205],[-38.859466886077804,76.71075454877045],[-38.891671167259396,76.70920138923914],[-38.89524190109544,76.70495691765144],[-38.8603110417361,76.69815617097176],[-38.78956780076278,76.69852531027253],[-38.772520245565524,76.7008996654561],[-38.76274084591054,76.70256756369923]]]}},{"type":"Feature","properties":{"N03_001":"新潟県","N03_002":null,"N03_003":null,"N03_004":"村上市","N03_007":"15212"},"geometry":{"type":"Polygon","coordinates":[[[-38.516407157446444,76.7588865052561],[-38.52008792805955,76.75747287001798],[-38.50980516011061,76.75664750662813],[-38.487668953832745,76.75637961789309],[-38.47589507259259,76.75659997431315],[-38.463998580622054,76.75821625837747],[-38.465975145076456,76.76037269261727],[-38.432875392574175,76.7620919395004],[-38.423169078830895,76.76202244286053],[-38.40991145483524,76.76183004068002],[-38.39875989377826,76.76144534387839],[-38.40032080972906,76.76163828777995],[-38.390949939762784,76.76126890480187],[-38.37369871867449,76.7608380568423],[-38.3624649762889,76.76006156182913],[-38.31761207717981,76.75792134202223],[-38.31053998696867,76.75839305303673],[-38.295514777813445,76.75833038929251],[-38.29736212446493,76.75878706080299],[-38.31593760879391,76.75944048344867],[-38.35632839770588,76.75933907599656],[-38.367003804297305,76.75939449653187],[-38.38608158807916,76.75932135603696],[-38.396101648127214,76.75891467852298],[-38.39119948398324,76.7585758984713],[-38.39268330192904,76.75919762858919],[-38.38451014803092,76.76196383677484],[-38.39612827595623,76.76241183673633],[-38.41879271862506,76.76229180907872],[-38.439080117292434,76.76415900595735],[-38.46371482247655,76.76696627146332],[-38.461936485383355,76.76616954348077],[-38.47436334139608,76.76200258364872],[-38.48303149469314,76.75969744210705],[-38.48308132685205,76.76125870599752],[-38.482565241578634,76.76175500978209],[-38.49541436947554,76.76143889214995],[-38.49747516154189,76.76094787310883],[-38.516407157446444,76.7588865052561]]]}},{"type":"Feature","properties":{"N03_001":"新潟県","N03_002":null,"N03_003":null,"N03_004":"上越市","N03_007":"15222"},"geometry":{"type":"Polygon","coordinates":[[[-39.12555694610998,76.6946328105017],[-39.15555066181836,76.69090573950515],[-39.18027826840477,76.69193312885831],[-39.19974667473404,76.69228569792341],[-39.229199954599736,76.69238971339273],[-39.26495230426296,76.69312116067039],[-39.28955102589546,76.69273166570052],[-39.278672084965336,76.69243537497462],[-39.287499332771375,76.69196961438746],[-39.278153068274236,76.69187796260104],[-39.29497534616758,76.6904051648387],[-39.28982425213413,76.6897617469331],[-39.255541564096546,76.6899120139452],[-39.21841520907278,76.69242588864633],[-39.21136389344214,76.69208600725044],[-39.193239136154915,76.69474654737847],[-39.1970809659068,76.69455016676828],[-39.22477661987478,76.69349413986022],[-39.25227747411536,76.69093378421124],[-39.26746762969599,76.69069440602891],[-39.25508014832553,76.6919365434005],[-39.24847518629117,76.69294786129106],[-39.23074905892991,76.69371198998485],[-39.219984764533486,76.69379035173928],[-39.20839852760483,76.69366429108383],[-39.182856091504185,76.6933426783618],[-39.186867670330685,76.6936755934922],[-39.17554828576377,76.6947007281471],[-39.16344591889245,76.69478833492252],[-39.156842051676,76.69497135648253],[-39.14559120656385,76.69490492087405],[-39.14023323743412,76.69475492560905],[-39.1176617586702,76.6942700909203],[-39.07690257761546,76.69240655279593],[-39.07341849910856,76.69229310973667],[-39.06242751808392,76.69204500786618],[-39.06307043505142,76.69213366004377],[-39.085883687032585,76.69247373976916],[-39.081388461741696,76.6922027064311],[-39.0534568125573,76.69202637532207],[-39.051380163075066,76.69217428153434],[-39.07770199165417,76.69283998543446],[-39.090635480716344,76.69258996534114],[-39.06750246435732,76.69470379811298],[-39.089187641875085,76.69504900243444],[-39.12555694610998,76.6946328105017]]]}},{"type":"Feature","properties":{"N03_001":"新潟県","N03_002":null,"N03_003":null,"N03_004":"阿賀野市","N03_007":"15223"},"geometry":{"type":"Polygon","coordinates":[[[-38.6278958142358,76.7337963879842],[-38.640208531728426,76.73135770449038],[-38.644776198664644,76.72795872283645],[-38.634960522222194,76.72127176138171],[-38.61042475539129,76.71983963897414],[-38.58195546298112,76.7205595266974],[-38.57688183373094,76.72170492962097],[-38.551317966398024,76.72467931894194],[-38.5237300769089,76.7347855443744],[-38.52108608799896,76.73663742289222],[-38.53688799151004,76.73751782956641],[-38.54777632532408,76.73741736893074],[-38.563720739084815,76.7382246330323],[-38.58964581171897,76.73589262709434],[-38.6278958142358,76.7337963879842]]]}},{"type":"Feature","properties":{"N03_001":"新潟県","N03_002":null,"N03_003":null,"N03_004":"佐渡市","N03_007":"15224"},"geometry":{"type":"Polygon","coordinates":[[[-39.07352356010086,76.75756772679456],[-39.10140561482272,76.75547651560046],[-39.11720873533319,76.75114957237234],[-39.1288750504086,76.75047331341382],[-39.15355647679064,76.74554307203177],[-39.16292174548709,76.7446754647501],[-39.17470369648385,76.74330795493985],[-39.181564762774485,76.7433134508977],[-39.19015259390435,76.74340826967068],[-39.195453438687196,76.7434259144476],[-39.193632514512544,76.74352725517065],[-39.19658840583301,76.74351184871766],[-39.19019672938824,76.74356155179898],[-39.181765168341016,76.74366193277491],[-39.17134616494161,76.7435815386762],[-39.159215941742325,76.7436872153476],[-39.16313195809452,76.74394797402519],[-39.171694207104,76.74381669082753],[-39.188791472156964,76.74081836969177],[-39.18717980521767,76.73899332918744],[-39.20126255278335,76.73524696304979],[-39.2283239824016,76.73370651803712],[-39.23073435184652,76.73174204717061],[-39.213718413269454,76.7314927184439],[-39.18572642153984,76.7338919748306],[-39.15968895315079,76.73470565841532],[-39.12926383352413,76.74025995310653],[-39.1128232043569,76.74198563512341],[-39.104352755483525,76.74384576721009],[-39.10359006655507,76.74425988431327],[-39.07548880123861,76.74454399517829],[-39.07576315501466,76.74457767740488],[-39.107830482410016,76.74419383080986],[-39.122578755747405,76.7443066534426],[-39.123646879081804,76.7439807041746],[-39.118395242081974,76.74365981243022],[-39.093012819329864,76.7479349699554],[-39.07610647847323,76.75312176064844],[-39.06966508947824,76.75656919619425],[-39.07352356010086,76.75756772679456]]]}},{"type":"Feature","properties":{"N03_001":"新潟県","N03_002":null,"N03_003":null,"N03_004":"燕市","N03_007":"15213"},"geometry":{"type":"Polygon","coordinates":[[[-38.80338851585169,76.71404298185409],[-38.82663473809613,76.717144699446],[-38.865900296638316,76.72211226810376],[-38.91564402702695,76.7223830583491],[-38.903173531248676,76.71687441557107],[-38.948779335517095,76.71930105621774],[-38.955360118236115,76.71696916586738],[-38.923042011781384,76.71098055770707],[-38.88476494144275,76.7092722526864],[-38.83479254280719,76.71068034385722],[-38.81113205461463,76.71265144239675],[-38.807277758543115,76.71417368339802],[-38.80338851585169,76.71404298185409]]]}},{"type":"Feature","properties":{"N03_001":"新潟県","N03_002":null,"N03_003":null,"N03_004":"糸魚川市","N03_007":"15216"},"geometry":{"type":"Polygon","coordinates":[[[-39.28955102589546,76.69273166570052],[-39.3041579364368,76.69198896755647],[-39.33398723979435,76.69047705092014],[-39.3827386398678,76.68756299876192],[-39.41624751893847,76.68750872770464],[-39.42233825080626,76.68749834092912],[-39.48062316732253,76.68790368539311],[-39.52492131109178,76.68775209378612],[-39.490229349814406,76.68691418398878],[-39.47286061031446,76.68718575043268],[-39.467383161802374,76.68707290158147],[-39.47702926502884,76.68604582310569],[-39.467380736064456,76.68582689679866],[-39.47436138452353,76.68339364824419],[-39.46463774378874,76.68231427579656],[-39.462771636473676,76.68063060804879],[-39.46135207024725,76.68075660714321],[-39.42944989686402,76.68373641623377],[-39.42145499360033,76.68562226978625],[-39.39875291738555,76.68787581199125],[-39.405079111756706,76.6877246808537],[-39.400212880203384,76.68744103999947],[-39.38096542693486,76.6875070388832],[-39.345251637923994,76.68833643774877],[-39.337039954891104,76.68840644436692],[-39.31874816233515,76.68838654364696],[-39.31026550383965,76.6886744663174],[-39.28354697356178,76.68955260259389],[-39.28982425213413,76.6897617469331],[-39.29497534616758,76.6904051648387],[-39.278153068274236,76.69187796260104],[-39.287499332771375,76.69196961438746],[-39.278672084965336,76.69243537497462],[-39.28955102589546,76.69273166570052]]]}},{"type":"Feature","properties":{"N03_001":"新潟県","N03_002":null,"N03_003":null,"N03_004":"妙高市","N03_007":"15217"},"geometry":{"type":"Polygon","coordinates":[[[-39.28982425213413,76.6897617469331],[-39.28354697356178,76.68955260259389],[-39.31026550383965,76.6886744663174],[-39.31874816233515,76.68838654364696],[-39.337039954891104,76.68840644436692],[-39.345251637923994,76.68833643774877],[-39.33786290086892,76.68828454021838],[-39.343168208025084,76.68785905512917],[-39.339328218477704,76.68695279170635],[-39.34569573416268,76.68631460244919],[-39.32761953422751,76.68441876538873],[-39.30841632060864,76.68360342550851],[-39.29904437969191,76.68499060948562],[-39.28456480247869,76.68534216177896],[-39.25483779094309,76.68486270497534],[-39.2347597909786,76.6855512815162],[-39.223905561671955,76.6866364212855],[-39.19288802337097,76.68650876222911],[-39.19049046010336,76.68525355470697],[-39.17876300037127,76.6865539104926],[-39.1770154831001,76.69088714316275],[-39.1677989794569,76.69242926351585],[-39.15641823274926,76.69187566080207],[-39.1492822855712,76.6939671025664],[-39.14559120656385,76.69490492087405],[-39.156842051676,76.69497135648253],[-39.16344591889245,76.69478833492252],[-39.17554828576377,76.6947007281471],[-39.186867670330685,76.6936755934922],[-39.182856091504185,76.6933426783618],[-39.20839852760483,76.69366429108383],[-39.219984764533486,76.69379035173928],[-39.23074905892991,76.69371198998485],[-39.24847518629117,76.69294786129106],[-39.25508014832553,76.6919365434005],[-39.26746762969599,76.69069440602891],[-39.25227747411536,76.69093378421124],[-39.22477661987478,76.69349413986022],[-39.1970809659068,76.69455016676828],[-39.193239136154915,76.69474654737847],[-39.21136389344214,76.69208600725044],[-39.21841520907278,76.69242588864633],[-39.255541564096546,76.6899120139452],[-39.28982425213413,76.6897617469331]]]}},{"type":"Feature","properties":{"N03_001":"新潟県","N03_002":null,"N03_003":null,"N03_004":"五泉市","N03_007":"15218"},"geometry":{"type":"Polygon","coordinates":[[[-38.697955538544626,76.71686503333568],[-38.71241647083183,76.71710514483296],[-38.701566599463675,76.7160676613097],[-38.67393774397772,76.71562406230403],[-38.664814126081566,76.70709486919252],[-38.65226861666509,76.70775313480145],[-38.64158214467282,76.710398575566],[-38.632571083833696,76.7100567851358],[-38.63540117839192,76.70696411172936],[-38.619415501929986,76.7056341564525],[-38.58757443409966,76.70901506245453],[-38.59191382771012,76.71009509352004],[-38.57988022186614,76.71211730953362],[-38.566273189670476,76.71337618399298],[-38.56324281433968,76.71522474142216],[-38.57506934145575,76.71581699225806],[-38.57657544939918,76.71810385172452],[-38.58820041881637,76.7180750361448],[-38.58195546298112,76.7205595266974],[-38.61042475539129,76.71983963897414],[-38.634960522222194,76.72127176138171],[-38.6587029563494,76.71913079676199],[-38.675683601227504,76.71701168415105],[-38.697955538544626,76.71686503333568]]]}},{"type":"Feature","properties":{"N03_001":"新潟県","N03_002":null,"N03_003":null,"N03_004":"魚沼市","N03_007":"15225"},"geometry":{"type":"Polygon","coordinates":[[[-38.678591767794956,76.69877029655225],[-38.6953445955693,76.69816929046095],[-38.707317431770825,76.69619108878487],[-38.71489399967939,76.69693831596146],[-38.74246498208852,76.69559890276501],[-38.75743958186936,76.6948573619612],[-38.77158506915555,76.69335170518481],[-38.787416198528945,76.69487738120172],[-38.79718771436398,76.69261543339591],[-38.80631411329252,76.69286043370285],[-38.81254368646117,76.69296542149031],[-38.8316662720264,76.6919766690589],[-38.87851959811038,76.68998446451492],[-38.87098169344081,76.69016450297892],[-38.8433600408268,76.69135567561229],[-38.832729815373824,76.69156264219524],[-38.79529049675987,76.6929033017701],[-38.78352812275672,76.69330330357236],[-38.7653070020808,76.69360051570573],[-38.762690711185776,76.69414247923453],[-38.7439557576904,76.69458004333255],[-38.7433143427164,76.69555936179113],[-38.73824763746138,76.69558390242352],[-38.72762754814779,76.69542509153104],[-38.723678798550736,76.69431359312466],[-38.69896468535048,76.69102989413578],[-38.69707082747541,76.68931087437494],[-38.66773393928668,76.68737559383472],[-38.658210612401774,76.68835067463287],[-38.658702011941756,76.6898657340513],[-38.66681209261967,76.69145311679883],[-38.660997673408076,76.69265223643364],[-38.680108869680176,76.69534778319537],[-38.682825588610555,76.69550149879892],[-38.676043608870465,76.69515022718213],[-38.68130232598238,76.69482491193303],[-38.69552462835676,76.69449124662358],[-38.70502326168956,76.69428951961986],[-38.70224639357608,76.69404578919755],[-38.689100197849335,76.69362803941023],[-38.67175561650531,76.69524085717866],[-38.66324308173218,76.69816280035201],[-38.678591767794956,76.69877029655225]]]}},{"type":"Feature","properties":{"N03_001":"新潟県","N03_002":null,"N03_003":null,"N03_004":"南魚沼市","N03_007":"15226"},"geometry":{"type":"Polygon","coordinates":[[[-38.73824763746138,76.69558390242352],[-38.7433143427164,76.69555936179113],[-38.7439557576904,76.69458004333255],[-38.762690711185776,76.69414247923453],[-38.7653070020808,76.69360051570573],[-38.78352812275672,76.69330330357236],[-38.79529049675987,76.6929033017701],[-38.832729815373824,76.69156264219524],[-38.8433600408268,76.69135567561229],[-38.87098169344081,76.69016450297892],[-38.84983587846116,76.69079107027525],[-38.879231974001115,76.68995296409175],[-38.908268052795684,76.69016019607533],[-38.9239866797059,76.6902363778481],[-38.92656036410424,76.68946384487876],[-38.920022871547324,76.68909466277029],[-38.89456819610591,76.68846153061439],[-38.87329190640279,76.68878609011841],[-38.853291584739594,76.68850942223932],[-38.84025154403886,76.6877926781976],[-38.83009472590286,76.6857798772788],[-38.80421172230051,76.68565889528095],[-38.81192545069404,76.6890236560983],[-38.80736894347626,76.69009790081671],[-38.77539619538746,76.69088622091296],[-38.7426889578932,76.6937419315595],[-38.73824763746138,76.69558390242352]]]}},{"type":"Feature","properties":{"N03_001":"新潟県","N03_002":null,"N03_003":null,"N03_004":"胎内市","N03_007":"15227"},"geometry":{"type":"Polygon","coordinates":[[[-38.47589507259259,76.75659997431315],[-38.487668953832745,76.75637961789309],[-38.50980516011061,76.75664750662813],[-38.52008792805955,76.75747287001798],[-38.516407157446444,76.7588865052561],[-38.55620263014006,76.75467174592761],[-38.574600397600946,76.75276531238218],[-38.554766628001374,76.74868775745831],[-38.55220325937564,76.75025787381772],[-38.50673448219162,76.74611949274708],[-38.47681574222478,76.74092026094083],[-38.475909201969486,76.73852063436237],[-38.46825239801988,76.73797505477408],[-38.47094555625113,76.73737912038702],[-38.45404968162748,76.737400490949],[-38.45248887911886,76.73690045267767],[-38.438090378756584,76.73656620026462],[-38.42826402962357,76.73731807105328],[-38.41502328837762,76.73748917071613],[-38.417442033053796,76.73857006848613],[-38.42719603822041,76.73906679357525],[-38.446462715553096,76.73848918391907],[-38.43945023737605,76.74085031831291],[-38.45248273521107,76.74434247220897],[-38.44417267048983,76.74875948884456],[-38.45543262709633,76.7545584070547],[-38.457164474905284,76.75621922592836],[-38.47589507259259,76.75659997431315]]]}}]}