{"type":"FeatureCollection","features":[{"type":"Feature","properties":{"N03_001":"長野県","N03_002":null,"N03_003":null,"N03_004":"長野市","N03_007":"20201"},"geometry":{"type":"Polygon","coordinates":[[[-39.371989191304465,76.66861671520913],[-39.407230820397054,76.66425324908981],[-39.399320881594626,76.66412726721694],[-39.383116690864966,76.6652236389671],[-39.395464598836305,76.6630769771161],[-39.381268052293066,76.6617223487879],[-39.36856632186727,76.66293343657195],[-39.355187329512184,76.66378690696521],[-39.33802181478982,76.67063689552259],[-39.30738993537261,76.67175376252155],[-39.296495066196734,76.67155191107138],[-39.28119491050737,76.67139702905295],[-39.27116692306024,76.67119624265769],[-39.24643630090785,76.66436342363198],[-39.22263988452602,76.66182027720207],[-39.20297299439172,76.66350197253756],[-39.220137045071304,76.66814717272761],[-39.24002348934763,76.66965295277552],[-39.25356863285623,76.66970792051953],[-39.23714568936048,76.66964649543456],[-39.22856687529341,76.67015574914416],[-39.21202528449133,76.67041092923989],[-39.22552279492965,76.67119228064087],[-39.243387094425636,76.67053341671944],[-39.253984187323965,76.66910337657514],[-39.26882944940129,76.66889178125636],[-39.27612462916355,76.6688605662738],[-39.294627416134865,76.66842332720431],[-39.308196108378105,76.66879568053304],[-39.305646565027196,76.67328469654093],[-39.30984955007317,76.67513364524692],[-39.319631223238815,76.67174965194033],[-39.33456424138589,76.67250426658538],[-39.34940854125588,76.67439081322037],[-39.362570939281696,76.67111970810636],[-39.368175484434516,76.66881963494777],[-39.381698702471894,76.66821436461373],[-39.36444926294047,76.66843700526572],[-39.34493504949048,76.66903985026151],[-39.348385429019686,76.66958550718499],[-39.36162835783266,76.66911795902617],[-39.371989191304465,76.66861671520913]]]}},{"type":"Feature","properties":{"N03_001":"長野県","N03_002":null,"N03_003":null,"N03_004":"松本市","N03_007":"20202"},"geometry":{"type":"Polygon","coordinates":[[[-39.36208401484544,76.65495431726615],[-39.377648370401985,76.65172184580527],[-39.400309300754124,76.64592654118591],[-39.39345249007814,76.64640892959513],[-39.39481827926453,76.64681331905105],[-39.40386824030149,76.64698672835715],[-39.41254373450726,76.64860505281021],[-39.431155829772734,76.64896971243591],[-39.44797029021431,76.64851580620234],[-39.46118970971948,76.64868430810132],[-39.46006771762819,76.64725372063509],[-39.474364594510085,76.64730414829168],[-39.48094157240979,76.64619123976547],[-39.48261826154747,76.64542899450637],[-39.51151871092296,76.65265746763475],[-39.502448366188005,76.64725641844113],[-39.52748092763012,76.6509382474993],[-39.501432445709845,76.64722162784858],[-39.5082412612163,76.64783527158184],[-39.54061841091985,76.65015848056075],[-39.52682011788993,76.65064776728711],[-39.537853082228146,76.65083838522338],[-39.56210995245536,76.64985932077906],[-39.58305641463272,76.64773490325126],[-39.57388518894634,76.64748207917954],[-39.554073498989204,76.64863778621594],[-39.55673752922116,76.64743261318468],[-39.5718420095623,76.64366045351866],[-39.55548784165944,76.64498209245916],[-39.54330840173089,76.64420915643262],[-39.52886806010233,76.64551119823939],[-39.48138550996364,76.65511386778975],[-39.47615945548039,76.65524800636231],[-39.47033423245292,76.65469807892785],[-39.464067492924585,76.6541628680749],[-39.45534019426154,76.65215648236143],[-39.429475891096146,76.6504299976161],[-39.42064237172632,76.6510328766194],[-39.430064729017076,76.65192480645233],[-39.427843414048034,76.65260346039985],[-39.41383679799569,76.65157644716659],[-39.4006862591096,76.6516919180644],[-39.39760140081377,76.65218384739585],[-39.37591634622332,76.65304393941136],[-39.368868284414695,76.65236786851794],[-39.32354199248571,76.65273411279854],[-39.29011447919123,76.65176801141668],[-39.293549812055986,76.65255442682883],[-39.300748917272024,76.65266284800603],[-39.33167309261075,76.65209428583798],[-39.3305202695865,76.65249417360315],[-39.31850959515335,76.6537474679044],[-39.3232279469179,76.65437929886139],[-39.31197118593323,76.65536166514975],[-39.330255917312854,76.6553193357004],[-39.36208401484544,76.65495431726615]]]}},{"type":"Feature","properties":{"N03_001":"長野県","N03_002":null,"N03_003":null,"N03_004":"上田市","N03_007":"20203"},"geometry":{"type":"Polygon","coordinates":[[[-39.11757362152683,76.66406621564096],[-39.13855052730656,76.66372612910695],[-39.18520777348874,76.66290989739487],[-39.20297299439172,76.66350197253756],[-39.22263988452602,76.66182027720207],[-39.24643630090785,76.66436342363198],[-39.24416794577919,76.66066554942968],[-39.23839080878488,76.65799536581817],[-39.24084527590812,76.65759972985136],[-39.23750866033472,76.65770912835583],[-39.266660148246466,76.6559091583674],[-39.280016586085175,76.6554217870735],[-39.28344764841131,76.65544161149121],[-39.28600855710112,76.65577212412636],[-39.272296776447824,76.6559227692685],[-39.27111642453723,76.65603172782464],[-39.280759313281024,76.65608951296838],[-39.31850959515335,76.6537474679044],[-39.3305202695865,76.65249417360315],[-39.33167309261075,76.65209428583798],[-39.300748917272024,76.65266284800603],[-39.29446430909887,76.65290358715835],[-39.27096243978899,76.6524588956281],[-39.23703962474094,76.65156460418338],[-39.22765478928075,76.65246455468254],[-39.234067248624115,76.654906833802],[-39.22836253041455,76.65493485570046],[-39.21735250084494,76.65361792361155],[-39.21740341750697,76.65421574575556],[-39.21221594297476,76.65379692024356],[-39.21549934479293,76.65436270697009],[-39.22422921908568,76.65513041643231],[-39.20485270140382,76.66043746620475],[-39.18480408914432,76.66286453278867],[-39.12505489671636,76.66300747892237],[-39.131608452760034,76.66333920885691],[-39.11757362152683,76.66406621564096]]]}},{"type":"Feature","properties":{"N03_001":"長野県","N03_002":null,"N03_003":null,"N03_004":"岡谷市","N03_007":"20204"},"geometry":{"type":"Polygon","coordinates":[[[-39.37591634622332,76.65304393941136],[-39.38312357615588,76.65497125200787],[-39.368787532390385,76.64864229670185],[-39.35428332617498,76.63536709474901],[-39.33412290681046,76.63306266834971],[-39.31956828226051,76.63269776003531],[-39.29107641933134,76.64205467061748],[-39.30786108927602,76.64669110675626],[-39.323331999572304,76.65319355503108],[-39.32354199248571,76.65273411279854],[-39.368868284414695,76.65236786851794],[-39.37591634622332,76.65304393941136]]]}},{"type":"Feature","properties":{"N03_001":"長野県","N03_002":null,"N03_003":null,"N03_004":"飯田市","N03_007":"20205"},"geometry":{"type":"Polygon","coordinates":[[[-39.43724823327758,76.61205434539353],[-39.45007702565004,76.61444493185085],[-39.45589964417561,76.61547477416191],[-39.46515220486567,76.61444957002357],[-39.48922879446117,76.61448762934324],[-39.490914021910235,76.61322001205596],[-39.50276314038632,76.61323106091963],[-39.50262109109896,76.61231928297464],[-39.483079745181335,76.61053284881565],[-39.444946943135974,76.60950618679388],[-39.42895664553731,76.60941879589382],[-39.4030576564761,76.60954520603703],[-39.389553644297706,76.61032566379698],[-39.3997249354099,76.61038143380954],[-39.42005163426165,76.6097161051595],[-39.4141801569665,76.60819235677914],[-39.398898523446555,76.60703041301659],[-39.401405256038736,76.60495552228427],[-39.39040044833389,76.6046724557461],[-39.38583859399806,76.60647073237284],[-39.368917926493104,76.60683328606648],[-39.3593199164434,76.60784431946847],[-39.345624205812044,76.60701136560724],[-39.34511423031822,76.60818393928366],[-39.329785416488434,76.60843332927504],[-39.31189601135016,76.60720915977788],[-39.297610193999965,76.60766988028985],[-39.28141424328209,76.60744594186633],[-39.27568750177067,76.60828276619053],[-39.29764050599387,76.60925600912843],[-39.298259986110004,76.60975256908156],[-39.32408631425091,76.6096174790891],[-39.348074394984025,76.60927022336202],[-39.36418832046754,76.60891345734109],[-39.36523749059851,76.60899084604492],[-39.37897486986275,76.60918880768146],[-39.38994079907976,76.60904229430069],[-39.39116957636316,76.6094715016614],[-39.408010915956254,76.60931246474621],[-39.404902349145075,76.60911934996004],[-39.41199028858017,76.6087735219448],[-39.406116071282845,76.60850417732443],[-39.430412048857235,76.60880698561785],[-39.4389977064769,76.61127438970502],[-39.43724823327758,76.61205434539353]]]}},{"type":"Feature","properties":{"N03_001":"長野県","N03_002":null,"N03_003":null,"N03_004":"諏訪市","N03_007":"20206"},"geometry":{"type":"Polygon","coordinates":[[[-39.33412290681046,76.63306266834971],[-39.32203347688777,76.6291259381615],[-39.32689993615605,76.62884498027786],[-39.31086711999042,76.62651281634253],[-39.29774920112152,76.62649488991599],[-39.2817463230915,76.62676774936688],[-39.27908529768194,76.62736871717514],[-39.238093490886136,76.63490982061916],[-39.238569861984104,76.64086967001785],[-39.23501725938798,76.64323831481751],[-39.23914683713702,76.64606096283978],[-39.23145893048823,76.64654649357247],[-39.25493546207416,76.64862599184262],[-39.24734982147348,76.64727607201881],[-39.26411514773724,76.6478489108042],[-39.273505656966854,76.64680030504591],[-39.29107641933134,76.64205467061748],[-39.31956828226051,76.63269776003531],[-39.33412290681046,76.63306266834971]]]}},{"type":"Feature","properties":{"N03_001":"長野県","N03_002":null,"N03_003":null,"N03_004":"須坂市","N03_007":"20207"},"geometry":{"type":"Polygon","coordinates":[[[-39.23714568936048,76.66964649543456],[-39.25356863285623,76.66970792051953],[-39.24002348934763,76.66965295277552],[-39.220137045071304,76.66814717272761],[-39.20297299439172,76.66350197253756],[-39.18520777348874,76.66290989739487],[-39.13855052730656,76.66372612910695],[-39.11757362152683,76.66406621564096],[-39.10550724538328,76.66477391686021],[-39.10844972320927,76.66558175192623],[-39.09515738938667,76.66782558845426],[-39.124483824449385,76.66967670039814],[-39.13024508741501,76.67045243487914],[-39.17622644092064,76.67052611589476],[-39.192030598381976,76.67092559202044],[-39.23714568936048,76.66964649543456]]]}},{"type":"Feature","properties":{"N03_001":"長野県","N03_002":null,"N03_003":null,"N03_004":"小諸市","N03_007":"20208"},"geometry":{"type":"Polygon","coordinates":[[[-39.08202100520485,76.65939267788099],[-39.09020084396451,76.65865347336648],[-39.17267317172126,76.65489204830445],[-39.159723537897825,76.64854019481416],[-39.17420099372937,76.64923867499141],[-39.140243912854885,76.64716394371833],[-39.11626652460663,76.64650119665916],[-39.09654427882034,76.64662773896472],[-39.07149897223084,76.64766962964394],[-39.06807791642012,76.64883251985002],[-39.060087572989026,76.65375621783856],[-39.07566610255822,76.65410290527426],[-39.06581759982489,76.65727666512566],[-39.054767525778956,76.6583548154807],[-39.063343698439965,76.65792439707192],[-39.08202100520485,76.65939267788099]]]}},{"type":"Feature","properties":{"N03_001":"長野県","N03_002":null,"N03_003":null,"N03_004":"伊那市","N03_007":"20209"},"geometry":{"type":"Polygon","coordinates":[[[-39.256619613592754,76.62581127425297],[-39.2601959365064,76.62732469459016],[-39.2817463230915,76.62676774936688],[-39.29774920112152,76.62649488991599],[-39.2984528074155,76.62464237806503],[-39.312280494166814,76.62471496101621],[-39.3165230084281,76.62484393688653],[-39.33338190076713,76.62568448672916],[-39.337666719683135,76.62619341224848],[-39.35318238440272,76.6270119643764],[-39.36199510277211,76.62819195410421],[-39.3789685404403,76.62912295090011],[-39.40511581408017,76.62948261051103],[-39.42350359730018,76.62879351437844],[-39.42931041188596,76.62808551892546],[-39.44566258336556,76.62716479838458],[-39.44355623474303,76.6269628352765],[-39.41603978818467,76.62776398635545],[-39.40965983554298,76.62787847578518],[-39.344069784310456,76.6284637590537],[-39.33774713874709,76.62812061454434],[-39.328803131208446,76.62763423622451],[-39.307703943991285,76.62595131007048],[-39.29517810637835,76.62436084464036],[-39.29628044886498,76.62405100977385],[-39.29207757171628,76.62403384133921],[-39.285753577388235,76.62010888989705],[-39.29002860316071,76.61671919191484],[-39.2789348292284,76.61490582441715],[-39.2684985385525,76.61466238591251],[-39.250418060610464,76.61520504691877],[-39.237493896675716,76.61740372977293],[-39.23881304614562,76.61888719195049],[-39.231117995628345,76.61958071598733],[-39.2461393789316,76.62173064453309],[-39.25815040672715,76.62440017547027],[-39.235555942432434,76.6243021506424],[-39.25301611438083,76.62461616458195],[-39.26214188931211,76.62458315655329],[-39.25574402723746,76.62433707746636],[-39.26016857274756,76.62423605768856],[-39.256619613592754,76.62581127425297]]]}},{"type":"Feature","properties":{"N03_001":"長野県","N03_002":null,"N03_003":null,"N03_004":"駒ヶ根市","N03_007":"20210"},"geometry":{"type":"Polygon","coordinates":[[[-39.33774713874709,76.62812061454434],[-39.331777920580016,76.6272352137371],[-39.43607157991713,76.62418881445058],[-39.457000483019314,76.6255060395792],[-39.45740464367388,76.62539166444242],[-39.45703324016218,76.6236592828127],[-39.46179354913169,76.62131327249104],[-39.45611720712274,76.62032768452981],[-39.423186536577134,76.61589393155754],[-39.40017605457809,76.61604251541065],[-39.3423013858744,76.61980860679321],[-39.33028049561011,76.6182743804586],[-39.30839430188142,76.62107242023922],[-39.30061640430814,76.62381025511134],[-39.29628044886498,76.62405100977385],[-39.29517810637835,76.62436084464036],[-39.307703943991285,76.62595131007048],[-39.328803131208446,76.62763423622451],[-39.33774713874709,76.62812061454434]]]}},{"type":"Feature","properties":{"N03_001":"長野県","N03_002":null,"N03_003":null,"N03_004":"中野市","N03_007":"20211"},"geometry":{"type":"Polygon","coordinates":[[[-39.21202528449133,76.67041092923989],[-39.191721879434425,76.67043292477504],[-39.17196348481134,76.67086278005898],[-39.14900545980794,76.67098178299572],[-39.11874395567674,76.67162278636815],[-39.12321974821321,76.67262266492989],[-39.12166244710648,76.67629409272173],[-39.11317475867352,76.67833728576696],[-39.130896778119244,76.67982974561258],[-39.15015902921839,76.68039316453994],[-39.156377981536146,76.67978447708605],[-39.18820360835014,76.67975150796738],[-39.205011398400785,76.67989384668854],[-39.21672940314412,76.67918977892249],[-39.224860675352275,76.67593667161995],[-39.2148504965458,76.67645859619752],[-39.216003776419306,76.67328701489923],[-39.22552279492965,76.67119228064087],[-39.21202528449133,76.67041092923989]]]}},{"type":"Feature","properties":{"N03_001":"長野県","N03_002":null,"N03_003":null,"N03_004":"大町市","N03_007":"20212"},"geometry":{"type":"Polygon","coordinates":[[[-39.52748092763012,76.6509382474993],[-39.502448366188005,76.64725641844113],[-39.51151871092296,76.65265746763475],[-39.491775560141974,76.661097730179],[-39.48245998383007,76.66100226858572],[-39.459582755526924,76.6616979682372],[-39.453301561003975,76.66183241968359],[-39.43310462158117,76.66211598808889],[-39.42325665224446,76.6622309664121],[-39.42526375890369,76.66257942863713],[-39.40917875735545,76.66262159200257],[-39.395464598836305,76.6630769771161],[-39.383116690864966,76.6652236389671],[-39.399320881594626,76.66412726721694],[-39.407230820397054,76.66425324908981],[-39.371989191304465,76.66861671520913],[-39.38451528719522,76.66793700631297],[-39.383021598938605,76.668145080762],[-39.41491139014493,76.66674667270082],[-39.41765281358866,76.66612739083516],[-39.44224505620419,76.66491445294061],[-39.452459135116044,76.6663035455939],[-39.47218500622963,76.66714871649295],[-39.47860151390651,76.66417630734703],[-39.47589138213858,76.66298501283393],[-39.4877030348515,76.66283795324775],[-39.50356364536768,76.66253200768857],[-39.50532923094537,76.66231474870726],[-39.49836402246755,76.66231747660913],[-39.51223019305236,76.66197399495503],[-39.519572755521395,76.66166650529237],[-39.519316159737464,76.66120568185889],[-39.53520269189167,76.65918081237288],[-39.54895002876064,76.65828766781787],[-39.561339363866466,76.65638625220679],[-39.561079851293165,76.65523089886845],[-39.544581138201494,76.654259655474],[-39.52748092763012,76.6509382474993]]]}},{"type":"Feature","properties":{"N03_001":"長野県","N03_002":null,"N03_003":null,"N03_004":"飯山市","N03_007":"20213"},"geometry":{"type":"Polygon","coordinates":[[[-39.21672940314412,76.67918977892249],[-39.205011398400785,76.67989384668854],[-39.18820360835014,76.67975150796738],[-39.156377981536146,76.67978447708605],[-39.15015902921839,76.68039316453994],[-39.130896778119244,76.67982974561258],[-39.11651994879174,76.68156121256382],[-39.07897662203835,76.68218998024494],[-39.10049136930909,76.68421806822194],[-39.105660697293324,76.68747253826974],[-39.082865373599034,76.68875921855027],[-39.06500449911714,76.68852916354942],[-39.052087281614924,76.69075819683654],[-39.08953366963473,76.6907757360642],[-39.12720609466543,76.69028505318717],[-39.13776636774111,76.68990065989095],[-39.149192095917854,76.68707996343446],[-39.166249165768946,76.68503155119825],[-39.1858273417495,76.68511498561159],[-39.19919110202328,76.68368736544112],[-39.20157939130407,76.68071635958702],[-39.21654631520768,76.6793943676002],[-39.21672940314412,76.67918977892249]]]}},{"type":"Feature","properties":{"N03_001":"長野県","N03_002":null,"N03_003":null,"N03_004":"茅野市","N03_007":"20214"},"geometry":{"type":"Polygon","coordinates":[[[-39.2817463230915,76.62676774936688],[-39.2601959365064,76.62732469459016],[-39.256619613592754,76.62581127425297],[-39.24241364654769,76.62796186975176],[-39.22231695966112,76.62932119925357],[-39.23416883162967,76.62918612394726],[-39.23611281605871,76.63029576350708],[-39.216811700503364,76.63278631206576],[-39.136070467023124,76.63463205740493],[-39.1389848559073,76.63763985294096],[-39.142847911805006,76.6397238161677],[-39.15273177846948,76.64137408711751],[-39.15880573961311,76.64389487351825],[-39.172400312854194,76.64429571744266],[-39.18532358410029,76.64326079951621],[-39.20239575492341,76.64445304915638],[-39.21120388016848,76.64565917875089],[-39.23145893048823,76.64654649357247],[-39.23914683713702,76.64606096283978],[-39.23501725938798,76.64323831481751],[-39.238569861984104,76.64086967001785],[-39.238093490886136,76.63490982061916],[-39.27908529768194,76.62736871717514],[-39.2817463230915,76.62676774936688]]]}},{"type":"Feature","properties":{"N03_001":"長野県","N03_002":null,"N03_003":null,"N03_004":"塩尻市","N03_007":"20215"},"geometry":{"type":"Polygon","coordinates":[[[-39.427843414048034,76.65260346039985],[-39.425965400014796,76.65291624816244],[-39.45108099323491,76.65581437538022],[-39.45454383243892,76.65584327990878],[-39.48349536163517,76.63368502708792],[-39.48296816377846,76.63300753573962],[-39.466942803110754,76.63099977959875],[-39.45461227830201,76.62770324079268],[-39.44566258336556,76.62716479838458],[-39.42931041188596,76.62808551892546],[-39.42350359730018,76.62879351437844],[-39.431182316940145,76.629387411671],[-39.42555959610099,76.62989446140175],[-39.44392821167106,76.63045248967059],[-39.45072365639487,76.63093434737326],[-39.43282653121735,76.63084780360742],[-39.42693802869121,76.64191324259014],[-39.41138313635783,76.65519725452059],[-39.383325358724186,76.65067388396902],[-39.368787532390385,76.64864229670185],[-39.38312357615588,76.65497125200787],[-39.37591634622332,76.65304393941136],[-39.39760140081377,76.65218384739585],[-39.4006862591096,76.6516919180644],[-39.41383679799569,76.65157644716659],[-39.427843414048034,76.65260346039985]]]}},{"type":"Feature","properties":{"N03_001":"長野県","N03_002":null,"N03_003":null,"N03_004":"佐久市","N03_007":"20217"},"geometry":{"type":"Polygon","coordinates":[[[-39.06807791642012,76.64883251985002],[-39.07149897223084,76.64766962964394],[-39.09654427882034,76.64662773896472],[-39.11626652460663,76.64650119665916],[-39.140243912854885,76.64716394371833],[-39.17659472670443,76.64929248092578],[-39.16796502345325,76.64839431264217],[-39.18603045900421,76.64885303857493],[-39.19092529487124,76.64752225978022],[-39.18718137474922,76.6463742335639],[-39.172400312854194,76.64429571744266],[-39.15880573961311,76.64389487351825],[-39.10392289682263,76.64535708413602],[-39.035932499508945,76.64527103692272],[-39.027408444795306,76.64507555998676],[-38.99138349433766,76.64524337414812],[-38.991260287866304,76.6465085254548],[-39.00532802857287,76.6474482231287],[-39.00918941300898,76.6495657294751],[-39.020605284043356,76.64947772850174],[-39.05214368853005,76.64829642830847],[-39.06807791642012,76.64883251985002]]]}},{"type":"Feature","properties":{"N03_001":"長野県","N03_002":null,"N03_003":null,"N03_004":"千曲市","N03_007":"20218"},"geometry":{"type":"Polygon","coordinates":[[[-39.355187329512184,76.66378690696521],[-39.34183799747903,76.66366556145076],[-39.32863892533851,76.65904866861236],[-39.30831748644553,76.65656202198171],[-39.28344764841131,76.65544161149121],[-39.280016586085175,76.6554217870735],[-39.26578422440814,76.65573894916972],[-39.25472605481527,76.65735209013855],[-39.24416794577919,76.66066554942968],[-39.24643630090785,76.66436342363198],[-39.27116692306024,76.67119624265769],[-39.28119491050737,76.67139702905295],[-39.296495066196734,76.67155191107138],[-39.30738993537261,76.67175376252155],[-39.33802181478982,76.67063689552259],[-39.355187329512184,76.66378690696521]]]}},{"type":"Feature","properties":{"N03_001":"長野県","N03_002":null,"N03_003":null,"N03_004":"東御市","N03_007":"20219"},"geometry":{"type":"Polygon","coordinates":[[[-39.12505489671636,76.66300747892237],[-39.18480408914432,76.66286453278867],[-39.20485270140382,76.66043746620475],[-39.22422921908568,76.65513041643231],[-39.21549934479293,76.65436270697009],[-39.21221594297476,76.65379692024356],[-39.21740341750697,76.65421574575556],[-39.17659472670443,76.64929248092578],[-39.140243912854885,76.64716394371833],[-39.17420099372937,76.64923867499141],[-39.159723537897825,76.64854019481416],[-39.17267317172126,76.65489204830445],[-39.09020084396451,76.65865347336648],[-39.08202100520485,76.65939267788099],[-39.083480681356995,76.65985669708053],[-39.12505489671636,76.66300747892237]]]}},{"type":"Feature","properties":{"N03_001":"長野県","N03_002":null,"N03_003":null,"N03_004":"安曇野市","N03_007":"20220"},"geometry":{"type":"Polygon","coordinates":[[[-39.36208401484544,76.65495431726615],[-39.373885854901495,76.65785555821356],[-39.38052275615988,76.65633488910808],[-39.39406765531084,76.65827079462706],[-39.40164478761356,76.66014557157044],[-39.40730955322901,76.65919290642526],[-39.42517801373786,76.65489741330991],[-39.465754014573385,76.66096758095047],[-39.47941360090052,76.66014889905631],[-39.48245998383007,76.66100226858572],[-39.491775560141974,76.661097730179],[-39.51151871092296,76.65265746763475],[-39.48261826154747,76.64542899450637],[-39.48094157240979,76.64619123976547],[-39.474364594510085,76.64730414829168],[-39.46006771762819,76.64725372063509],[-39.46118970971948,76.64868430810132],[-39.44797029021431,76.64851580620234],[-39.431155829772734,76.64896971243591],[-39.41254373450726,76.64860505281021],[-39.40386824030149,76.64698672835715],[-39.39481827926453,76.64681331905105],[-39.39345249007814,76.64640892959513],[-39.400309300754124,76.64592654118591],[-39.377648370401985,76.65172184580527],[-39.36208401484544,76.65495431726615]]]}}]}