{"type":"FeatureCollection","features":[{"type":"Feature","properties":{"N03_001":"熊本県","N03_002":null,"N03_003":"熊本市","N03_004":"中央区","N03_007":"43101"},"geometry":{"type":"Polygon","coordinates":[[[-43.41538401669299,76.48327418572836],[-43.44811715394003,76.48253615121187],[-43.46043721793083,76.48019722790112],[-43.46037233703004,76.4735558375841],[-43.42134272726626,76.47032061016178],[-43.39215309636891,76.47815314499063],[-43.41538401669299,76.48327418572836]]]}},{"type":"Feature","properties":{"N03_001":"熊本県","N03_002":null,"N03_003":"熊本市","N03_004":"東区","N03_007":"43102"},"geometry":{"type":"Polygon","coordinates":[[[-43.42134272726626,76.47032061016178],[-43.41846420653064,76.46958752781867],[-43.38607863178037,76.4695474028616],[-43.36996978718485,76.47573020908756],[-43.34497581663189,76.48178962148177],[-43.36092757124498,76.48426517880343],[-43.37071019620729,76.48427017802871],[-43.38840670656483,76.4840540653659],[-43.41538401669299,76.48327418572836],[-43.39215309636891,76.47815314499063],[-43.42134272726626,76.47032061016178]]]}},{"type":"Feature","properties":{"N03_001":"熊本県","N03_002":null,"N03_003":"熊本市","N03_004":"西区","N03_007":"43103"},"geometry":{"type":"Polygon","coordinates":[[[-43.44811715394003,76.48253615121187],[-43.45385782398082,76.48274826493802],[-43.46721938936364,76.48272723063431],[-43.47658406305916,76.4845663022103],[-43.49376415256824,76.48432248810842],[-43.498693749489206,76.48419945813782],[-43.509727937949776,76.48267694899434],[-43.53201672143173,76.48168934550058],[-43.529602678088175,76.48020249668397],[-43.51048653122064,76.47635290361427],[-43.51845662811606,76.475429019763],[-43.51054012952639,76.47401128865761],[-43.46037233703004,76.4735558375841],[-43.46043721793083,76.48019722790112],[-43.44811715394003,76.48253615121187]]]}},{"type":"Feature","properties":{"N03_001":"熊本県","N03_002":null,"N03_003":"熊本市","N03_004":"南区","N03_007":"43104"},"geometry":{"type":"Polygon","coordinates":[[[-43.46037233703004,76.4735558375841],[-43.51054012952639,76.47401128865761],[-43.505596212842924,76.47250352666762],[-43.48113160873822,76.47092721868617],[-43.446553237874014,76.46774394125944],[-43.412409392265374,76.4614763964291],[-43.403376791847684,76.45829039162562],[-43.392155871890516,76.46006856743733],[-43.399935501972394,76.46477537694365],[-43.39758189449543,76.46697301998553],[-43.398910038699334,76.46761365368607],[-43.41846420653064,76.46958752781867],[-43.42134272726626,76.47032061016178],[-43.46037233703004,76.4735558375841]]]}},{"type":"Feature","properties":{"N03_001":"熊本県","N03_002":null,"N03_003":"熊本市","N03_004":"北区","N03_007":"43105"},"geometry":{"type":"Polygon","coordinates":[[[-43.41538401669299,76.48327418572836],[-43.38840670656483,76.4840540653659],[-43.37071019620729,76.48427017802871],[-43.41405629779996,76.4834318625245],[-43.441509012678274,76.48846067522054],[-43.42677304328791,76.49311732780421],[-43.42021687484273,76.49409616088404],[-43.460607884586786,76.4920369744926],[-43.47532093106671,76.49030547088014],[-43.48616854235319,76.48852361102968],[-43.483202846927,76.48673807438058],[-43.49376415256824,76.48432248810842],[-43.47658406305916,76.4845663022103],[-43.46721938936364,76.48272723063431],[-43.45385782398082,76.48274826493802],[-43.44811715394003,76.48253615121187],[-43.41538401669299,76.48327418572836]]]}},{"type":"Feature","properties":{"N03_001":"熊本県","N03_002":null,"N03_003":null,"N03_004":"八代市","N03_007":"43202"},"geometry":{"type":"Polygon","coordinates":[[[-43.4122886259114,76.45962825175269],[-43.42322494398291,76.46027885858257],[-43.428497539435334,76.45954223635539],[-43.42479997385215,76.45901035849822],[-43.43767585076216,76.45762902284625],[-43.472681127586426,76.45770660244463],[-43.49934440749031,76.45881018879788],[-43.529626071638035,76.4608844883136],[-43.48718594175945,76.46010190230379],[-43.48219121456422,76.46085882439543],[-43.51866970492991,76.46024637824969],[-43.52607343337147,76.4598283879087],[-43.45970738919683,76.46260082855112],[-43.445312821457506,76.46401256032343],[-43.439139581528856,76.46378765118871],[-43.425511069941265,76.46564875703366],[-43.41468990555649,76.46531047118063],[-43.40996460328571,76.46503937370355],[-43.41399636908885,76.46454422400548],[-43.415038536035134,76.4628097715834],[-43.40980538468089,76.4620451626039],[-43.3788933049888,76.4619838473874],[-43.37325715107787,76.46214926645222],[-43.36364279317433,76.46303811793558],[-43.3634310749325,76.46379798756513],[-43.35001224233705,76.4639232793148],[-43.34049789886477,76.46354037611647],[-43.31577635885368,76.4631818561666],[-43.29516347304607,76.46325754823552],[-43.296058817204376,76.46407186863527],[-43.28496661912327,76.46446835863615],[-43.28548907312027,76.46517942707689],[-43.295349877273,76.465363851089],[-43.32710086642503,76.4636025232627],[-43.36447899518331,76.45990412451803],[-43.37341056782082,76.45956782627314],[-43.382449819019804,76.45999105212631],[-43.38898990478313,76.45975489648048],[-43.39459029648195,76.45864925695197],[-43.40698903790726,76.45982456987102],[-43.4122886259114,76.45962825175269]]]}},{"type":"Feature","properties":{"N03_001":"熊本県","N03_002":null,"N03_003":null,"N03_004":"人吉市","N03_007":"43203"},"geometry":{"type":"Polygon","coordinates":[[[-43.40093239273257,76.45617142658068],[-43.41464458336896,76.45600637478286],[-43.42221328541719,76.45714181326045],[-43.42125654514383,76.45898604778347],[-43.429346022578784,76.46098108080524],[-43.433660815495635,76.45987869890226],[-43.425071272149225,76.4577795922786],[-43.44260986131118,76.45534656678184],[-43.46185820021939,76.45299433254422],[-43.470462055262736,76.45140344292108],[-43.469265532931864,76.45068687128419],[-43.44666391786286,76.44966468693656],[-43.43571977870361,76.44948707825941],[-43.418979334597786,76.4497419682116],[-43.364494623126454,76.4491449708859],[-43.35331543469248,76.4501793589152],[-43.38144024047612,76.45114599680278],[-43.38844601662458,76.45323119765916],[-43.404318127068784,76.45449525975513],[-43.40093239273257,76.45617142658068]]]}},{"type":"Feature","properties":{"N03_001":"熊本県","N03_002":null,"N03_003":null,"N03_004":"荒尾市","N03_007":"43204"},"geometry":{"type":"Polygon","coordinates":[[[-43.56542589927919,76.48443619475914],[-43.53399914673499,76.4905747642858],[-43.53535921835933,76.49158083777267],[-43.54478866118814,76.49340024944709],[-43.568315439252814,76.49397001910266],[-43.62209484137415,76.49112482224206],[-43.617107427144596,76.49012647352465],[-43.60939070432436,76.48511013620062],[-43.582300337583426,76.4845050024892],[-43.56542589927919,76.48443619475914]]]}},{"type":"Feature","properties":{"N03_001":"熊本県","N03_002":null,"N03_003":null,"N03_004":"水俣市","N03_007":"43205"},"geometry":{"type":"Polygon","coordinates":[[[-43.59382479398196,76.45385594025952],[-43.616305581419866,76.45344446108385],[-43.62989825459409,76.4521624498331],[-43.63680406028985,76.45059977931804],[-43.62251461425878,76.44964684666989],[-43.613531270881246,76.44838495935237],[-43.591353863400485,76.44813977527993],[-43.570815748865925,76.44868732964464],[-43.560755423951406,76.44935534511652],[-43.53319894739908,76.44989324063455],[-43.52293640611035,76.45085651720827],[-43.5089053174757,76.45107255030226],[-43.50272788877498,76.45266211283399],[-43.509296025010464,76.45298940025741],[-43.52727177504073,76.45287494351871],[-43.546152181489134,76.4520171257761],[-43.57194090484099,76.45310595973763],[-43.58404232784734,76.45301530043305],[-43.59382479398196,76.45385594025952]]]}},{"type":"Feature","properties":{"N03_001":"熊本県","N03_002":null,"N03_003":null,"N03_004":"玉名市","N03_007":"43206"},"geometry":{"type":"Polygon","coordinates":[[[-43.498693749489206,76.48419945813782],[-43.50489879756275,76.48457033503982],[-43.49934929189836,76.48624136112565],[-43.500005497241865,76.48817426730294],[-43.487654483693774,76.49001798695217],[-43.49608878749645,76.49065054727323],[-43.4975727644689,76.4918099298471],[-43.50825069697198,76.49185847661911],[-43.53535921835933,76.49158083777267],[-43.53399914673499,76.4905747642858],[-43.56542589927919,76.48443619475914],[-43.58243890961449,76.48324630622707],[-43.55583721934088,76.48265591945723],[-43.55767336769517,76.48119198714929],[-43.53201672143173,76.48168934550058],[-43.509727937949776,76.48267694899434],[-43.498693749489206,76.48419945813782]]]}},{"type":"Feature","properties":{"N03_001":"熊本県","N03_002":null,"N03_003":null,"N03_004":"山鹿市","N03_007":"43208"},"geometry":{"type":"Polygon","coordinates":[[[-43.47532093106671,76.49030547088014],[-43.460607884586786,76.4920369744926],[-43.42021687484273,76.49409616088404],[-43.40060533020536,76.49374319949446],[-43.390686581092865,76.49343131717065],[-43.3779713043109,76.4927553340803],[-43.378971949801986,76.49262263436691],[-43.3635249926861,76.49296637128897],[-43.36754836498976,76.49355308389441],[-43.39715229811875,76.49430682307657],[-43.40662048316924,76.4942970818095],[-43.42331398971028,76.49526336661022],[-43.440310598640515,76.49588267740724],[-43.45166287636494,76.49713130921472],[-43.46059477726322,76.496720673971],[-43.462333274170646,76.49476991513777],[-43.46381153596028,76.49441752108896],[-43.47343086787433,76.49440042220891],[-43.46224894877526,76.4940915067365],[-43.47161436985502,76.49377100126327],[-43.468183557377685,76.49306364281593],[-43.48549135951459,76.49033002513758],[-43.47532093106671,76.49030547088014]]]}},{"type":"Feature","properties":{"N03_001":"熊本県","N03_002":null,"N03_003":null,"N03_004":"菊池市","N03_007":"43210"},"geometry":{"type":"Polygon","coordinates":[[[-43.42677304328791,76.49311732780421],[-43.40914736146871,76.49397768259017],[-43.34804825416466,76.48898648108323],[-43.34797082804791,76.49070341201937],[-43.33913555681532,76.490383509645],[-43.30876732082851,76.48884812058706],[-43.291083667274876,76.48858777699718],[-43.29865437255647,76.48975497162672],[-43.2906168331491,76.48988399693718],[-43.30103526024761,76.4907514035991],[-43.33357070612183,76.49144272559516],[-43.33936119928507,76.49214261306473],[-43.3635249926861,76.49296637128897],[-43.378971949801986,76.49262263436691],[-43.3779713043109,76.4927553340803],[-43.390686581092865,76.49343131717065],[-43.40060533020536,76.49374319949446],[-43.42021687484273,76.49409616088404],[-43.42677304328791,76.49311732780421]]]}},{"type":"Feature","properties":{"N03_001":"熊本県","N03_002":null,"N03_003":null,"N03_004":"宇土市","N03_007":"43211"},"geometry":{"type":"Polygon","coordinates":[[[-43.505596212842924,76.47250352666762],[-43.53112266544272,76.47191374643373],[-43.544529244291816,76.4699036188435],[-43.564495752902936,76.46980540387825],[-43.55802619553983,76.46925596651646],[-43.53535200792853,76.46908423151604],[-43.523317813358005,76.46853393916432],[-43.431347339907404,76.46152369416926],[-43.4224959502539,76.4582574557284],[-43.41967485642979,76.46132191099115],[-43.412409392265374,76.4614763964291],[-43.446553237874014,76.46774394125944],[-43.48113160873822,76.47092721868617],[-43.505596212842924,76.47250352666762]]]}},{"type":"Feature","properties":{"N03_001":"熊本県","N03_002":null,"N03_003":null,"N03_004":"宇城市","N03_007":"43213"},"geometry":{"type":"Polygon","coordinates":[[[-43.412409392265374,76.4614763964291],[-43.41967485642979,76.46132191099115],[-43.4224959502539,76.4582574557284],[-43.431347339907404,76.46152369416926],[-43.523317813358005,76.46853393916432],[-43.53535200792853,76.46908423151604],[-43.55802619553983,76.46925596651646],[-43.564495752902936,76.46980540387825],[-43.588789217930895,76.46894521155818],[-43.57968771277905,76.46766029513579],[-43.55686218461577,76.46734650652076],[-43.541289926110004,76.46751822267805],[-43.44107297745984,76.45771372609238],[-43.42323756770681,76.4578618419368],[-43.4122886259114,76.45962825175269],[-43.40698903790726,76.45982456987102],[-43.39459029648195,76.45864925695197],[-43.392705453970244,76.4593732192675],[-43.392155871890516,76.46006856743733],[-43.403376791847684,76.45829039162562],[-43.412409392265374,76.4614763964291]]]}},{"type":"Feature","properties":{"N03_001":"熊本県","N03_002":null,"N03_003":null,"N03_004":"阿蘇市","N03_007":"43214"},"geometry":{"type":"Polygon","coordinates":[[[-43.291083667274876,76.48858777699718],[-43.28144463154518,76.48686967776479],[-43.26892658313752,76.48728297516632],[-43.25407350965838,76.48722332321722],[-43.2355656410784,76.48681892995413],[-43.22352237919453,76.48681217369904],[-43.197979141450496,76.48656634747398],[-43.18798354444175,76.48534347734717],[-43.1469644505032,76.48540360318272],[-43.15322790651263,76.48718031697376],[-43.18911400552299,76.48724985450787],[-43.18936569071845,76.48746794273963],[-43.20267707341924,76.48750932798943],[-43.19598217595563,76.4884319523657],[-43.21325745586059,76.48812478483127],[-43.22693617982031,76.48771471282845],[-43.26556869655175,76.48857583821457],[-43.27307667153374,76.48931031978887],[-43.2906168331491,76.48988399693718],[-43.29865437255647,76.48975497162672],[-43.291083667274876,76.48858777699718]]]}},{"type":"Feature","properties":{"N03_001":"熊本県","N03_002":null,"N03_003":null,"N03_004":"合志市","N03_007":"43216"},"geometry":{"type":"Polygon","coordinates":[[[-43.41405629779996,76.4834318625245],[-43.340865861588085,76.4876876574224],[-43.34804825416466,76.48898648108323],[-43.40914736146871,76.49397768259017],[-43.42677304328791,76.49311732780421],[-43.441509012678274,76.48846067522054],[-43.41405629779996,76.4834318625245]]]}}]}