{"type":"FeatureCollection","features":[{"type":"Feature","properties":{"N03_001":"群馬県","N03_002":null,"N03_003":null,"N03_004":"前橋市","N03_007":"10201"},"geometry":{"type":"Polygon","coordinates":[[[-38.67859011996204,76.67158664435503],[-38.68829335215355,76.67172242332015],[-38.73432128302559,76.66510542585151],[-38.751806284796906,76.66357014497711],[-38.76229965891064,76.66229500044219],[-38.7745319593963,76.66243485463814],[-38.774976790744304,76.66212423499411],[-38.764412128410505,76.66206471414677],[-38.76174622152298,76.66046376024077],[-38.74340563553241,76.65967622245569],[-38.733207265430934,76.65768943230594],[-38.713190094752456,76.65884569005497],[-38.70113541219693,76.65936220032002],[-38.66507811361773,76.66292951570365],[-38.673067491953574,76.6651005772777],[-38.68127896946758,76.66819782366181],[-38.67859011996204,76.67158664435503]]]}},{"type":"Feature","properties":{"N03_001":"群馬県","N03_002":null,"N03_003":null,"N03_004":"伊勢崎市","N03_007":"10204"},"geometry":{"type":"Polygon","coordinates":[[[-38.713190094752456,76.65884569005497],[-38.710433916932345,76.65632526094106],[-38.691655552445795,76.65242587626145],[-38.64763661025148,76.65021719337736],[-38.63146745000163,76.6504677770903],[-38.62996380268789,76.65255068606412],[-38.637341079619524,76.65775937176159],[-38.63267686541787,76.6608429716377],[-38.64674786007915,76.66272936989618],[-38.66507811361773,76.66292951570365],[-38.70113541219693,76.65936220032002],[-38.713190094752456,76.65884569005497]]]}},{"type":"Feature","properties":{"N03_001":"群馬県","N03_002":null,"N03_003":null,"N03_004":"太田市","N03_007":"10205"},"geometry":{"type":"Polygon","coordinates":[[[-38.6099838695974,76.66069852565018],[-38.63267686541787,76.6608429716377],[-38.637341079619524,76.65775937176159],[-38.62996380268789,76.65255068606412],[-38.63146745000163,76.6504677770903],[-38.60106849934835,76.64990818686566],[-38.58426981607678,76.6508030495449],[-38.57151793843145,76.64990183535262],[-38.567286613988756,76.65200799943275],[-38.55821802937927,76.65298728325116],[-38.54495253299084,76.65265358212984],[-38.53872218694466,76.65457628001849],[-38.55089520200039,76.65627329618866],[-38.54680783838811,76.6574034681348],[-38.57667322150049,76.65964480007818],[-38.59323224067048,76.65954733710338],[-38.6099838695974,76.66069852565018]]]}},{"type":"Feature","properties":{"N03_001":"群馬県","N03_002":null,"N03_003":null,"N03_004":"沼田市","N03_007":"10206"},"geometry":{"type":"Polygon","coordinates":[[[-38.77277908668832,76.66948066679018],[-38.76819141281512,76.66922862190845],[-38.73733535850561,76.6705361091413],[-38.74203019949497,76.67133316110228],[-38.72226898814273,76.67266954599599],[-38.7070320480936,76.67255418566795],[-38.696955143302056,76.67273714750058],[-38.69085921874291,76.67241786627766],[-38.68829335215355,76.67172242332015],[-38.67859011996204,76.67158664435503],[-38.67971708309697,76.67252304413601],[-38.65405501224045,76.67291432286633],[-38.63265985124927,76.67188303999703],[-38.63136419911137,76.67245722183111],[-38.617614031298515,76.67228478702026],[-38.61271353245433,76.67311504953695],[-38.59807982417932,76.67363130403545],[-38.5864339070673,76.67502794291],[-38.59472446954196,76.67595421442459],[-38.62914591314116,76.67407656828566],[-38.64855632142152,76.67259288271454],[-38.66310507281531,76.6724694272993],[-38.67556421820923,76.67286290622083],[-38.69783334330771,76.67271630512587],[-38.71828353907783,76.67255843424417],[-38.718172478955104,76.67246688823894],[-38.706780117626295,76.6739385664741],[-38.73840436758019,76.67546971082155],[-38.75552265936508,76.67500012814085],[-38.746229708170446,76.67356113995025],[-38.753687754137964,76.67330600591228],[-38.74261774501686,76.67258321153423],[-38.775459829811055,76.67145069432219],[-38.77277908668832,76.66948066679018]]]}},{"type":"Feature","properties":{"N03_001":"群馬県","N03_002":null,"N03_003":null,"N03_004":"館林市","N03_007":"10207"},"geometry":{"type":"Polygon","coordinates":[[[-38.51064761595334,76.65569640681943],[-38.52095487727917,76.64763176354664],[-38.53224178734754,76.64839903799086],[-38.52204284924411,76.64676933641988],[-38.5026784862204,76.64535345580595],[-38.44090562243334,76.6469958874058],[-38.43861132480383,76.6493426957677],[-38.43540312429184,76.65359741924712],[-38.45069904951472,76.65519827188027],[-38.47803383997442,76.65721239572389],[-38.51064761595334,76.65569640681943]]]}},{"type":"Feature","properties":{"N03_001":"群馬県","N03_002":null,"N03_003":null,"N03_004":"渋川市","N03_007":"10208"},"geometry":{"type":"Polygon","coordinates":[[[-38.68829335215355,76.67172242332015],[-38.69085921874291,76.67241786627766],[-38.73733535850561,76.6705361091413],[-38.76819141281512,76.66922862190845],[-38.77277908668832,76.66948066679018],[-38.78791583478243,76.66873979205586],[-38.81703778955553,76.66865216257706],[-38.8320230965511,76.66745912744446],[-38.823520997083314,76.66705700586816],[-38.80418263574501,76.66723072961662],[-38.81819647138884,76.6654997022214],[-38.83674341420369,76.66474560532914],[-38.846060187742864,76.66376285426259],[-38.82785659074107,76.6635450410051],[-38.816254446979976,76.66365898949869],[-38.79968397359823,76.66408483444387],[-38.763782167504175,76.66344557369791],[-38.751806284796906,76.66357014497711],[-38.73432128302559,76.66510542585151],[-38.68829335215355,76.67172242332015]]]}},{"type":"Feature","properties":{"N03_001":"群馬県","N03_002":null,"N03_003":null,"N03_004":"藤岡市","N03_007":"10209"},"geometry":{"type":"Polygon","coordinates":[[[-38.72358157010451,76.65418699012838],[-38.73086794383226,76.6548104376859],[-38.75120817857243,76.65478133811321],[-38.77027183819554,76.65164583889779],[-38.791274423970684,76.64901923725905],[-38.81438685604144,76.64816226561769],[-38.83164431695795,76.64725574810325],[-38.84888817297277,76.64564597429145],[-38.88272389132731,76.64524058334536],[-38.89186002947427,76.64455452628711],[-38.860395728492115,76.64484347654684],[-38.854166173218616,76.644304225993],[-38.83137409260617,76.64484621477517],[-38.80653570900046,76.64430081287097],[-38.80592038170372,76.64327714229671],[-38.79593165217368,76.64292376297544],[-38.7724116238449,76.64372765413096],[-38.75682146037152,76.64363406794715],[-38.74536620535879,76.64511955585229],[-38.74733080474953,76.64719629031983],[-38.7279291399642,76.65125823616052],[-38.723694076069236,76.65271252764805],[-38.72358157010451,76.65418699012838]]]}},{"type":"Feature","properties":{"N03_001":"群馬県","N03_002":null,"N03_003":null,"N03_004":"富岡市","N03_007":"10210"},"geometry":{"type":"Polygon","coordinates":[[[-38.80782596909705,76.65621755138831],[-38.828468553351044,76.6569369359023],[-38.83256952127842,76.6563574507888],[-38.86610340310793,76.65574147910615],[-38.89634316588168,76.65716762350915],[-38.92254161325504,76.65617042998159],[-38.930503737773286,76.65551137444571],[-38.91397046727591,76.64979634336275],[-38.87652419725425,76.65088229777967],[-38.88397056676563,76.64731428984564],[-38.88074069881193,76.64609162059024],[-38.84803838148257,76.64805103901682],[-38.83329896697543,76.64930266379416],[-38.81946059704883,76.65337978640746],[-38.80921686943734,76.65401839546205],[-38.80782596909705,76.65621755138831]]]}},{"type":"Feature","properties":{"N03_001":"群馬県","N03_002":null,"N03_003":null,"N03_004":"安中市","N03_007":"10211"},"geometry":{"type":"Polygon","coordinates":[[[-38.930503737773286,76.65551137444571],[-38.92254161325504,76.65617042998159],[-38.89634316588168,76.65716762350915],[-38.86610340310793,76.65574147910615],[-38.83256952127842,76.6563574507888],[-38.828468553351044,76.6569369359023],[-38.80782596909705,76.65621755138831],[-38.8156058536959,76.6583557053077],[-38.866593463710146,76.65882955919196],[-38.8743430186631,76.65865772733275],[-38.90663220736577,76.65857903675423],[-38.91820864883775,76.65869802157626],[-38.95493048980501,76.65932136271188],[-38.974881696297636,76.65905785842611],[-38.974670497643096,76.65461938167702],[-38.97367988142703,76.65381889117214],[-38.94815083792889,76.65427437602283],[-38.930503737773286,76.65551137444571]]]}},{"type":"Feature","properties":{"N03_001":"群馬県","N03_002":null,"N03_003":null,"N03_004":"みどり市","N03_007":"10212"},"geometry":{"type":"Polygon","coordinates":[[[-38.617614031298515,76.67228478702026],[-38.63136419911137,76.67245722183111],[-38.63265985124927,76.67188303999703],[-38.61557008387587,76.66962584685393],[-38.62643502958369,76.66844118413731],[-38.632809155055995,76.66616665963296],[-38.659406258835816,76.6649645827688],[-38.64353257928453,76.66435367250864],[-38.63777700319183,76.66290004678197],[-38.64674786007915,76.66272936989618],[-38.63267686541787,76.6608429716377],[-38.6099838695974,76.66069852565018],[-38.61017435586935,76.66159751660918],[-38.62995211823828,76.66266260642082],[-38.62449793827795,76.66384497225961],[-38.61133228398509,76.66446467897332],[-38.60261521943841,76.66577224945856],[-38.588501397377044,76.66666098212377],[-38.563171780573875,76.66688308547627],[-38.54754121152195,76.66807792303045],[-38.53507469278054,76.66776490542583],[-38.517302508385434,76.66884731343325],[-38.52835193930349,76.67013915696144],[-38.551496617787635,76.67015038634976],[-38.560687496537696,76.67053447266575],[-38.59947602841091,76.67139625370616],[-38.617614031298515,76.67228478702026]]]}}]}